{"features": [{"geometry": {"coordinates": [-0.2611379, 5.5670731], "type": "Point"}, "id": 2147840765, "properties": {"amenity": "university", "name": "Methodist University College"}, "type": "Feature"}, {"geometry": {"coordinates": [-0.2295662, 5.5393973], "type": "Point"}, "id": 2148021144, "properties": {"amenity": "university", "name": "University of Ghana Medical School"}, "type": "Feature"}, {"geometry": {"coordinates": [-0.1662988, 5.5820471], "type": "Point"}, "id": 2605944608, "properties": {"addr:city": "Accra", "addr:housenumber": "Plot #4", "addr:street": "4th Circular Road", "amenity": "university", "name": "Webster University Campus Ghana"}, "type": "Feature"}, {"geometry": {"coordinates": [-0.0600694, 5.607476], "type": "Point"}, "id": 2622097846, "properties": {"amenity": "university", "name": "Regional Maritime University"}, "type": "Feature"}, {"geometry": {"coordinates": [-0.2090898, 5.5708833], "type": "Point"}, "id": 3043620371, "properties": {"amenity": "university", "name": "Sikkim Manipal University Ghana"}, "type": "Feature"}, {"geometry": {"coordinates": [-0.2305864, 5.6671241], "type": "Point"}, "id": 3063488061, "properties": {"amenity": "university", "name": "Graduate School of Nuclear and Allied Sciences - University of Ghana"}, "type": "Feature"}, {"geometry": {"coordinates": [-0.118677, 5.6556096], "type": "Point"}, "id": 3802490986, "properties": {"amenity": "university", "name": "Islamic University"}, "type": "Feature"}, {"geometry": {"coordinates": [[-0.2744311, 5.5547182], [-0.2742925, 5.5547161], [-0.2742977, 5.5543689], [-0.2746671, 5.5543743], [-0.2746636, 5.5546108], [-0.2744327, 5.5546074], [-0.2744311, 5.5547182]], "type": "LineString"}, "id": 244176341, "properties": {"addr:city": "Accra", "amenity": "university", "name": "Regent University College of Science and Technology (King's Campus)", "phone": "+233-302-662885", "website": "http://www.regentghana.net/", "wikipedia": "en:Regent University College of Science and Technology"}, "type": "Feature"}, {"geometry": {"coordinates": [[-0.24174, 5.566468], [-0.2410218, 5.5660465], [-0.2414227, 5.5654509], [-0.2421585, 5.5659133], [-0.2418535, 5.5663909], [-0.2418135, 5.5663668], [-0.24174, 5.566468]], "type": "LineString"}, "id": 276975605, "properties": {"addr:place": "Kaneshie", "amenity": "university", "name": "Central University College - Mataheko Campus"}, "type": "Feature"}, {"geometry": {"coordinates": [[-0.1809881, 5.6671693], [-0.1832147, 5.6671655], [-0.190475, 5.6670915], [-0.1998717, 5.6529801], [-0.2011342, 5.6448245], [-0.2011327, 5.6398098], [-0.1987425, 5.6360928], [-0.1900672, 5.6335818], [-0.1857515, 5.6271736], [-0.1782938, 5.6313078], [-0.1778466, 5.6315557], [-0.1778583, 5.6325294], [-0.1772298, 5.6329026], [-0.1778508, 5.6378821], [-0.1804996, 5.6510267], [-0.1808276, 5.6536678], [-0.1815399, 5.6545129], [-0.1814793, 5.6562265], [-0.1810255, 5.656232], [-0.180632, 5.6560066], [-0.1791726, 5.6588198], [-0.1788736, 5.6598352], [-0.178569, 5.6614428], [-0.1783531, 5.6630533], [-0.1786078, 5.6644199], [-0.1810111, 5.6643758], [-0.1809881, 5.6671693]], "type": "LineString"}, "id": 308668766, "properties": {"amenity": "university", "name": "Volleyball Court", "name:en": "ATM machines", "opening_hours": "24/7", "wikidata": "Q2303765"}, "type": "Feature"}, {"geometry": {"coordinates": [[-0.166218, 5.6599591], [-0.1654634, 5.6599505], [-0.165455, 5.6606725], [-0.1651978, 5.6606696], [-0.1651921, 5.6613649], [-0.1676462, 5.661711], [-0.1676664, 5.6599758], [-0.166218, 5.6599591]], "type": "LineString"}, "id": 309660062, "properties": {"alt_name": "UPSA", "amenity": "university", "name": "University of Professional Studies, Accra", "old_name": "University of Professional Studies", "wikipedia": "en:University of Professional Studies"}, "type": "Feature"}, {"geometry": {"coordinates": [[-0.2362726, 5.6000351], [-0.2364467, 5.5995094], [-0.2360171, 5.5993684], [-0.2358541, 5.5998268], [-0.2358754, 5.599898], [-0.2362726, 5.6000351]], "type": "LineString"}, "id": 357120832, "properties": {"amenity": "university"}, "type": "Feature"}, {"geometry": {"coordinates": [[-0.2248687, 5.596658], [-0.2232336, 5.5973886], [-0.2223194, 5.5956608], [-0.2233581, 5.5948299], [-0.2248687, 5.596658]], "type": "LineString"}, "id": 357120833, "properties": {"addr:place": "Tesano", "alt_name": "GTUC", "amenity": "university", "name": "Ghana Technology University College", "source": "Bing"}, "type": "Feature"}, {"geometry": {"coordinates": [[-0.1901769, 5.6690886], [-0.1896199, 5.6692129], [-0.1897317, 5.6697088], [-0.1893948, 5.6697839], [-0.1894616, 5.6700807], [-0.1903555, 5.6698813], [-0.1901769, 5.6690886]], "type": "LineString"}, "id": 358536692, "properties": {"amenity": "university", "name": "Wisconsin International College"}, "type": "Feature"}, {"geometry": {"coordinates": [[-0.2032142, 5.6425171], [-0.2075131, 5.6397471], [-0.2009759, 5.6296994], [-0.196677, 5.6324694], [-0.2032142, 5.6425171]], "type": "LineString"}, "id": 453505983, "properties": {"amenity": "university", "name": "Ghana Institute of Management and Public Administration (GIMPA)", "website": "www.gimpa.edu.gh"}, "type": "Feature"}], "type": "FeatureCollection"}