{"features": [{"geometry": {"coordinates": [10.4260175, 5.3552444], "type": "Point"}, "id": 2340217604, "properties": {"amenity": "university", "name": "IUT Victor FOTSO"}, "type": "Feature"}, {"geometry": {"coordinates": [10.4149959, 5.4380528], "type": "Point"}, "id": 4404320254, "properties": {"amenity": "university", "name": "Universit\u00e9 Evang\u00e9lique du Cameroun (UEC)", "website": "http://www.uecam.org"}, "type": "Feature"}, {"geometry": {"coordinates": [[10.4280933, 5.4616674], [10.4280544, 5.4614733], [10.4279113, 5.4615018], [10.427929, 5.4615898], [10.4279528, 5.4615851], [10.4279741, 5.4616911], [10.4280933, 5.4616674]], "type": "LineString"}, "id": 424953417, "properties": {"amenity": "university", "building": "yes", "name": "INSSAS"}, "type": "Feature"}, {"geometry": {"coordinates": [[10.4270444, 5.4620262], [10.4272236, 5.4620982], [10.4272668, 5.4619917], [10.4270877, 5.4619196], [10.4270444, 5.4620262]], "type": "LineString"}, "id": 424953418, "properties": {"amenity": "university", "building": "yes", "name": "ISSTECO"}, "type": "Feature"}, {"geometry": {"coordinates": [[10.4305821, 5.4702823], [10.4307074, 5.4702802], [10.4307059, 5.4701908], [10.4305806, 5.4701929], [10.4305821, 5.4702823]], "type": "LineString"}, "id": 425061004, "properties": {"amenity": "university", "building": "yes", "name": "Institu Nanfah"}, "type": "Feature"}, {"geometry": {"coordinates": [[10.4304414, 5.4702872], [10.4305491, 5.4702851], [10.4305472, 5.4701894], [10.4304395, 5.4701915], [10.4304414, 5.4702872]], "type": "LineString"}, "id": 425061005, "properties": {"amenity": "university", "building": "yes", "name": "Institut Money Keng"}, "type": "Feature"}, {"geometry": {"coordinates": [[10.4443101, 5.4789024], [10.4448313, 5.4788748], [10.4447836, 5.4785847], [10.4447415, 5.4784742], [10.4442392, 5.4785985], [10.4443101, 5.4789024]], "type": "LineString"}, "id": 425070172, "properties": {"amenity": "university", "name": "Complexe 3i Sant\u00e9"}, "type": "Feature"}, {"geometry": {"coordinates": [[10.4494626, 5.4744532], [10.4499344, 5.4743768], [10.4498944, 5.4741537], [10.4495085, 5.4742099], [10.4494626, 5.4744532]], "type": "LineString"}, "id": 425076238, "properties": {"amenity": "university", "building": "yes", "name": "INSAM"}, "type": "Feature"}, {"geometry": {"coordinates": [[10.4055614, 5.5018162], [10.4046521, 5.5013971], [10.4049632, 5.5008604], [10.4051564, 5.5009031], [10.4048801, 5.5013463], [10.4055909, 5.5017388], [10.4055614, 5.5018162]], "type": "LineString"}, "id": 425302882, "properties": {"amenity": "university", "name": "ENIEG Saint Andre"}, "type": "Feature"}], "type": "FeatureCollection"}