{"features": [{"geometry": {"coordinates": [107.6078527, -6.9038225], "type": "Point"}, "id": 29392601, "properties": {"amenity": "university", "name": "Universitas Islam Bandung"}, "type": "Feature"}, {"geometry": {"coordinates": [107.6084706, -6.9042997], "type": "Point"}, "id": 29392607, "properties": {"amenity": "university", "name": "Universitas Pasundan"}, "type": "Feature"}, {"geometry": {"coordinates": [107.6450259, -6.8980283], "type": "Point"}, "id": 30236642, "properties": {"amenity": "university", "name": "Universitas Widyatama"}, "type": "Feature"}, {"geometry": {"coordinates": [107.5973817, -6.9050969], "type": "Point"}, "id": 32042131, "properties": {"amenity": "university", "created_by": "JOSM", "name": "Ariyanti"}, "type": "Feature"}, {"geometry": {"coordinates": [107.6168803, -6.8932162], "type": "Point"}, "id": 32042180, "properties": {"amenity": "university", "created_by": "JOSM", "name": "Universitas Padjajaran"}, "type": "Feature"}, {"geometry": {"coordinates": [107.6307261, -6.975422], "type": "Point"}, "id": 1107733639, "properties": {"amenity": "university", "name": "Institut Teknologi Telkom"}, "type": "Feature"}, {"geometry": {"coordinates": [107.6109516, -6.9061025], "type": "Point"}, "id": 1342944408, "properties": {"addr:city": "Bandung", "addr:housenumber": "4", "addr:street": "Jl. Ir. H. Juanda", "amenity": "university", "name": "Universitas Padjajaran - Djuanda"}, "type": "Feature"}, {"geometry": {"coordinates": [107.6108713, -6.9116663], "type": "Point"}, "id": 1342970055, "properties": {"amenity": "university", "name": "Universitas Katolik Parahyangan"}, "type": "Feature"}, {"geometry": {"coordinates": [107.6363552, -6.897292], "type": "Point"}, "id": 1352122684, "properties": {"amenity": "university", "name": "Institut Teknologi Nasional"}, "type": "Feature"}, {"geometry": {"coordinates": [107.6173416, -6.8934028], "type": "Point"}, "id": 1383647419, "properties": {"amenity": "university", "name": "Universitas Padjajaran"}, "type": "Feature"}, {"geometry": {"coordinates": [107.7639704, -6.9341594], "type": "Point"}, "id": 1450239568, "properties": {"amenity": "university", "name": "Institut Pemerintahan Dalam Negeri"}, "type": "Feature"}, {"geometry": {"coordinates": [107.6358327, -6.8981327], "type": "Point"}, "id": 4315331597, "properties": {"addr:city": "Bandung", "addr:housenumber": "No. 23", "addr:street": "Jalan PH.H. Mustofa, Cikutra, Cibeunying Kidul, Neglasari, Cibeunying Kaler,", "amenity": "university", "name": "Institut Teknologi Nasional"}, "type": "Feature"}, {"geometry": {"coordinates": [107.6259866, -6.9271072], "type": "Point"}, "id": 4315338668, "properties": {"addr:city": "Bandung", "addr:housenumber": "No. 37", "addr:street": "Jl Terusan Halimun Burangrang Bandung", "amenity": "university", "name": "Institut Teknologi Adityawarman"}, "type": "Feature"}, {"geometry": {"coordinates": [107.6158471, -6.8888936], "type": "Point"}, "id": 4315385932, "properties": {"addr:city": "Bandung, Jawa Barat", "addr:housenumber": "#80-84", "addr:street": "Jalan Dipatiukur", "amenity": "university", "name": "Institut Teknologi Harapan Bangsa"}, "type": "Feature"}, {"geometry": {"coordinates": [107.6335478, -6.9721259], "type": "Point"}, "id": 4315403687, "properties": {"addr:city": "Bandung", "addr:street": "Jl. Telekomunikasi Terusan Buah Batu, Dayeuh Kolot, Jalan Sukabiru, Sukapura, Dayeuhkolot,", "amenity": "university", "name": "Institut Telkom"}, "type": "Feature"}, {"geometry": {"coordinates": [107.6151136, -6.8868408], "type": "Point"}, "id": 4315511482, "properties": {"addr:city": "Bandung, Jawa Barat", "addr:housenumber": "112-116", "addr:street": "Jalan Dipatiukur, Coblong", "amenity": "university", "name": "Universitas Komputer Indonesia"}, "type": "Feature"}, {"geometry": {"coordinates": [107.6339568, -6.9725808], "type": "Point"}, "id": 4315542406, "properties": {"addr:city": "Bandung", "addr:street": "Jl. STT Telcom, Sukapura, Dayeuhkolot,", "amenity": "university", "name": "Universitas Telkom"}, "type": "Feature"}, {"geometry": {"coordinates": [107.6105185, -6.8986812], "type": "Point"}, "id": 4326873603, "properties": {"addr:city": "Bandung, Jawa Barat", "addr:housenumber": "15", "addr:street": "Jl. Cikapayang , Tamansari, Bandung Wetan", "amenity": "university", "name": "Kantor Satuan Penjaminan Mutu & Pengawas Internal Itb"}, "type": "Feature"}, {"geometry": {"coordinates": [107.6103817, -6.891288], "type": "Point"}, "id": 4328186638, "properties": {"addr:city": "Bandung", "addr:housenumber": "10", "addr:street": "Jl. Ganesha", "amenity": "university", "name": "Bandung Institute of Technology"}, "type": "Feature"}, {"geometry": {"coordinates": [107.5812357, -6.8867651], "type": "Point"}, "id": 4328206586, "properties": {"addr:city": "Bandung", "addr:housenumber": "65", "addr:street": "Jalan Prof. Drg. Surya Sumantri", "amenity": "university", "name": "Universitas Kristen Maranatha"}, "type": "Feature"}, {"geometry": {"coordinates": [107.6342973, -6.8965816], "type": "Point"}, "id": 4329452898, "properties": {"addr:city": "Bandung", "addr:housenumber": "59", "addr:street": "Jl. Pahlawan , Sukaluyu, Cibeunying Kaler", "amenity": "university", "name": "Politeknik LP3I Bandung"}, "type": "Feature"}, {"geometry": {"coordinates": [107.6342424, -6.8961448], "type": "Point"}, "id": 4329457858, "properties": {"addr:city": "Bandung", "addr:housenumber": "69", "addr:street": "Jl. Pahlawan , Sukaluyu, Cibeunying Kaler", "amenity": "university", "name": "Universitas Winaya Mukti"}, "type": "Feature"}, {"geometry": {"coordinates": [107.6346164, -6.8947444], "type": "Point"}, "id": 4329467501, "properties": {"addr:city": "Bandung", "addr:housenumber": "83", "addr:street": "Jl. Pahlawan , Sukaluyu, Cibeunying Kaler", "amenity": "university", "name": "Politeknik Agp"}, "type": "Feature"}, {"geometry": {"coordinates": [107.6435144, -6.8962936], "type": "Point"}, "id": 4329574162, "properties": {"addr:city": "Bandung", "addr:housenumber": "171", "addr:street": "Jl. Cikutra , Neglasari, Cibeunying Kaler", "amenity": "university", "name": "Universitas Bandung Raya Fakusltas Pertanian"}, "type": "Feature"}, {"geometry": {"coordinates": [107.643286, -6.9001306], "type": "Point"}, "id": 4329579351, "properties": {"addr:city": "Bandung", "addr:housenumber": "171", "addr:street": "JL Cikutra", "amenity": "university", "name": "Universitas Bandung Raya (UNBAR)"}, "type": "Feature"}, {"geometry": {"coordinates": [107.643342, -6.8995626], "type": "Point"}, "id": 4329584401, "properties": {"addr:city": "Bandung", "addr:housenumber": "59", "addr:street": "Jl. PH.H. Mustofa , Neglasari, Cibeunying Kaler", "amenity": "university", "name": "Universitas Widyatama Pascasarjana"}, "type": "Feature"}, {"geometry": {"coordinates": [107.6045553, -6.9065089], "type": "Point"}, "id": 4329639329, "properties": {"addr:city": "Bandung", "addr:housenumber": "8", "addr:street": "Jl Cihampelas Pasir Kaliki Bandung", "amenity": "university", "name": "Sekolah Tinggi Hukum Bandung"}, "type": "Feature"}, {"geometry": {"coordinates": [107.600491, -6.9068564], "type": "Point"}, "id": 4329660483, "properties": {"addr:city": "Bandung", "addr:street": "Jl. Pajajaran, Pasir Kaliki, Cicendo", "amenity": "university", "name": "Politeknik Kesehatan Bandung"}, "type": "Feature"}, {"geometry": {"coordinates": [107.526534, -6.8875776], "type": "Point"}, "id": 4366139595, "properties": {"amenity": "university", "name": "Universit"}, "type": "Feature"}, {"geometry": {"coordinates": [107.5267246, -6.8874369], "type": "Point"}, "id": 4366139596, "properties": {"addr:city": "CImahi", "addr:postcode": "40285", "addr:street": "Jl. Terusan Jendral Sudirman", "amenity": "university", "name": "Universitas Jendral Ahmad Yani (UNJANI)"}, "type": "Feature"}, {"geometry": {"coordinates": [107.5816656, -6.9060558], "type": "Point"}, "id": 4370460566, "properties": {"amenity": "university", "name": "Universitas Nurtanio"}, "type": "Feature"}, {"geometry": {"coordinates": [107.6378958, -6.8984255], "type": "Point"}, "id": 4370519683, "properties": {"amenity": "university", "name": "STIE EKUITAS"}, "type": "Feature"}, {"geometry": {"coordinates": [107.6095093, -6.9078792], "type": "Point"}, "id": 4402036473, "properties": {"addr:city": "Bandung", "addr:housenumber": "32", "addr:postcode": "40116", "addr:street": "Jalan Purnawarman", "amenity": "university", "name": "Institut Francais Indonesia"}, "type": "Feature"}, {"geometry": {"coordinates": [[107.6116557, -6.8914175], [107.6121269, -6.8914097], [107.6121438, -6.8916157], [107.6116553, -6.8916306], [107.6116557, -6.8914175]], "type": "LineString"}, "id": 119422833, "properties": {"addr:housename": "Gedung Labtek IX C, ITB", "addr:housenumber": "10", "addr:postcode": "40133", "addr:street": "Ganesha", "amenity": "university", "building": "school", "building:levels": "6", "building:roof": "sirap", "building:structure": "reinforced_masonry", "building:use": "education-laboratorium", "building:walls": "brick", "internet_access": "wlan", "name": "Labtek IX C, Teknik Geodesi dan Geomatika,Institut Teknologi Bandung"}, "type": "Feature"}, {"geometry": {"coordinates": [[107.6095333, -6.8943166], [107.6095333, -6.8945971], [107.6091956, -6.8945971], [107.6091956, -6.8943166], [107.6095333, -6.8943166]], "type": "LineString"}, "id": 119446867, "properties": {"amenity": "university", "building": "yes", "building:levels": "2", "building:roof": "tile", "building:structure": "reinforced_masonry", "building:use": "education", "building:walls": "brick", "name": "MBA ITB"}, "type": "Feature"}, {"geometry": {"coordinates": [[107.6356155, -6.8963554], [107.6363508, -6.896623], [107.6362776, -6.8968004], [107.6355334, -6.8965241], [107.6356155, -6.8963554]], "type": "LineString"}, "id": 119763460, "properties": {"amenity": "university", "building": "yes", "building:levels": "4", "building:roof": "tile", "building:structure": "reinforced_masonry", "building:use": "education", "building:walls": "brick", "name": "Teknik Kima dan Desain Itenas"}, "type": "Feature"}, {"geometry": {"coordinates": [[107.6356691, -6.8966413], [107.6362608, -6.8968565], [107.6361935, -6.8970368], [107.6356017, -6.8968304], [107.6356691, -6.8966413]], "type": "LineString"}, "id": 119763461, "properties": {"amenity": "university", "building": "yes", "building:levels": "3", "building:roof": "atap sirap", "building:structure": "reinforced_masonry", "building:use": "education", "building:walls": "brick", "name": "Jurusan Arsitektur Itenas"}, "type": "Feature"}, {"geometry": {"coordinates": [[107.5941013, -6.8679283], [107.5941461, -6.8678807], [107.5952693, -6.8679949], [107.5951749, -6.868561], [107.5955944, -6.8686909], [107.59568, -6.8687228], [107.5956877, -6.8690814], [107.5951212, -6.8690829], [107.5951298, -6.8698797], [107.5943273, -6.8700629], [107.5936385, -6.8702845], [107.5936585, -6.8694423], [107.5938737, -6.8694479], [107.5940605, -6.8682344], [107.5941013, -6.8679283]], "type": "LineString"}, "id": 152783409, "properties": {"amenity": "university", "name": "Sekolah Tinggi Pariwisata Bandung"}, "type": "Feature"}, {"geometry": {"coordinates": [[107.5921099, -6.8657682], [107.5923142, -6.8657906], [107.5923948, -6.8657995], [107.5927952, -6.8658435], [107.59279, -6.8660237], [107.5930035, -6.8660432], [107.5932137, -6.8660625], [107.593201, -6.8663508], [107.5932362, -6.8663564], [107.5938545, -6.8664541], [107.5938114, -6.866591], [107.5935585, -6.8667055], [107.5932334, -6.8666477], [107.592701, -6.8665822], [107.592639, -6.8669025], [107.5924907, -6.8669026], [107.5924894, -6.8668501], [107.5919596, -6.8668334], [107.5919583, -6.8666584], [107.5920409, -6.8661736], [107.5921099, -6.8657682]], "type": "LineString"}, "id": 152792941, "properties": {"amenity": "university", "name": "Universitas Pasundan (UNPAS) Kampus IV"}, "type": "Feature"}, {"geometry": {"coordinates": [[107.5798542, -6.8846995], [107.5813085, -6.8854248], [107.5812819, -6.8866716], [107.5810646, -6.8866452], [107.5809295, -6.8866782], [107.5808407, -6.8873], [107.5809788, -6.8873269], [107.5809219, -6.8878973], [107.5812304, -6.8879415], [107.5812621, -6.8883558], [107.580967, -6.8883715], [107.5809496, -6.8885307], [107.5805805, -6.8884477], [107.5805, -6.8874222], [107.5800894, -6.8871945], [107.5801599, -6.8869921], [107.5800006, -6.8869181], [107.5800081, -6.8866687], [107.5802373, -6.8860469], [107.579553, -6.8856642], [107.5797855, -6.8850115], [107.5798542, -6.8846995]], "type": "LineString"}, "id": 152981734, "properties": {"addr:street": "Jalan Surya Sumantri", "amenity": "university", "name": "Universitas Kristen Maranatha"}, "type": "Feature"}, {"geometry": {"coordinates": [[107.6044035, -6.8918567], [107.6043715, -6.8924754], [107.6047918, -6.8924931], [107.6047846, -6.8923588], [107.6048381, -6.8923588], [107.6048416, -6.8921572], [107.6045567, -6.8921395], [107.604546, -6.8918673], [107.6044035, -6.8918567]], "type": "LineString"}, "id": 153882684, "properties": {"amenity": "university", "building": "yes", "name": "STBA Yapari Aba"}, "type": "Feature"}, {"geometry": {"coordinates": [[107.5718913, -6.868911], [107.5744877, -6.8697099], [107.5742946, -6.8723196], [107.5744662, -6.8723409], [107.574353, -6.872825], [107.5743375, -6.8732247], [107.5742356, -6.8736561], [107.5732378, -6.873704], [107.5728462, -6.8736241], [107.5728354, -6.8737679], [107.5723575, -6.8737251], [107.5718859, -6.8734271], [107.5717679, -6.8735815], [107.5710915, -6.8729155], [107.571526, -6.8702206], [107.571821, -6.8695496], [107.5718913, -6.868911]], "type": "LineString"}, "id": 154080971, "properties": {"amenity": "university", "name": "Politeknik Negeri Bandung (POLBAN)"}, "type": "Feature"}, {"geometry": {"coordinates": [[107.6473065, -6.9341477], [107.6468904, -6.9340649], [107.6467867, -6.9345788], [107.6466769, -6.9345569], [107.6468459, -6.9337196], [107.6469557, -6.9337415], [107.646916, -6.9339381], [107.6474549, -6.9340453], [107.6474546, -6.9340464], [107.6474568, -6.9340468], [107.6473729, -6.9344624], [107.647248, -6.9344376], [107.6473065, -6.9341477]], "type": "LineString"}, "id": 154217967, "properties": {"amenity": "university", "building": "yes", "name": "Unjani (Fakultas Teknik)"}, "type": "Feature"}, {"geometry": {"coordinates": [[107.6460767, -6.9343952], [107.6460825, -6.9343511], [107.6464243, -6.9344191], [107.6464102, -6.9344891], [107.6466115, -6.9345291], [107.6465804, -6.9346832], [107.6463622, -6.9346398], [107.6463652, -6.9346248], [107.6460549, -6.9345602], [107.6460527, -6.9345714], [107.6459243, -6.9345458], [107.6459595, -6.9343718], [107.6460767, -6.9343952]], "type": "LineString"}, "id": 154217969, "properties": {"amenity": "university", "building": "yes", "name": "Unjani (Fakultas Teknik)"}, "type": "Feature"}, {"geometry": {"coordinates": [[107.6467896, -6.9346224], [107.6472032, -6.934679], [107.6471838, -6.9348182], [107.6467703, -6.9347616], [107.6467896, -6.9346224]], "type": "LineString"}, "id": 154218280, "properties": {"amenity": "university", "building": "yes", "name": "Unjani (Fakultas Teknik)"}, "type": "Feature"}, {"geometry": {"coordinates": [[107.647115, -6.9344609], [107.6473593, -6.9345095], [107.6473266, -6.9346711], [107.6470823, -6.9346225], [107.647115, -6.9344609]], "type": "LineString"}, "id": 154218411, "properties": {"amenity": "university", "building": "yes", "name": "Unjani (Fakultas Teknik)"}, "type": "Feature"}, {"geometry": {"coordinates": [[107.6462202, -6.933554], [107.646809, -6.9336711], [107.6467827, -6.9338013], [107.6461939, -6.9336842], [107.6462202, -6.933554]], "type": "LineString"}, "id": 154218448, "properties": {"amenity": "university", "building": "yes", "name": "Unjani (Fakultas Teknik)"}, "type": "Feature"}, {"geometry": {"coordinates": [[107.6469213, -6.9342812], [107.6468896, -6.9342749], [107.6469106, -6.934171], [107.6472126, -6.9342311], [107.6471916, -6.934335], [107.6470429, -6.9343054], [107.6469994, -6.9345208], [107.6468778, -6.9344966], [107.6469213, -6.9342812]], "type": "LineString"}, "id": 154218816, "properties": {"amenity": "university", "building": "yes", "name": "Unjani (Fakultas Teknik)"}, "type": "Feature"}, {"geometry": {"coordinates": [[107.6085838, -6.8936003], [107.6093349, -6.893302], [107.6100966, -6.8931423], [107.6102615, -6.8931354], [107.6102904, -6.8930795], [107.6102874, -6.8929403], [107.6103163, -6.8928813], [107.6104139, -6.8928737], [107.6105099, -6.8928722], [107.6105693, -6.89291], [107.6105891, -6.8930416], [107.6106244, -6.8931192], [107.6108314, -6.8931748], [107.6110204, -6.8932081], [107.6112137, -6.8932547], [107.6119466, -6.893564], [107.6119912, -6.8925976], [107.6120095, -6.892301], [107.6122531, -6.8919813], [107.612414, -6.8909481], [107.6125143, -6.8899378], [107.612526, -6.8892836], [107.6125473, -6.8889538], [107.6125875, -6.8886597], [107.6126692, -6.888509], [107.6126778, -6.8883414], [107.6120922, -6.8874225], [107.6114592, -6.8873266], [107.610368, -6.8877484], [107.6086766, -6.8879111], [107.6085346, -6.8879144], [107.6084515, -6.8879245], [107.6083835, -6.887958], [107.6082825, -6.8881476], [107.6082603, -6.8883531], [107.6082463, -6.8887368], [107.6082271, -6.8892554], [107.6082132, -6.8902676], [107.608197, -6.8912514], [107.6082323, -6.8924401], [107.6085838, -6.8936003]], "type": "LineString"}, "id": 177629384, "properties": {"addr:city": "Bandung", "addr:housenumber": "10-12", "addr:postcode": "40132", "addr:street": "Ganesha", "alt_name": "ITB", "amenity": "university", "int_name": "Bandung Technology Institute", "name": "Institut Teknologi Bandung", "name:en": "Bandung Institute of Technology", "name:ja": "\u30d0\u30f3\u30c9\u30a5\u30f3\u5de5\u79d1\u5927\u5b66", "operator": "Kementerian Riset, Teknologi dan Pendidikan Tinggi"}, "type": "Feature"}, {"geometry": {"coordinates": [[107.6438538, -6.9456585], [107.6439693, -6.9454085], [107.6442695, -6.9455452], [107.644244, -6.9456003], [107.644422, -6.9456813], [107.6443396, -6.9458597], [107.6441709, -6.945783], [107.6441407, -6.9458484], [107.6438311, -6.9457076], [107.6438538, -6.9456585]], "type": "LineString"}, "id": 179746319, "properties": {"amenity": "university", "name": "Uninus"}, "type": "Feature"}, {"geometry": {"coordinates": [[107.6446904, -6.9462223], [107.6448015, -6.9461879], [107.6448322, -6.9462856], [107.6447211, -6.94632], [107.6446904, -6.9462223]], "type": "LineString"}, "id": 179746320, "properties": {"amenity": "university", "name": "Uninus"}, "type": "Feature"}, {"geometry": {"coordinates": [[107.6451665, -6.9456685], [107.645121, -6.9455264], [107.6449919, -6.9455671], [107.6450374, -6.9457092], [107.6451665, -6.9456685]], "type": "LineString"}, "id": 179746321, "properties": {"amenity": "university", "name": "Uninus"}, "type": "Feature"}, {"geometry": {"coordinates": [[107.6448437, -6.9461937], [107.6450634, -6.9461218], [107.6450964, -6.946221], [107.6448766, -6.9462929], [107.6448437, -6.9461937]], "type": "LineString"}, "id": 179746322, "properties": {"amenity": "university", "name": "Uninus"}, "type": "Feature"}, {"geometry": {"coordinates": [[107.6450021, -6.9454822], [107.6450977, -6.9454521], [107.6449793, -6.9450813], [107.6448837, -6.9451113], [107.6450021, -6.9454822]], "type": "LineString"}, "id": 179746324, "properties": {"amenity": "university", "name": "Uninus"}, "type": "Feature"}, {"geometry": {"coordinates": [[107.6440183, -6.9458507], [107.6442182, -6.9459385], [107.6441144, -6.9461715], [107.6439145, -6.9460838], [107.6440183, -6.9458507]], "type": "LineString"}, "id": 179746326, "properties": {"amenity": "university", "name": "Uninus"}, "type": "Feature"}, {"geometry": {"coordinates": [[107.6438283, -6.9452035], [107.6443612, -6.9450375], [107.6443926, -6.9451368], [107.6438597, -6.9453028], [107.6438283, -6.9452035]], "type": "LineString"}, "id": 179746331, "properties": {"amenity": "university", "name": "Uninus"}, "type": "Feature"}, {"geometry": {"coordinates": [[107.644455, -6.9450134], [107.6449134, -6.944862], [107.644944, -6.9449533], [107.6444856, -6.9451047], [107.644455, -6.9450134]], "type": "LineString"}, "id": 179746332, "properties": {"amenity": "university", "name": "Uninus"}, "type": "Feature"}, {"geometry": {"coordinates": [[107.6449125, -6.9460812], [107.6450535, -6.9460317], [107.6448739, -6.945527], [107.6447752, -6.9455616], [107.6449363, -6.9460143], [107.644894, -6.9460291], [107.6449125, -6.9460812]], "type": "LineString"}, "id": 179746333, "properties": {"amenity": "university", "name": "Uninus"}, "type": "Feature"}, {"geometry": {"coordinates": [[107.6444454, -6.946125], [107.6447686, -6.9460288], [107.6447569, -6.9459901], [107.6448213, -6.9459709], [107.6448609, -6.9461017], [107.6444732, -6.9462171], [107.6444454, -6.946125]], "type": "LineString"}, "id": 179746334, "properties": {"amenity": "university", "name": "Uninus"}, "type": "Feature"}, {"geometry": {"coordinates": [[107.6298578, -6.9768346], [107.6298594, -6.9769689], [107.6292452, -6.9769529], [107.6292459, -6.976319], [107.6298523, -6.9763164], [107.6298532, -6.9764383], [107.6297913, -6.9764392], [107.6294383, -6.9764444], [107.6294351, -6.9766253], [107.6294317, -6.9768192], [107.6297926, -6.9768322], [107.6298578, -6.9768346]], "type": "LineString"}, "id": 193248752, "properties": {"amenity": "university", "building": "yes", "name": "Gedung N"}, "type": "Feature"}, {"geometry": {"coordinates": [[107.5251405, -6.8863929], [107.5261307, -6.8862319], [107.5264707, -6.8861703], [107.5265513, -6.8864535], [107.527313, -6.8868156], [107.5283768, -6.8866149], [107.5284932, -6.8868902], [107.5295339, -6.887231], [107.5292227, -6.887753], [107.528371, -6.8879538], [107.5281851, -6.8884549], [107.527313, -6.8888075], [107.5261988, -6.8888517], [107.5248597, -6.8886158], [107.5240765, -6.8900833], [107.5232617, -6.8892189], [107.5238692, -6.888186], [107.524216, -6.8875882], [107.5251405, -6.8863929]], "type": "LineString"}, "id": 204551991, "properties": {"amenity": "university"}, "type": "Feature"}, {"geometry": {"coordinates": [[107.5617943, -6.8734817], [107.5617849, -6.8739738], [107.5624225, -6.8740204], [107.562407, -6.8737654], [107.5624157, -6.8731999], [107.5622744, -6.8731074], [107.5618988, -6.8731], [107.5617957, -6.8733486], [107.5617943, -6.8734817]], "type": "LineString"}, "id": 233328791, "properties": {"amenity": "university", "name": "Politeknik TEDC Bandung"}, "type": "Feature"}, {"geometry": {"coordinates": [[107.7159368, -6.9322522], [107.7163659, -6.9320179], [107.7168487, -6.9308464], [107.7170563, -6.9306833], [107.7172457, -6.930218], [107.7177369, -6.9303309], [107.7178851, -6.9300367], [107.717947, -6.929888], [107.7179861, -6.9297991], [107.7180154, -6.9297296], [107.7184044, -6.9288979], [107.7188711, -6.9291279], [107.7187585, -6.9293979], [107.7190589, -6.929547], [107.7188709, -6.9298916], [107.7185866, -6.9297664], [107.7184364, -6.9301499], [107.7187421, -6.9302564], [107.718659, -6.9304641], [107.7188226, -6.93052], [107.7186161, -6.9310898], [107.7187692, -6.9311552], [107.7187048, -6.9313256], [107.7188926, -6.9313858], [107.7188765, -6.931528], [107.7190535, -6.9316627], [107.7189516, -6.9318475], [107.71849, -6.9321814], [107.718608, -6.9322613], [107.7181898, -6.9328806], [107.7177607, -6.9324546], [107.7179723, -6.9322187], [107.7178036, -6.9320179], [107.7176478, -6.9320536], [107.7175217, -6.932035], [107.7166341, -6.9324865], [107.7163576, -6.9326474], [107.7163874, -6.9326995], [107.7162586, -6.9327315], [107.7162586, -6.9328273], [107.7161245, -6.9328769], [107.7158617, -6.9323481], [107.7159368, -6.9322522]], "type": "LineString"}, "id": 287215117, "properties": {"amenity": "university", "name": "UIN Sunan Gunung Djati Bandung"}, "type": "Feature"}, {"geometry": {"coordinates": [[107.6150663, -6.8865763], [107.615313, -6.8865603], [107.6154632, -6.8865177], [107.6157038, -6.8867047], [107.6157636, -6.8869651], [107.6152004, -6.8869384], [107.6150663, -6.8865763]], "type": "LineString"}, "id": 299052871, "properties": {"addr:city": "Bandung, Jawa Barat", "addr:housenumber": "12", "addr:street": "Jalan Dipatiukur", "amenity": "university", "name": "Universitas Komputer Indonesia", "phone": "+62 22 2504119", "website": "unikom.ac.id\u200e"}, "type": "Feature"}, {"geometry": {"coordinates": [[107.6150663, -6.8865763], [107.615313, -6.8865603], [107.6154632, -6.8865177], [107.6157038, -6.8867047], [107.6158428, -6.8873367], [107.6154079, -6.8874717], [107.6150663, -6.8865763]], "type": "LineString"}, "id": 299053014, "properties": {"addr:city": "Bandung, Jawa Barat", "addr:housenumber": "12", "addr:street": "Jalan Dipatiukur", "amenity": "university", "name": "Universitas Komputer Indonesia", "phone": "+62 22 2504119", "website": "unikom.ac.id\u200e"}, "type": "Feature"}, {"geometry": {"coordinates": [[107.6158048, -6.8885777], [107.6159497, -6.8885351], [107.6160409, -6.8887535], [107.6161696, -6.8887268], [107.6161321, -6.8889558], [107.6161321, -6.8891689], [107.6160301, -6.8892168], [107.6160033, -6.8891529], [107.6158048, -6.8885777]], "type": "LineString"}, "id": 299054017, "properties": {"addr:city": "Bandung, Jawa Barat", "addr:housenumber": "82", "addr:street": "Jalan Dipatiukur", "amenity": "university", "name": "Institute Teknologi Harapan Bangsa"}, "type": "Feature"}, {"geometry": {"coordinates": [[107.527254, -6.8872543], [107.5272699, -6.887521], [107.5276475, -6.8874989], [107.5276317, -6.8872322], [107.527254, -6.8872543]], "type": "LineString"}, "id": 369620109, "properties": {"addr:housename": "GEDUNG REKTORAT", "amenity": "university", "building": "school", "designation": "REKTORAT", "name": "REKTORAT", "source": "REKTORAT"}, "type": "Feature"}, {"geometry": {"coordinates": [[107.6081154, -6.9027657], [107.6079135, -6.9028164], [107.6078865, -6.9027688], [107.6077815, -6.902739], [107.6076614, -6.9027628], [107.6074994, -6.9028135], [107.6075787, -6.9028814], [107.607583, -6.902993], [107.6075787, -6.9031348], [107.6074316, -6.903225], [107.607397, -6.9033711], [107.6074402, -6.9035386], [107.6074878, -6.9036546], [107.6075611, -6.9038142], [107.6077648, -6.9040111], [107.6079255, -6.9041362], [107.6081503, -6.9042056], [107.6083768, -6.9034887], [107.6081154, -6.9027657]], "type": "LineString"}, "id": 416542356, "properties": {"amenity": "university", "name": "Universitas Islam Bandung"}, "type": "Feature"}, {"geometry": {"coordinates": [[107.5772456, -6.8020667], [107.5775915, -6.8019168], [107.5777747, -6.801768], [107.5778845, -6.8015862], [107.5780177, -6.8014209], [107.5782208, -6.8012324], [107.5782841, -6.8008357], [107.5786937, -6.8005414], [107.5791032, -6.8003298], [107.5799656, -6.8010902], [107.5808747, -6.8019268], [107.5814874, -6.8023566], [107.5817804, -6.8025384], [107.5816272, -6.8032592], [107.581534, -6.803289], [107.5813508, -6.8033055], [107.581231, -6.8033088], [107.5810678, -6.803279], [107.5809013, -6.8032261], [107.5797992, -6.8027699], [107.57901, -6.8024657], [107.5779978, -6.8020755], [107.5778446, -6.802059], [107.5776581, -6.8020623], [107.5772985, -6.8022442], [107.5772456, -6.8020667]], "type": "LineString"}, "id": 425979889, "properties": {"amenity": "university", "name": "Universitas Advent Indonesia"}, "type": "Feature"}], "type": "FeatureCollection"}