{"features": [{"geometry": {"coordinates": [10.744162, 36.4491858], "type": "Point"}, "id": 1859399455, "properties": {"amenity": "hospital"}, "type": "Feature"}, {"geometry": {"coordinates": [10.6834366, 36.4300893], "type": "Point"}, "id": 1859403682, "properties": {"amenity": "hospital"}, "type": "Feature"}, {"geometry": {"coordinates": [10.781335, 36.4699846], "type": "Point"}, "id": 1863150860, "properties": {"amenity": "hospital"}, "type": "Feature"}, {"geometry": {"coordinates": [10.8081503, 36.4661516], "type": "Point"}, "id": 1865620937, "properties": {"amenity": "hospital"}, "type": "Feature"}, {"geometry": {"coordinates": [10.7286061, 36.4471672], "type": "Point"}, "id": 4559010284, "properties": {"amenity": "hospital", "name": "Dispensaire"}, "type": "Feature"}, {"geometry": {"coordinates": [10.7400136, 36.4545129], "type": "Point"}, "id": 4559018694, "properties": {"addr:city": "Nabeul", "addr:housenumber": "24", "addr:postcode": "8000", "addr:street": "Rue Habib Karma", "amenity": "hospital", "name": "Pharmacie Laouiti", "operator": "Mme Na\u00efma Chaarani Laouiti"}, "type": "Feature"}, {"geometry": {"coordinates": [[10.6743205, 36.438997], [10.6748945, 36.4381835], [10.6752781, 36.437711], [10.6758357, 36.4369804], [10.6743068, 36.4360698], [10.673191, 36.437166], [10.6733621, 36.4372846], [10.6727076, 36.438083], [10.6736559, 36.4387233], [10.6743205, 36.438997]], "type": "LineString"}, "id": 176163176, "properties": {"amenity": "hospital", "emergency": "yes", "name": "H\u00f4pital Universitaire Mohamed Taher Maamouri Nabeul", "name:ar": "\u0627\u0644\u0645\u0633\u062a\u0634\u0641\u0649 \u0627\u0644\u062c\u0627\u0645\u0639\u064a \u0645\u062d\u0645\u062f \u0627\u0644\u0637\u0627\u0647\u0631 \u0627\u0644\u0645\u0639\u0645\u0648\u0631\u064a \u0628\u0646\u0627\u0628\u0644"}, "type": "Feature"}, {"geometry": {"coordinates": [[10.7306969, 36.4539354], [10.731907, 36.4543773], [10.7319673, 36.4542692], [10.7322061, 36.4543624], [10.7322501, 36.4542878], [10.7324077, 36.4543568], [10.7328923, 36.4535457], [10.7328853, 36.4534767], [10.731543, 36.4529024], [10.7314596, 36.4529191], [10.7306969, 36.4539354]], "type": "LineString"}, "id": 244662752, "properties": {"amenity": "hospital", "barrier": "wall"}, "type": "Feature"}, {"geometry": {"coordinates": [[10.8535107, 36.5703232], [10.8542162, 36.5699656], [10.8539855, 36.5695111], [10.8532532, 36.5699893], [10.8535107, 36.5703232]], "type": "LineString"}, "id": 477096434, "properties": {"amenity": "hospital", "name": "H\u00f4pital de Korba"}, "type": "Feature"}], "type": "FeatureCollection"}