{"features": [{"geometry": {"coordinates": [-4.2962634, 11.1761522], "type": "Point"}, "id": 647225512, "properties": {"amenity": "townhall", "name": "HOTEL DE VILLE", "source": "bing"}, "type": "Feature"}, {"geometry": {"coordinates": [-4.2794329, 11.1620683], "type": "Point"}, "id": 1270461778, "properties": {"amenity": "townhall", "name": "Mairie de l'arrondissement 5"}, "type": "Feature"}, {"geometry": {"coordinates": [-4.2931386, 11.1698862], "type": "Point"}, "id": 4236296796, "properties": {"amenity": "townhall", "name": "Mairie de l'arrondissement 1"}, "type": "Feature"}, {"geometry": {"coordinates": [-4.2544057, 11.1740538], "type": "Point"}, "id": 4236296807, "properties": {"amenity": "townhall", "name": "Mairie de l'arrondissement 4"}, "type": "Feature"}, {"geometry": {"coordinates": [-4.3333004, 11.1805861], "type": "Point"}, "id": 4236296811, "properties": {"amenity": "townhall", "name": "Mairie de l'arrondissement 7"}, "type": "Feature"}, {"geometry": {"coordinates": [-4.2978589, 11.2001547], "type": "Point"}, "id": 4236296814, "properties": {"amenity": "townhall", "name": "Mairie de l'arrondissement 2"}, "type": "Feature"}, {"geometry": {"coordinates": [[-4.296426, 11.1761173], [-4.2964137, 11.1762108], [-4.2962978, 11.1761962], [-4.2962915, 11.1762445], [-4.2962443, 11.1762386], [-4.2962491, 11.1762021], [-4.2960657, 11.176179], [-4.2960795, 11.1760737], [-4.296426, 11.1761173]], "type": "LineString"}, "id": 338639768, "properties": {"amenity": "townhall", "building": "yes", "name": "Mairie centrale de bobo", "source": "bing"}, "type": "Feature"}, {"geometry": {"coordinates": [[-4.3313167, 11.1863255], [-4.3312973, 11.1864529], [-4.3311127, 11.1864259], [-4.3311321, 11.1862985], [-4.3313167, 11.1863255]], "type": "LineString"}, "id": 352617036, "properties": {"amenity": "townhall", "building": "yes", "name": "Mairie de l'arrondissement 07", "source": "NextView"}, "type": "Feature"}], "type": "FeatureCollection"}