{"features": [{"geometry": {"coordinates": [2.3948629, 6.3831567], "type": "Point"}, "id": 2499528286, "properties": {"amenity": "hospital", "name": "Dispensaire DeSouza", "source": "GPS;survey"}, "type": "Feature"}, {"geometry": {"coordinates": [2.3652351, 6.3899961], "type": "Point"}, "id": 3260703525, "properties": {"amenity": "hospital", "name": "H\u00f4pital de Menontin", "source:name": "survey"}, "type": "Feature"}, {"geometry": {"coordinates": [2.3010582, 6.3920956], "type": "Point"}, "id": 3592579493, "properties": {"amenity": "hospital", "name": "Centre Medical Nassira", "source": "gps;survey"}, "type": "Feature"}, {"geometry": {"coordinates": [2.310798, 6.389307], "type": "Point"}, "id": 3900428339, "properties": {"amenity": "hospital", "name": "Hopital Humanity Frist", "operator": "Priv\u00e9e", "phone": "0022997216262"}, "type": "Feature"}, {"geometry": {"coordinates": [2.3239034, 6.3899938], "type": "Point"}, "id": 3920702829, "properties": {"amenity": "hospital", "name": "Centre de sant\u00e9 Galil\u00e9e", "operator": "ONG OVDH", "phone": "(+229) 97065593/ 95031840"}, "type": "Feature"}, {"geometry": {"coordinates": [2.3278447, 6.39188], "type": "Point"}, "id": 3949940791, "properties": {"amenity": "hospital", "name": "H\u00f4pital Saint Augustin", "phone": "21037893"}, "type": "Feature"}, {"geometry": {"coordinates": [2.3290904, 6.3907425], "type": "Point"}, "id": 3949957862, "properties": {"amenity": "hospital", "name": "Centre de sant\u00e9 Shalom", "phone": "95953316"}, "type": "Feature"}, {"geometry": {"coordinates": [2.3533443, 6.4484028], "type": "Point"}, "id": 3969886224, "properties": {"amenity": "hospital", "name": "Centre de sant\u00e9 de la commune d\u2019Abomey-Calavi"}, "type": "Feature"}, {"geometry": {"coordinates": [2.3443859, 6.4343656], "type": "Point"}, "id": 3976417069, "properties": {"amenity": "hospital", "name": "Clinique p\u00e9diatrique d\u2019Abomey-Calavi", "opening_hours": "24/7", "phone": "(+229)95372161/95863945"}, "type": "Feature"}, {"geometry": {"coordinates": [2.3018412, 6.4277418], "type": "Point"}, "id": 3989796513, "properties": {"amenity": "hospital", "healthcare": "yes", "name": "Centre de sant\u00e9 public de Maria Gleta", "source": "Pleiade_2016"}, "type": "Feature"}, {"geometry": {"coordinates": [2.3497055, 6.4326386], "type": "Point"}, "id": 3989799358, "properties": {"amenity": "hospital", "name": "Clinique centrale de Calavi", "phone": "(+229)66789301/95068743/99476827"}, "type": "Feature"}, {"geometry": {"coordinates": [2.3038475, 6.4635913], "type": "Point"}, "id": 4016630242, "properties": {"amenity": "hospital", "name": "Centre de sant\u00e9 de Togba maternit\u00e9"}, "type": "Feature"}, {"geometry": {"coordinates": [2.3429074, 6.4069524], "type": "Point"}, "id": 4019451629, "properties": {"amenity": "hospital", "emergency": "no", "name": "Centre M\u00e9dical Albert Schweitzer"}, "type": "Feature"}, {"geometry": {"coordinates": [2.3426891, 6.4730697], "type": "Point"}, "id": 4029928434, "properties": {"amenity": "hospital", "name": "Hopital de zone d\u2019Abomey-Calavi"}, "type": "Feature"}, {"geometry": {"coordinates": [2.541073, 6.4524724], "type": "Point"}, "id": 4113030008, "properties": {"abandoned": "no", "amenity": "hospital", "disused": "no", "health_facility:type": "hospital", "name": "CENTRE MEDICO SOCIAL DE HOULAZOUME", "operator": "CROIX ROUGE", "operator:type": "ngo", "source": "Bing;survey"}, "type": "Feature"}, {"geometry": {"coordinates": [2.3442712, 6.4148248], "type": "Point"}, "id": 4161715092, "properties": {"amenity": "hospital", "name": "CNHU"}, "type": "Feature"}, {"geometry": {"coordinates": [2.4629357, 6.3819772], "type": "Point"}, "id": 4172329288, "properties": {"amenity": "hospital", "name": "Hopital de Zone de SURU LERE"}, "type": "Feature"}, {"geometry": {"coordinates": [2.3274833, 6.4024688], "type": "Point"}, "id": 4187858341, "properties": {"amenity": "hospital", "name": "Clinique St. Benjamin"}, "type": "Feature"}, {"geometry": {"coordinates": [2.4473709, 6.370693], "type": "Point"}, "id": 4208098202, "properties": {"amenity": "hospital", "name": "Hopital Miss\u00e9ssin"}, "type": "Feature"}, {"geometry": {"coordinates": [2.4498446, 6.3781288], "type": "Point"}, "id": 4228452693, "properties": {"amenity": "hospital", "name": "Hopital de Zone Ay\u00e9lawadj\u00e8"}, "type": "Feature"}, {"geometry": {"coordinates": [2.4258161, 6.3606694], "type": "Point"}, "id": 4249997051, "properties": {"addr:housenumber": "1278", "amenity": "hospital", "description": "chirurgie g\u00e9n\u00e9rale et sp\u00e9cialit\u00e9s, imagerie et analyses biom\u00e9dicales", "email": "sainteanned.afrique@gmail.com", "name": "Centre m\u00e9dico-social Sainte Anne d'Afrique", "phone": "21315850"}, "type": "Feature"}, {"geometry": {"coordinates": [2.4223591, 6.386063], "type": "Point"}, "id": 4254408220, "properties": {"amenity": "hospital", "name": "Centre d'isolement MVE"}, "type": "Feature"}, {"geometry": {"coordinates": [2.4219845, 6.3857765], "type": "Point"}, "id": 4254408221, "properties": {"amenity": "hospital", "name": "Centre de sant\u00e9 d'Ahouansori-Agu\u00e9"}, "type": "Feature"}, {"geometry": {"coordinates": [2.3225833, 6.3736833], "type": "Point"}, "id": 4309638150, "properties": {"amenity": "hospital", "name": "Centre de sant\u00e9 d\u2019arrondissement (CSA) de D\u00e8koungb\u00e9"}, "type": "Feature"}, {"geometry": {"coordinates": [2.25649, 6.457045], "type": "Point"}, "id": 4309638152, "properties": {"amenity": "hospital", "name": "Centre de sant\u00e9 de Ouedo"}, "type": "Feature"}, {"geometry": {"coordinates": [2.29973, 6.4108967], "type": "Point"}, "id": 4309638154, "properties": {"amenity": "hospital", "name": "Centre de sant\u00e9 d\u2019arrondissement (CSA) de Womey"}, "type": "Feature"}, {"geometry": {"coordinates": [2.3171933, 6.4031433], "type": "Point"}, "id": 4309638912, "properties": {"amenity": "hospital", "name": "Centre de sant\u00e9 Eau-vive"}, "type": "Feature"}, {"geometry": {"coordinates": [2.3162433, 6.4045283], "type": "Point"}, "id": 4309639320, "properties": {"amenity": "hospital", "name": "Centre de sant\u00e9 Eau-vive"}, "type": "Feature"}, {"geometry": {"coordinates": [2.2715231, 6.3837146], "type": "Point"}, "id": 4309639542, "properties": {"amenity": "hospital", "name": "Centre de sant\u00e9 d\u2019arrondissement (CSA) de Cococodji"}, "type": "Feature"}, {"geometry": {"coordinates": [2.2479683, 6.4406333], "type": "Point"}, "id": 4309639543, "properties": {"FIXME": "position\u202f?", "amenity": "hospital", "name": "Centre de sant\u00e9 de H\u00eavi\u00e9"}, "type": "Feature"}, {"geometry": {"coordinates": [2.345898, 6.3897357], "type": "Point"}, "id": 4309639547, "properties": {"amenity": "hospital", "name": "Centre de Sant\u00e9 public de Godomey"}, "type": "Feature"}, {"geometry": {"coordinates": [2.3631655, 6.5083702], "type": "Point"}, "id": 4311038853, "properties": {"amenity": "hospital", "name": "Centre de Sant\u00e9 de AKASSATO"}, "type": "Feature"}, {"geometry": {"coordinates": [2.3994746, 6.5015281], "type": "Point"}, "id": 4312717843, "properties": {"addr:hamlet": "Dogodo", "amenity": "hospital", "name": "Centre de sant\u00e9 de So-Ava"}, "type": "Feature"}, {"geometry": {"coordinates": [2.4575849, 6.4982139], "type": "Point"}, "id": 4312742170, "properties": {"addr:hamlet": "Houedo-Aguekon", "amenity": "hospital", "name": "Centre de sant\u00e9 de Houedo-Aguekon"}, "type": "Feature"}, {"geometry": {"coordinates": [2.3913296, 6.4747325], "type": "Point"}, "id": 4313114200, "properties": {"addr:hamlet": "Ganvi\u00e9", "amenity": "hospital", "name": "Centre de sant\u00e9 de Ganvi\u00e9"}, "type": "Feature"}, {"geometry": {"coordinates": [2.4128787, 6.4742275], "type": "Point"}, "id": 4313202182, "properties": {"addr:hamlet": "Sotchanhou\u00e9", "amenity": "hospital", "name": "Centre de sant\u00e9 saint Joseph"}, "type": "Feature"}, {"geometry": {"coordinates": [2.4171273, 6.4809755], "type": "Point"}, "id": 4313209398, "properties": {"addr:hamlet": "Vekky", "amenity": "hospital", "name": "Centre de sant\u00e9 de Vekky"}, "type": "Feature"}, {"geometry": {"coordinates": [2.4383377, 6.3614434], "type": "Point"}, "id": 4403019206, "properties": {"addr:housenumber": "274", "addr:street": "Rue ROI DAKO DONOU R. 5.132", "amenity": "hospital", "name": "H\u00f4pital de l'enfant et de la m\u00e8re lagune", "phone": "+22921317115"}, "type": "Feature"}, {"geometry": {"coordinates": [2.4380992, 6.359901], "type": "Point"}, "id": 4488813057, "properties": {"amenity": "hospital", "name": "CS Cotonou 1"}, "type": "Feature"}, {"geometry": {"coordinates": [2.396565, 6.3536984], "type": "Point"}, "id": 4709867091, "properties": {"amenity": "hospital", "name": "Doctors", "operator": "Hopital"}, "type": "Feature"}, {"geometry": {"coordinates": [2.4148459, 6.3639754], "type": "Point"}, "id": 4711849512, "properties": {"amenity": "hospital", "name": "Centre M\u00e9dical Saint Jean", "source": "gps,survey"}, "type": "Feature"}, {"geometry": {"coordinates": [2.414959, 6.3639273], "type": "Point"}, "id": 4716412133, "properties": {"amenity": "hospital", "name": "Centre m\u00e9dical Saint Jean"}, "type": "Feature"}, {"geometry": {"coordinates": [[2.4124194, 6.3563976], [2.4123956, 6.3530613], [2.4110303, 6.3531471], [2.4101382, 6.3532031], [2.4090023, 6.3532657], [2.4078493, 6.3533405], [2.4078828, 6.3564314], [2.4124194, 6.3563976]], "type": "LineString"}, "id": 272486188, "properties": {"amenity": "hospital", "name": "Centre National Hospitalier Universitaire (CNHU)"}, "type": "Feature"}, {"geometry": {"coordinates": [[2.5415811, 6.3871352], [2.5418378, 6.3871354], [2.5418379, 6.3870346], [2.5419008, 6.3870347], [2.5419348, 6.3870347], [2.5420225, 6.3870348], [2.5420232, 6.3863223], [2.5419151, 6.3863222], [2.5413704, 6.3863234], [2.5412169, 6.3863215], [2.5409987, 6.3863213], [2.5409981, 6.3869132], [2.5412971, 6.3869135], [2.5415814, 6.3869138], [2.5415811, 6.3871352]], "type": "LineString"}, "id": 376980825, "properties": {"amenity": "hospital", "barrier": "wall", "name": "Hopital de Zone d'EKPE", "source": "bing", "source:date": "12/16/2013"}, "type": "Feature"}, {"geometry": {"coordinates": [[2.3829992, 6.3767857], [2.3826983, 6.3768373], [2.3827203, 6.3773303], [2.3830698, 6.3772878], [2.3829992, 6.3767857]], "type": "LineString"}, "id": 459613842, "properties": {"amenity": "hospital", "name": "Centre de Sant\u00e9 Houenoussou", "operator": "Etat"}, "type": "Feature"}], "type": "FeatureCollection"}