{"features": [{"geometry": {"coordinates": [2.4595376, 6.3671433], "type": "Point"}, "id": 1102519112, "properties": {"amenity": "townhall", "name": "Mairie de Cotonou"}, "type": "Feature"}, {"geometry": {"coordinates": [2.3553336, 6.4594149], "type": "Point"}, "id": 2348404092, "properties": {"amenity": "townhall", "name": "Mairie d'Abomey-Calavi", "office": "administrative"}, "type": "Feature"}, {"geometry": {"coordinates": [2.3842904, 6.3863003], "type": "Point"}, "id": 2499528293, "properties": {"amenity": "townhall", "name": "Mairie du 10\u00e8me arrondissement", "office": "administrative", "source": "GPS;survey"}, "type": "Feature"}, {"geometry": {"coordinates": [2.4130933, 6.3760319], "type": "Point"}, "id": 3872881841, "properties": {"amenity": "townhall", "name": "Mairie de Cotonou"}, "type": "Feature"}, {"geometry": {"coordinates": [2.4363883, 6.352961], "type": "Point"}, "id": 3875331145, "properties": {"amenity": "townhall", "name": "Direction des Services Techniques"}, "type": "Feature"}, {"geometry": {"coordinates": [2.3997937, 6.492931], "type": "Point"}, "id": 4313087623, "properties": {"amenity": "townhall", "name": "Mairie de S\u00f4-Ava", "wheelchair": "yes"}, "type": "Feature"}, {"geometry": {"coordinates": [2.428547, 6.359672], "type": "Point"}, "id": 4586762966, "properties": {"amenity": "townhall", "name": "5\u00e8me Arrondissement", "source": "Mapbox;Gps;Survey"}, "type": "Feature"}, {"geometry": {"coordinates": [[2.4552653, 6.3659115], [2.4552653, 6.3658591], [2.4551481, 6.3658591], [2.4551481, 6.3659115], [2.4552653, 6.3659115]], "type": "LineString"}, "id": 235099160, "properties": {"amenity": "townhall", "building": "yes", "man_made": "tower", "name": "Minist\u00e8re de la Sant\u00e9", "office": "administrative", "source": "Bing;survey"}, "type": "Feature"}], "type": "FeatureCollection"}