{"features": [{"geometry": {"coordinates": [[-8.4881545, 33.2293111], [-8.4884549, 33.2289521], [-8.4889484, 33.2283598], [-8.4885622, 33.2279829], [-8.4895278, 33.2270675], [-8.4891415, 33.2264392], [-8.4884978, 33.2259187], [-8.4883691, 33.2254879], [-8.4880472, 33.2243929], [-8.4873391, 33.2238185], [-8.4869099, 33.2245186], [-8.485394, 33.2240061], [-8.4853296, 33.2255139], [-8.4857261, 33.2260338], [-8.4863091, 33.2267982], [-8.4869958, 33.2282342], [-8.4881545, 33.2293111]], "type": "LineString"}, "id": 166332497, "properties": {"amenity": "university", "name": "Chouaib Doukkali University"}, "type": "Feature"}, {"geometry": {"coordinates": [[-8.4356651, 33.2512588], [-8.434215, 33.2517838], [-8.4334939, 33.2504212], [-8.4349302, 33.249864], [-8.4352869, 33.2505409], [-8.4356651, 33.2512588]], "type": "LineString"}, "id": 414813392, "properties": {"addr:city": "EL Jadida", "addr:postcode": "24002", "addr:street": "Route d'azzemour, Nationale N\u00b01, ELHAOUZIA", "amenity": "university", "name": "\u00c9cole nationale des sciences appliqu\u00e9es d'El Jadida", "phone": "+212 5 23 34 48 22", "short_name": "ENSAJ", "wikipedia": "fr:\u00c9cole nationale des sciences appliqu\u00e9es d'El Jadida"}, "type": "Feature"}, {"geometry": {"coordinates": [[-8.434103, 33.2518657], [-8.4330489, 33.2522605], [-8.4323998, 33.2521977], [-8.4320538, 33.251056], [-8.4333573, 33.2504952], [-8.434103, 33.2518657]], "type": "LineString"}, "id": 414815114, "properties": {"addr:city": "EL Jadida", "addr:postcode": "24002", "addr:street": "Route Nationale N\u00b01 El haouziya,", "amenity": "university", "name": "Facult\u00e9 Polydisciplinaire El-Jadida", "phone": "+212 5 23379301", "short_name:fr": "FPJ", "website": "www.fpj.ucd.ac.ma/"}, "type": "Feature"}], "type": "FeatureCollection"}