{"features": [{"geometry": {"coordinates": [-5.0026876, 34.0360135], "type": "Point"}, "id": 2952750627, "properties": {"amenity": "townhall", "name": "Si\u00e9ge de la R\u00e9gion de F\u00e8s Meknes"}, "type": "Feature"}, {"geometry": {"coordinates": [-5.0025307, 34.0362592], "type": "Point"}, "id": 4614900032, "properties": {"amenity": "townhall", "name": "Si\u00e8ge de la wilaya de F\u00e8s"}, "type": "Feature"}, {"geometry": {"coordinates": [[-5.0163238, 34.0347867], [-5.016129, 34.035002], [-5.0160218, 34.0350043], [-5.015937, 34.0339771], [-5.0160754, 34.0339912], [-5.0162842, 34.0341549], [-5.0162928, 34.0342158], [-5.0166147, 34.0341877], [-5.0166203, 34.0344123], [-5.0163973, 34.0344193], [-5.0163944, 34.0345177], [-5.0166004, 34.0345036], [-5.0166175, 34.0347328], [-5.0163322, 34.03474], [-5.0163238, 34.0347867]], "type": "LineString"}, "id": 394171829, "properties": {"addr:city": "F\u00e8s \u0641\u0627\u0633", "addr:postcode": "30000", "amenity": "townhall", "building": "yes", "building:levels": "2", "internet_access": "wlan", "name": "Commune de F\u00e8s \u062c\u0645\u0627\u0639\u0629 \u0641\u0627\u0633", "name:ar": "\u062c\u0645\u0627\u0639\u0629 \u0641\u0627\u0633", "name:fr": "Commune de F\u00e8s", "website": "http://www.fes.ma"}, "type": "Feature"}], "type": "FeatureCollection"}