{"features": [{"geometry": {"coordinates": [-4.9904739, 34.0635348], "type": "Point"}, "id": 2133975409, "properties": {"amenity": "hospital", "name": "Hopital Ibn Alkhatib"}, "type": "Feature"}, {"geometry": {"coordinates": [-4.9849267, 34.0449702], "type": "Point"}, "id": 2157394170, "properties": {"amenity": "hospital"}, "type": "Feature"}, {"geometry": {"coordinates": [-4.9820346, 34.0578021], "type": "Point"}, "id": 2952714570, "properties": {"amenity": "hospital", "emergency": "no", "name": "Hopital Bab Lahdid"}, "type": "Feature"}, {"geometry": {"coordinates": [-4.9637961, 34.0036766], "type": "Point"}, "id": 3899915428, "properties": {"amenity": "hospital", "name": "Centre hospitalier universitaire Hassan II"}, "type": "Feature"}, {"geometry": {"coordinates": [-4.9997233, 34.0143151], "type": "Point"}, "id": 4499322590, "properties": {"amenity": "hospital", "name": "\u0627\u0644\u0643\u0648\u062b\u0631"}, "type": "Feature"}, {"geometry": {"coordinates": [-5.0135807, 34.017432], "type": "Point"}, "id": 4711503889, "properties": {"amenity": "hospital", "name": "Centre de sant\u00e9 adarissa \u0627\u0644\u0645\u0631\u0643\u0632 \u0627\u0644\u0635\u062d\u064a \u0627\u0644\u0627\u062f\u0627\u0631\u0633\u0629", "name:ar": "\u0627\u0644\u0645\u0631\u0643\u0632 \u0627\u0644\u0635\u062d\u064a \u0627\u0644\u0627\u062f\u0627\u0631\u0633\u0629", "name:fr": "Centre de sant\u00e9 adarissa"}, "type": "Feature"}, {"geometry": {"coordinates": [-5.0060922, 34.033527], "type": "Point"}, "id": 4725737195, "properties": {"addr:city": "Fes", "addr:housenumber": "16", "addr:street": "Avenue Allal Ben Abdallah", "amenity": "hospital", "name": "Clinique RAIS"}, "type": "Feature"}, {"geometry": {"coordinates": [[-4.9637792, 34.0021744], [-4.9642143, 34.0033214], [-4.964294, 34.0035287], [-4.9648638, 34.005025], [-4.9638002, 34.0055567], [-4.962872, 34.0060337], [-4.961465, 34.0067375], [-4.9605799, 34.0055435], [-4.9597076, 34.0043691], [-4.9616656, 34.0031839], [-4.9637041, 34.0019588], [-4.9637792, 34.0021744]], "type": "LineString"}, "id": 150786744, "properties": {"amenity": "hospital", "emergency": "yes", "name": "University hospital Hassan II", "note": "Fix french and arabic name"}, "type": "Feature"}], "type": "FeatureCollection"}