{"features": [{"geometry": {"coordinates": [-4.9743144, 34.0650207], "type": "Point"}, "id": 1360122234, "properties": {"amenity": "marketplace", "name": "Kessaria"}, "type": "Feature"}, {"geometry": {"coordinates": [-4.9982624, 34.0395164], "type": "Point"}, "id": 1866538017, "properties": {"amenity": "marketplace", "name": "march\u00e9 central"}, "type": "Feature"}, {"geometry": {"coordinates": [-4.9951313, 34.0292175], "type": "Point"}, "id": 2001342005, "properties": {"amenity": "marketplace"}, "type": "Feature"}, {"geometry": {"coordinates": [-4.9807334, 34.0648188], "type": "Point"}, "id": 2312523152, "properties": {"amenity": "marketplace", "name": "Quaat Smen Fondouk"}, "type": "Feature"}, {"geometry": {"coordinates": [-4.9800146, 34.06409], "type": "Point"}, "id": 2312523170, "properties": {"amenity": "marketplace", "name": "Fondouk Tazi"}, "type": "Feature"}, {"geometry": {"coordinates": [-4.9750793, 34.0654854], "type": "Point"}, "id": 2312523280, "properties": {"amenity": "marketplace", "name": "Souk el Henna"}, "type": "Feature"}, {"geometry": {"coordinates": [-4.9727941, 34.0641478], "type": "Point"}, "id": 2312523437, "properties": {"amenity": "marketplace", "name": "Place Seffarine"}, "type": "Feature"}, {"geometry": {"coordinates": [-4.9804437, 34.0656009], "type": "Point"}, "id": 2312523588, "properties": {"amenity": "marketplace", "name": "Tannerie Ain Azliten"}, "type": "Feature"}, {"geometry": {"coordinates": [-5.0083665, 34.0060034], "type": "Point"}, "id": 4552318205, "properties": {"amenity": "marketplace", "name": "March\u00e9 de l\u00e9gumes \u0633\u0648\u0642 \u062e\u0636\u0631\u0627\u0648\u0627\u062a", "name:ar": "\u0633\u0648\u0642 \u062e\u0636\u0631\u0627\u0648\u0627\u062a", "name:en": "Vegetable Market", "name:fr": "March\u00e9 de l\u00e9gumes"}, "type": "Feature"}, {"geometry": {"coordinates": [[-4.9853315, 34.0621086], [-4.9850397, 34.0620146], [-4.9852475, 34.0616139], [-4.9856536, 34.0614831], [-4.9853315, 34.0621086]], "type": "LineString"}, "id": 156534713, "properties": {"amenity": "marketplace", "name:en": "Fruit & Vegetable market"}, "type": "Feature"}], "type": "FeatureCollection"}