{"features": [{"geometry": {"coordinates": [106.7928178, -6.2413893], "type": "Point"}, "id": 309730932, "properties": {"addr:city": "East Jakarta", "addr:housenumber": "No.43, RT.4/RW.8", "addr:postcode": "12120", "addr:street": "Jl. Kyai Maja, Gunung, Kby. Baru", "amenity": "hospital", "name": "Rumah Sakit Pusat Pertamina"}, "type": "Feature"}, {"geometry": {"coordinates": [106.8366543, -6.1961948], "type": "Point"}, "id": 315471556, "properties": {"addr:city": "Central Jakarta", "addr:housenumber": "No.21, RT.9/RW.2", "addr:postcode": "10350", "addr:street": "Jalan Teuku Cik Ditiro", "amenity": "hospital", "name": "RS Bunda"}, "type": "Feature"}, {"geometry": {"coordinates": [106.812281, -6.2109388], "type": "Point"}, "id": 316452691, "properties": {"addr:city": "Central Jakarta", "addr:housenumber": "No.17", "addr:postcode": "10210", "addr:street": "Jl. Bendungan Hilir", "amenity": "hospital", "name": "RS Mintohardjo"}, "type": "Feature"}, {"geometry": {"coordinates": [106.8104915, -6.171317], "type": "Point"}, "id": 318076629, "properties": {"amenity": "hospital", "name": "Rumah Sakit Umum Daerah Tarakan"}, "type": "Feature"}, {"geometry": {"coordinates": [106.7891175, -6.1630869], "type": "Point"}, "id": 318702081, "properties": {"addr:city": "West Jakarta", "addr:housenumber": "1", "addr:postcode": "11460", "addr:street": "Jalan Professor Doktor Latumenten", "amenity": "hospital", "name": "RSJ Grogol"}, "type": "Feature"}, {"geometry": {"coordinates": [106.7854469, -6.1662933], "type": "Point"}, "id": 321545603, "properties": {"addr:city": "West Jakarta", "addr:housenumber": "No.34", "addr:postcode": "11470", "addr:street": "Jalan Daan Mogot", "amenity": "hospital", "name": "Rumah Sakit Royal Taruma"}, "type": "Feature"}, {"geometry": {"coordinates": [106.8714192, -6.1709983], "type": "Point"}, "id": 328229518, "properties": {"addr:city": "Central Jakarta", "addr:housenumber": "RT.11/RW.5", "addr:postcode": "10520", "addr:street": "Jl. Cemp. Putih Tengah,", "amenity": "hospital", "name": "RS Islam Jakarta"}, "type": "Feature"}, {"geometry": {"coordinates": [106.7994878, -6.1255216], "type": "Point"}, "id": 347198105, "properties": {"addr:city": "North Jakarta", "addr:housenumber": "Nomor 2", "addr:postcode": "14450", "addr:street": "Jalan Raya Pluit Selatan", "amenity": "hospital", "name": "Rumah Sakit Pluit"}, "type": "Feature"}, {"geometry": {"coordinates": [106.8078807, -6.2574779], "type": "Point"}, "id": 356145261, "properties": {"addr:city": "Cipete Utara, Kby. Baru, South Jakarta", "addr:housenumber": "No.1, RT.3/RW.3", "addr:postcode": "12150", "addr:street": "Jl. Taman Brawijaya II", "amenity": "hospital", "name": "Brawijaya Women and Children Hospital"}, "type": "Feature"}, {"geometry": {"coordinates": [106.7528548, -6.1123203], "type": "Point"}, "id": 370801706, "properties": {"addr:city": "North Jakarta", "addr:housenumber": "3", "addr:postcode": "14460", "addr:street": "Jl. Pantai Indah Utara, Kapuk Muara Penjaringan", "amenity": "hospital", "name": "RS Pantai Indah Kapuk"}, "type": "Feature"}, {"geometry": {"coordinates": [106.8524909, -6.1292473], "type": "Point"}, "id": 393097996, "properties": {"amenity": "hospital", "name": "RS Ancol"}, "type": "Feature"}, {"geometry": {"coordinates": [106.8619872, -6.1304754], "type": "Point"}, "id": 396646055, "properties": {"addr:city": "North Jakarta", "addr:postcode": "14340", "addr:street": "Jl. Sunter Permai Raya, Papanggo", "amenity": "hospital", "name": "RS Sulianto Saroso"}, "type": "Feature"}, {"geometry": {"coordinates": [106.8611598, -6.1455577], "type": "Point"}, "id": 401426991, "properties": {"amenity": "hospital", "name": "RS Hermina"}, "type": "Feature"}, {"geometry": {"coordinates": [106.917028, -6.1250021], "type": "Point"}, "id": 408210669, "properties": {"addr:city": "North Jakarta", "addr:housenumber": "1", "addr:postcode": "14260", "addr:street": "Jl. Kramat Jaya Raya, RT.5/RW.14, Tugu Utara, Koja,", "amenity": "hospital", "name": "Rumah Sakit Pelabuhan Jakarta"}, "type": "Feature"}, {"geometry": {"coordinates": [106.7125761, -6.1528807], "type": "Point"}, "id": 409469894, "properties": {"addr:city": "West Jakarta", "addr:housenumber": "2", "addr:postcode": "11840", "addr:street": "Jl. Kintamani Raya , RT.1/RW.12, Kalideres", "amenity": "hospital", "name": "RS Hermina Daan Mogot"}, "type": "Feature"}, {"geometry": {"coordinates": [106.7564242, -6.307798], "type": "Point"}, "id": 1170849783, "properties": {"amenity": "hospital", "name": "Klinik UIN Jakarta"}, "type": "Feature"}, {"geometry": {"coordinates": [106.7465576, -6.3213835], "type": "Point"}, "id": 1256938453, "properties": {"amenity": "hospital", "name": "Klinik Mama"}, "type": "Feature"}, {"geometry": {"coordinates": [106.7471693, -6.309944], "type": "Point"}, "id": 1256957650, "properties": {"amenity": "hospital", "emergency": "no", "name": "Puskesmas Ciputat"}, "type": "Feature"}, {"geometry": {"coordinates": [106.8419336, -6.191436], "type": "Point"}, "id": 1343092357, "properties": {"addr:city": "West Jakarta", "addr:housenumber": "No. 92 - 94", "addr:postcode": "11410", "addr:street": "Jalan Aipda KS. Tubun", "amenity": "hospital", "designation": "Rumah Sakit PGI Cikini", "emergency": "yes", "name": "Rumah Sakit PGI Cikini"}, "type": "Feature"}, {"geometry": {"coordinates": [106.8080679, -6.2746362], "type": "Point"}, "id": 1456487381, "properties": {"amenity": "hospital", "name": "SOS"}, "type": "Feature"}, {"geometry": {"coordinates": [106.7351851, -6.1865787], "type": "Point"}, "id": 1663995423, "properties": {"access:roof": "yes", "addr:city": "West Jakarta", "addr:housenumber": "Blok S-2", "addr:postcode": "11610", "addr:street": "Jalan Puri Indah Raya, Kembangan Selatan, Daerah Khusus Ibukota Jakarta", "amenity": "hospital", "building:levels": ">7", "building:roof": "concrete", "building:structure": "reinforced_masonry", "building:walls": "brick", "emergency": "no", "name": "RS Pondok Indah - Puri Indah", "operator:type": "private"}, "type": "Feature"}, {"geometry": {"coordinates": [106.8750325, -6.1270166], "type": "Point"}, "id": 1674155181, "properties": {"amenity": "hospital", "name": "Puskesma I Papanggo"}, "type": "Feature"}, {"geometry": {"coordinates": [106.8738202, -6.129054], "type": "Point"}, "id": 1674159250, "properties": {"amenity": "hospital", "emergency": "yes", "name": "Puskesmas II Papanggo"}, "type": "Feature"}, {"geometry": {"coordinates": [106.7995081, -6.156086], "type": "Point"}, "id": 1675331031, "properties": {"amenity": "hospital", "emergency": "no", "name": "Puskesmas Kel. kalianyar"}, "type": "Feature"}, {"geometry": {"coordinates": [106.8105843, -6.1722417], "type": "Point"}, "id": 1675471403, "properties": {"access:roof": "yes", "addr:city": "Central Jakarta", "addr:full": "Jalan Caringin", "addr:housenumber": "Nomor 7", "addr:postcode": "10150", "addr:street": "Jl. Kyai Caringin, Cideng, Gambir", "amenity": "hospital", "building:levels": ">7", "building:roof": "concrete", "building:structure": "reinforced_masonry", "building:walls": "brick", "name": "RSUD Tarakan", "operator:type": "private"}, "type": "Feature"}, {"geometry": {"coordinates": [106.810532, -6.1779942], "type": "Point"}, "id": 1675471407, "properties": {"access:roof": "no", "amenity": "hospital", "building:levels": "1", "building:roof": "tile", "building:structure": "reinforced_masonry", "building:walls": "brick", "name": "Rumah Sakit bersalin", "operator:type": "private"}, "type": "Feature"}, {"geometry": {"coordinates": [106.8919957, -6.1938649], "type": "Point"}, "id": 1682958719, "properties": {"access:roof": "yes", "addr:full": "Jl. Pemuda", "amenity": "hospital", "building": "yes", "building:levels": "2", "building:roof": "concrete", "building:structure": "reinforced_masonry", "building:walls": "brick", "capacity:persons": "FIX ME", "operator:type": "private", "rooms": "FIX ME"}, "type": "Feature"}, {"geometry": {"coordinates": [106.7835976, -6.1834246], "type": "Point"}, "id": 1691655068, "properties": {"access:roof": "no", "addr:housenumber": "25", "addr:postcode": "11470", "addr:street": "Jalan Tanjung Duren Raya", "amenity": "hospital", "building:levels": "1", "building:roof": "tile", "building:structure": "reinforced_masonry", "building:walls": "brick", "name": "Klinik Dr. Herdiman", "operator:type": "private"}, "type": "Feature"}, {"geometry": {"coordinates": [106.7837495, -6.1804375], "type": "Point"}, "id": 1691655069, "properties": {"access:roof": "no", "addr:housenumber": "2", "addr:street": "Jalan Tanjung Duren Raya", "amenity": "hospital", "building:levels": "1", "building:roof": "tile", "building:structure": "reinforced_masonry", "building:walls": "brick", "name": "Klinik Tomang", "operator:type": "private"}, "type": "Feature"}, {"geometry": {"coordinates": [106.7911179, -6.24453], "type": "Point"}, "id": 1695782292, "properties": {"access:roof": "no", "addr:full": "Jln Gandaria Tengah II", "amenity": "hospital", "building": "yes", "building:levels": "3", "building:roof": "tile", "building:structure": "reinforced_masonry", "building:walls": "brick", "capacity:persons": "150", "operator:type": "private", "rooms": "Fix Me"}, "type": "Feature"}, {"geometry": {"coordinates": [106.8459931, -6.1988388], "type": "Point"}, "id": 1717114897, "properties": {"addr:city": "Central Jakarta", "addr:housenumber": "Nomor 71", "addr:postcode": "10430", "addr:street": "Jalan P Diponegoro", "amenity": "hospital", "name": "RSCM Kencana"}, "type": "Feature"}, {"geometry": {"coordinates": [106.7961351, -6.2815086], "type": "Point"}, "id": 1777742761, "properties": {"addr:city": "South Jakarta", "addr:housenumber": "No.80-82", "addr:postcode": "12140", "addr:street": "Jalan Fatmawati", "amenity": "hospital", "name": "RS Setia Mitra"}, "type": "Feature"}, {"geometry": {"coordinates": [106.7710803, -6.1121401], "type": "Point"}, "id": 2479742650, "properties": {"addr:full": "MUARA ANGKE RW 01", "amenity": "hospital", "building": "yes", "building:condition": "good", "building:levels": "2", "building:use": "Posko Kesehatan", "hospital:type_idn": "puskesmas", "name": "PUSKESMAS KEL. PLUIT"}, "type": "Feature"}, {"geometry": {"coordinates": [106.7707653, -6.1090885], "type": "Point"}, "id": 2479751949, "properties": {"access:roof": "yes", "addr:full": "Jl.Pengasinan", "amenity": "hospital", "building": "yes", "building:condition": "good", "building:levels": "2", "building:use": "Posko Kesehatan", "name": "Klinik Paru-Paru"}, "type": "Feature"}, {"geometry": {"coordinates": [106.7964718, -6.1185351], "type": "Point"}, "id": 2479752641, "properties": {"amenity": "hospital", "building:condition": "baik", "building:levels": "3", "hospital:type_idn": "puskesmas", "name": "klinik hemodialisislions"}, "type": "Feature"}, {"geometry": {"coordinates": [106.7831089, -6.1198611], "type": "Point"}, "id": 2479752915, "properties": {"access:roof": "yes", "addr:full": "Jl. Pluit Karang Timur", "amenity": "hospital", "building:condition": "good", "building:levels": "2", "name": "AMC (Advance Medical Center)"}, "type": "Feature"}, {"geometry": {"coordinates": [106.7753003, -6.1091268], "type": "Point"}, "id": 2479762425, "properties": {"addr:full": "jl.pluit karang ayu", "amenity": "hospital", "building:condition": "good", "building:levels": "1", "hospital:type_idn": "puskesmas", "name": "posyandu blibis"}, "type": "Feature"}, {"geometry": {"coordinates": [106.8025581, -6.1124033], "type": "Point"}, "id": 2490616742, "properties": {"amenity": "hospital", "building:levels": "1", "name": "klinik muara baru"}, "type": "Feature"}, {"geometry": {"coordinates": [106.8027897, -6.1145151], "type": "Point"}, "id": 2490616743, "properties": {"amenity": "hospital", "building:levels": "2", "name": "klinik umum rahim medika"}, "type": "Feature"}, {"geometry": {"coordinates": [106.8010066, -6.1296499], "type": "Point"}, "id": 2490617752, "properties": {"addr:full": "Ruko 33 Jalan Tanah Pasir", "amenity": "hospital", "building:condition": "good", "building:levels": "3", "hospital:type_idn": "puskesmas", "name": "Klinik Anggrek"}, "type": "Feature"}, {"geometry": {"coordinates": [106.8547392, -6.2257823], "type": "Point"}, "id": 2565958371, "properties": {"addr:city": "Jakarta Selatan", "addr:housename": "Jl.Tebet Utara Dalam", "addr:street": "Tebet Utara Dalam", "amenity": "hospital", "name": "Dokter Gigi Gunawan"}, "type": "Feature"}, {"geometry": {"coordinates": [106.9058271, -6.2385487], "type": "Point"}, "id": 2567245926, "properties": {"addr:city": "Jakarta Timur", "addr:housename": "Sultan Soffat Asmawi", "addr:housenumber": "319", "addr:street": "Tutul 2", "amenity": "hospital", "emergency": "no", "name": "Sultan Soffat Asmawi \"Pijat & Urut Tulang\"", "note": "Sabtu Tutup, hari libur nasional tutup", "phone": "+62 21 8617011", "toilets:wheelchair": "yes", "wheelchair": "yes"}, "type": "Feature"}, {"geometry": {"coordinates": [106.9647392, -6.2930957], "type": "Point"}, "id": 2640622526, "properties": {"amenity": "hospital", "name": "Puskesmas Jatiasih"}, "type": "Feature"}, {"geometry": {"coordinates": [106.9500149, -6.3200517], "type": "Point"}, "id": 2640697581, "properties": {"amenity": "hospital", "emergency": "no", "name": "Puskesmas Jatiluhur"}, "type": "Feature"}, {"geometry": {"coordinates": [106.9675678, -6.2836939], "type": "Point"}, "id": 2641717066, "properties": {"amenity": "hospital", "name": "Klinik Mawar"}, "type": "Feature"}, {"geometry": {"coordinates": [106.8346735, -6.3184096], "type": "Point"}, "id": 2696043847, "properties": {"addr:housenumber": "7", "addr:postcode": "12610", "addr:street": "Joe", "amenity": "hospital", "emergency": "yes", "name": "Unit Transfusi Darah Pusat PMI Indonesia"}, "type": "Feature"}, {"geometry": {"coordinates": [106.7305894, -6.2644915], "type": "Point"}, "id": 3060361808, "properties": {"amenity": "hospital", "emergency": "yes", "name": "Puskesmas Jurangmangu Timur"}, "type": "Feature"}, {"geometry": {"coordinates": [106.8220096, -6.1743557], "type": "Point"}, "id": 3311995952, "properties": {"amenity": "hospital", "name": "RS. IBNU SINA", "operator": "14075012"}, "type": "Feature"}, {"geometry": {"coordinates": [106.8220212, -6.1743897], "type": "Point"}, "id": 3312119465, "properties": {"amenity": "hospital", "name": "RS. IBNU SINA", "operator": "14075012"}, "type": "Feature"}, {"geometry": {"coordinates": [106.7606924, -6.2268616], "type": "Point"}, "id": 3679654524, "properties": {"addr:city": "jakarta selatan", "addr:housenumber": "No. 77b", "addr:street": "swadarma raya", "amenity": "hospital", "name": "klinik sehat", "name_1": "Madu Sehat", "operator": "iman", "phone": "+6281572339113", "website": "www.madusehatku.com"}, "type": "Feature"}, {"geometry": {"coordinates": [106.8572945, -6.1271546], "type": "Point"}, "id": 3692631793, "properties": {"amenity": "hospital", "name": "Klinik"}, "type": "Feature"}, {"geometry": {"coordinates": [106.8571213, -6.1283428], "type": "Point"}, "id": 3692631794, "properties": {"amenity": "hospital", "name": "Puskesmas Sunter Agung"}, "type": "Feature"}, {"geometry": {"coordinates": [106.8713072, -6.1302559], "type": "Point"}, "id": 3692631795, "properties": {"amenity": "hospital", "name": "Puskesmas & Posyandu Papanggo II"}, "type": "Feature"}, {"geometry": {"coordinates": [106.9641878, -6.0942487], "type": "Point"}, "id": 3801705134, "properties": {"addr:full": "Jalan Marunda Rusun", "amenity": "hospital", "hospital:type_idn": "puskesmas", "name": "Puskesmas Rusun Marunda", "water_source:id": "PDAM"}, "type": "Feature"}, {"geometry": {"coordinates": [106.9693606, -6.0978749], "type": "Point"}, "id": 3816522570, "properties": {"amenity": "hospital"}, "type": "Feature"}, {"geometry": {"coordinates": [106.8336811, -6.2069263], "type": "Point"}, "id": 3910152111, "properties": {"addr:city": "South Jakarta", "addr:housenumber": "13", "addr:postcode": "12980", "addr:street": "Jl. Halimun Raya, RT.8/RW.2, Guntur", "amenity": "hospital", "name": "Puskesmas Setiabudi Puskesmas Kec. Setia Budi"}, "type": "Feature"}, {"geometry": {"coordinates": [106.8692576, -6.2770341], "type": "Point"}, "id": 4129780395, "properties": {"addr:city": "East Jakarta", "addr:postcode": "13510", "addr:street": "Jalan Raya Bogor, Kramat Jati", "amenity": "hospital", "name": "RS. PUSDIKKES"}, "type": "Feature"}, {"geometry": {"coordinates": [106.8658872, -6.1356412], "type": "Point"}, "id": 4130191495, "properties": {"amenity": "hospital", "internet_access": "wlan", "name": "\ub9c8\uc0ac\uc9c0 \uc138\ube10\uc2a4\ud0c0(\uccb4\uc778\uc810)"}, "type": "Feature"}, {"geometry": {"coordinates": [106.8717613, -6.2695992], "type": "Point"}, "id": 4145889018, "properties": {"addr:city": "East Jakarta", "addr:housenumber": "RT.1/RW.5", "addr:postcode": "13510", "addr:street": "Jl. Rs Polri Sukanto", "amenity": "hospital", "name": "Polri Hospital (RS Soekanto)"}, "type": "Feature"}, {"geometry": {"coordinates": [106.7863022, -6.2979922], "type": "Point"}, "id": 4146053199, "properties": {"addr:city": "Jakarta Selatan", "addr:housenumber": "kav 19", "addr:postcode": "12430", "addr:street": "Lebak Bulus 1", "amenity": "hospital", "name": "Mayapada Hospital"}, "type": "Feature"}, {"geometry": {"coordinates": [106.9030467, -6.1929517], "type": "Point"}, "id": 4146190336, "properties": {"addr:city": "Pulo Gadung, East Jakarta", "addr:housenumber": "No.1A", "addr:postcode": "13210", "addr:street": "Jl. Raya Pemuda", "amenity": "hospital", "name": "Antam Medika Hospital"}, "type": "Feature"}, {"geometry": {"coordinates": [106.8173671, -6.218677], "type": "Point"}, "id": 4146386753, "properties": {"addr:city": "jakarta selatan", "addr:housenumber": "no 2-3", "addr:postcode": "12930", "addr:street": "Jalan Garnisun Dalam", "amenity": "hospital", "name": "MRCCC Siloam Hospital Semanggi"}, "type": "Feature"}, {"geometry": {"coordinates": [106.847424, -6.1967374], "type": "Point"}, "id": 4146433888, "properties": {"addr:city": "Central Jakarta", "addr:housenumber": "Nomor 71", "addr:postcode": "10320", "addr:street": "Jl. Diponegoro", "amenity": "hospital", "name": "RS Cipto Mangunkusumo", "phone": "1500135"}, "type": "Feature"}, {"geometry": {"coordinates": [106.8594337, -6.1938037], "type": "Point"}, "id": 4146438320, "properties": {"addr:city": "Central Jakarta", "addr:housenumber": "Nomor 47", "addr:postcode": "10570", "addr:street": "Jalan Rawamangun", "amenity": "hospital", "name": "RS Evasari", "phone": "(021) 4202851"}, "type": "Feature"}, {"geometry": {"coordinates": [106.8186779, -6.180148], "type": "Point"}, "id": 4146453382, "properties": {"addr:city": "Central Jakarta", "addr:housenumber": "No.25, RT.2/RW.3", "addr:postcode": "10110", "addr:street": "Jl. Budi Kemulyaan, Gambir", "amenity": "hospital", "name": "RS Ibu Dan Anak Budi Kemuliaan", "phone": "3842828"}, "type": "Feature"}, {"geometry": {"coordinates": [106.9401095, -6.2201217], "type": "Point"}, "id": 4146456983, "properties": {"addr:city": "East Jakarta", "addr:housenumber": "RT.2/RW.1", "addr:postcode": "13460", "addr:street": "Jl. Pondok Kopi Raya, Duren Sawit", "amenity": "hospital", "name": "RS Islam Jakarta Pondok Kopi", "phone": "(021) 29809000"}, "type": "Feature"}, {"geometry": {"coordinates": [106.7973263, -6.1852767], "type": "Point"}, "id": 4146465746, "properties": {"addr:city": "West Jakarta", "addr:housenumber": "Kav. 87", "addr:postcode": "11420", "addr:street": "Jalan Letjen. S. Parman, Slipi", "amenity": "hospital", "name": "RS Jantung Dan Pembuluh Darah Harapan Kita", "phone": "(021) 5684093"}, "type": "Feature"}, {"geometry": {"coordinates": [106.7784191, -6.2190788], "type": "Point"}, "id": 4146467952, "properties": {"addr:city": "West Jakarta", "addr:housenumber": "Nomor 64", "addr:postcode": "12240", "addr:street": "Kebayoran Lama Jl. No., Kp. Dukuh Raya", "amenity": "hospital", "name": "RS Medika Permata Hijau", "phone": "(021) 5347411"}, "type": "Feature"}, {"geometry": {"coordinates": [106.797624, -6.1865567], "type": "Point"}, "id": 4146471251, "properties": {"addr:city": "West Jakarta", "addr:housenumber": "Kav. 84-86", "addr:postcode": "11420", "addr:street": "Jalan Letjen. S. Parman", "amenity": "hospital", "name": "RS Kanker Dharmais", "phone": "+62-21-5681570"}, "type": "Feature"}, {"geometry": {"coordinates": [106.8335855, -6.2399299], "type": "Point"}, "id": 4146492845, "properties": {"addr:city": "South Jakarta", "addr:housenumber": "Kav. 59", "addr:postcode": "12950", "addr:street": "Jl. Jend. Gatot Subroto", "amenity": "hospital", "name": "RS Medistra", "phone": "(021) 5210200"}, "type": "Feature"}, {"geometry": {"coordinates": [106.8319991, -6.2202133], "type": "Point"}, "id": 4146514529, "properties": {"addr:city": "South Jakarta", "addr:housenumber": "Kav. C 20-21", "addr:postcode": "12920", "addr:street": "Jl. HR Rasuna Said, Karet Kuningan, Setiabudi", "amenity": "hospital", "name": "RS MMC", "phone": "(021) 5203435"}, "type": "Feature"}, {"geometry": {"coordinates": [106.8054781, -6.1928554], "type": "Point"}, "id": 4146530776, "properties": {"addr:city": "West Jakarta", "addr:housenumber": "No. 92 - 94", "addr:postcode": "11410", "addr:street": "Jalan Aipda KS. Tubun", "amenity": "hospital", "name": "RS Pelni Petamburan", "phone": "(021) 5306901"}, "type": "Feature"}, {"geometry": {"coordinates": [106.8854064, -6.2042927], "type": "Point"}, "id": 4146557843, "properties": {"addr:city": "East Jakarta", "addr:housenumber": "Nomor 1", "addr:postcode": "13230", "addr:street": "Jl. Persahabatan Raya", "amenity": "hospital", "name": "RS Persahabatan", "phone": "(021) 4891708"}, "type": "Feature"}, {"geometry": {"coordinates": [106.7235996, -6.2761624], "type": "Point"}, "id": 4146570220, "properties": {"addr:city": "Banten", "addr:housenumber": "Nomor 1, Sektor 7", "addr:postcode": "15224", "addr:street": "Jalan M.H. Thamrin", "amenity": "hospital", "name": "RS Premier Bintaro", "phone": "(021) 27625500"}, "type": "Feature"}, {"geometry": {"coordinates": [106.7952772, -6.294838], "type": "Point"}, "id": 4146924689, "properties": {"addr:city": "RT 04/RW 09, Cilandak Barat, South Jakarta", "addr:postcode": "12430", "addr:street": "Jl. RS Fatmawati", "amenity": "hospital", "name": "Fatmawati General Hospital"}, "type": "Feature"}, {"geometry": {"coordinates": [106.8692786, -6.2214334], "type": "Point"}, "id": 4148109636, "properties": {"addr:city": "East Jakarta", "addr:housenumber": "Nomor 85-87", "addr:postcode": "13310", "addr:street": "Jalan Raya Jatinegara Timur, Jatinegara", "amenity": "hospital", "name": "RS Premier Jatinegara"}, "type": "Feature"}, {"geometry": {"coordinates": [106.8653794, -6.13888], "type": "Point"}, "id": 4148131861, "properties": {"addr:city": "North Jakarta", "addr:housenumber": "Nomor 1-5", "addr:postcode": "14350", "addr:street": "Jl. Danau Sunter Utara, Sunter Paradise", "amenity": "hospital", "name": "RS Royal Progress"}, "type": "Feature"}, {"geometry": {"coordinates": [106.7182954, -6.227834], "type": "Point"}, "id": 4148175934, "properties": {"addr:city": "Banten", "addr:housenumber": "No. 38", "addr:postcode": "15154", "addr:street": "Jalan HOS. Cokroaminoto", "amenity": "hospital", "name": "RS Sari Asih Ciledug"}, "type": "Feature"}, {"geometry": {"coordinates": [106.8392603, -6.2727275], "type": "Point"}, "id": 4148203030, "properties": {"addr:city": "South Jakarta", "addr:housenumber": "Kav.4 - 8", "addr:postcode": "12510", "addr:street": "Jl. Kalibata Tengah XVI, Pejaten Bar., Ps. Minggu", "amenity": "hospital", "name": "RS Siaga Raya"}, "type": "Feature"}, {"geometry": {"coordinates": [106.8509191, -6.1962055], "type": "Point"}, "id": 4148204983, "properties": {"addr:city": "Central Jakarta", "addr:housenumber": "No.41, RT.3/RW.5", "addr:postcode": "10430", "addr:street": "Jl. Salemba Raya, Paseban, Senen", "amenity": "hospital", "name": "RS St Carolus"}, "type": "Feature"}, {"geometry": {"coordinates": [106.7962621, -6.2935243], "type": "Point"}, "id": 4148212917, "properties": {"addr:city": "South Jakarta", "addr:housenumber": "RT.4/RW.9", "addr:postcode": "12420", "addr:street": "Jl. RS Fatmawati", "amenity": "hospital", "name": "RS Umum Pusat Fatmawati"}, "type": "Feature"}, {"geometry": {"coordinates": [106.8895499, -6.2901376], "type": "Point"}, "id": 4148218197, "properties": {"addr:city": "East Jakarta", "addr:housenumber": "Nomor 4", "addr:postcode": "13560", "addr:street": "Jl. Raya Pondok Gede", "amenity": "hospital", "name": "RS Haji Pondok Gede"}, "type": "Feature"}, {"geometry": {"coordinates": [106.8581951, -6.152331], "type": "Point"}, "id": 4148231128, "properties": {"addr:city": "North Jakarta", "addr:postcode": "10630", "addr:street": "Jalan HBR Motik, Landas Pacu Timur, Kemayoran", "amenity": "hospital", "name": "RS Mitra Kemayoran"}, "type": "Feature"}, {"geometry": {"coordinates": [106.8463761, -6.1959177], "type": "Point"}, "id": 4148235426, "properties": {"addr:city": "Central Jakarta", "addr:housenumber": "No. 71", "addr:postcode": "10310", "addr:street": "Jl. Diponegoro", "amenity": "hospital", "name": "Gedung A RSCM"}, "type": "Feature"}, {"geometry": {"coordinates": [106.8425043, -6.2510633], "type": "Point"}, "id": 4148235637, "properties": {"addr:city": "South Jakarta", "addr:housenumber": "Nomor 3A", "addr:postcode": "12780", "addr:street": "Jl. Raya Pasar Minggu", "amenity": "hospital", "name": "RS Tria Dipa"}, "type": "Feature"}, {"geometry": {"coordinates": [106.8483947, -6.196425], "type": "Point"}, "id": 4148240353, "properties": {"addr:city": "Central Jakarta", "addr:housenumber": "Nomor 71", "addr:postcode": "10320", "addr:street": "Jalan Diponegoro", "amenity": "hospital", "name": "RSCM Kiara"}, "type": "Feature"}, {"geometry": {"coordinates": [106.8651735, -6.2208373], "type": "Point"}, "id": 4148242316, "properties": {"addr:city": "East Jakarta", "addr:housenumber": "Nomor 126-127", "addr:postcode": "13320", "addr:street": "Jalan Raya Jatinegara Barat", "amenity": "hospital", "name": "RSIA Hermina Jatinegara"}, "type": "Feature"}, {"geometry": {"coordinates": [106.8443097, -6.1969767], "type": "Point"}, "id": 4148242989, "properties": {"addr:city": "Central Jakarta", "addr:housenumber": "No.8, RT.10/RW.1", "addr:postcode": "10320", "addr:street": "Jl. Kimia, Pegangsaan, Menteng", "amenity": "hospital", "name": "RSCM Kirana"}, "type": "Feature"}, {"geometry": {"coordinates": [106.7592638, -6.3068941], "type": "Point"}, "id": 4148245144, "properties": {"addr:city": "Banten", "addr:housenumber": "No. 2", "addr:postcode": "12310", "addr:street": "Jl. Ciputat Raya, Kertamukti, Ciputat", "amenity": "hospital", "name": "RSIA Hermina Ciputat"}, "type": "Feature"}, {"geometry": {"coordinates": [106.8612066, -6.1455293], "type": "Point"}, "id": 4148255390, "properties": {"addr:city": "North Jakarta", "addr:housenumber": "Blok E3 No. 28-30", "addr:postcode": "14350", "addr:street": "Jl. Danau Agung 2", "amenity": "hospital", "name": "RSIA Hermina Podomoro"}, "type": "Feature"}, {"geometry": {"coordinates": [106.7875715, -6.2415287], "type": "Point"}, "id": 4148258291, "properties": {"addr:city": "South Jakarta", "addr:housenumber": "No.20, RT.7/RW.2", "addr:postcode": "12130", "addr:street": "Jl. Gandaria I, Kramat Pela", "amenity": "hospital", "name": "RSIA Muhammadiyah Taman Puring"}, "type": "Feature"}, {"geometry": {"coordinates": [106.8281303, -6.1911273], "type": "Point"}, "id": 4148259194, "properties": {"addr:city": "Central Jakarta", "addr:housenumber": "Nomor 22", "addr:postcode": "10350", "addr:street": "Jalan Gereja Theresia, Menteng, Daerah Khusus Ibukota Jakarta", "amenity": "hospital", "name": "RSIA YPK Mandiri"}, "type": "Feature"}, {"geometry": {"coordinates": [106.8382138, -6.1771105], "type": "Point"}, "id": 4148263063, "properties": {"addr:city": "Central Jakarta", "addr:housenumber": "Nomor 24", "addr:postcode": "10410", "addr:street": "Jl. Dr. Abdul Rahman Saleh", "amenity": "hospital", "name": "RSPAD Gatot Soebroto"}, "type": "Feature"}, {"geometry": {"coordinates": [106.8387947, -6.1765207], "type": "Point"}, "id": 4148264570, "properties": {"addr:city": "Central Jakarta", "addr:housenumber": "No.24, RT.6/RW.1", "addr:postcode": "10410", "addr:street": "Jalan DR. Abdul Rachman Saleh", "amenity": "hospital", "name": "RSPAD Gatot Soebroto / Paviliun Kartika"}, "type": "Feature"}, {"geometry": {"coordinates": [106.7344856, -6.1424712], "type": "Point"}, "id": 4148265829, "properties": {"addr:city": "West Jakarta", "addr:postcode": "11730", "addr:street": "Jl. Kamal Raya Bumi Cengkareng Indah, Cengkareng, Daerah Khusus Ibukota Jakarta", "amenity": "hospital", "name": "RSUD Cengkareng"}, "type": "Feature"}, {"geometry": {"coordinates": [106.8208147, -6.2938063], "type": "Point"}, "id": 4148371594, "properties": {"addr:city": "South Jakarta", "addr:housenumber": "Nomor 1", "addr:postcode": "12550", "addr:street": "Jl. TB. Simatupang, Kelurahan Ragunan, Kecamatan Pasar Minggu", "amenity": "hospital", "name": "RSUD Pasar Minggu"}, "type": "Feature"}, {"geometry": {"coordinates": [106.8619235, -6.3041587], "type": "Point"}, "id": 4148382540, "properties": {"addr:city": "South Jakarta", "addr:housenumber": "No.30", "addr:postcode": "13760", "addr:street": "Jalan Let. Jend. T.B. Simatupang", "amenity": "hospital", "name": "RSUD Pasar Rebo"}, "type": "Feature"}, {"geometry": {"coordinates": [106.8629632, -6.2557367], "type": "Point"}, "id": 4148440647, "properties": {"addr:city": "East Jakarta", "addr:housenumber": "No. 200", "addr:postcode": "13630", "addr:street": "Jl. Dewi Sartika Cawang III", "amenity": "hospital", "name": "Rumah Sakit Budhi Asih"}, "type": "Feature"}, {"geometry": {"coordinates": [106.7661521, -6.2671921], "type": "Point"}, "id": 4148447969, "properties": {"addr:city": "South Jakarta", "addr:housenumber": "No.178, RT.9/RW.3", "addr:postcode": "12330", "addr:street": "Jl. RC. Veteran, Bintaro, Pesanggrahan", "amenity": "hospital", "name": "Rumah Sakit Dr. Suyoto"}, "type": "Feature"}, {"geometry": {"coordinates": [106.9157878, -6.166364], "type": "Point"}, "id": 4148454989, "properties": {"addr:city": "North Jakarta", "addr:postcode": "14250", "addr:street": "Jalan Boulevard Timur Raya, Kelapa Gading, Daerah Khusus Ibukota Jakarta", "amenity": "hospital", "name": "Rumah Sakit Gading Pluit"}, "type": "Feature"}, {"geometry": {"coordinates": [106.7645546, -6.1684291], "type": "Point"}, "id": 4148458034, "properties": {"addr:city": "West Jakarta", "addr:housenumber": "No.26, RT.15/RW.7", "addr:postcode": "11520", "addr:street": "Jl. Panjang Arteri, Kedoya Utara, Kb. Jeruk", "amenity": "hospital", "name": "Rumah Sakit Grha Kedoya"}, "type": "Feature"}, {"geometry": {"coordinates": [106.8676836, -6.3028077], "type": "Point"}, "id": 4148472695, "properties": {"addr:city": "East Jakarta", "addr:housenumber": "KM. 22 No. 44", "addr:postcode": "13750", "addr:street": "Jalan Raya Bogor, Ciracas", "amenity": "hospital", "name": "Rumah Sakit Harapan Bunda"}, "type": "Feature"}, {"geometry": {"coordinates": [106.9095988, -6.2479377], "type": "Point"}, "id": 4148480403, "properties": {"addr:city": "East Jakarta", "addr:housenumber": "RT.1/RW.13", "addr:postcode": "13620", "addr:street": "Tarum Barat, Cipinang Melayu", "amenity": "hospital", "name": "Rumah Sakit Harum Sisma Medika"}, "type": "Feature"}, {"geometry": {"coordinates": [106.8294304, -6.1478842], "type": "Point"}, "id": 4148490661, "properties": {"addr:city": "Central Jakarta", "addr:housenumber": "No.137-139, RW.1", "addr:postcode": "10730", "addr:street": "Jl. Mangga Besar Raya", "amenity": "hospital", "name": "Rumah Sakit Husada"}, "type": "Feature"}, {"geometry": {"coordinates": [106.848731, -6.2062573], "type": "Point"}, "id": 4148494187, "properties": {"addr:city": "Central Jakarta", "addr:housenumber": "No 18", "addr:postcode": "10320", "addr:street": "Jl. Tambak, Menteng, Daerah Khusus Ibukota Jakarta", "amenity": "hospital", "name": "Rumah Sakit Ibu Dan Anak Tambak"}, "type": "Feature"}, {"geometry": {"coordinates": [106.8165568, -6.2181037], "type": "Point"}, "id": 4148502391, "properties": {"addr:city": "South Jakarta", "addr:housenumber": "Kav. 49", "addr:postcode": "12930", "addr:street": "Jl. Jend. Sudriman, Setiabudi, Daerah Khusus Ibukota Jakarta", "amenity": "hospital", "name": "Rumah Sakit Jakarta"}, "type": "Feature"}, {"geometry": {"coordinates": [106.8305027, -6.2712488], "type": "Point"}, "id": 4148507338, "properties": {"addr:city": "South Jakarta", "addr:housenumber": "No.15", "addr:postcode": "12740", "addr:street": "Jl. Warung Buncit Raya", "amenity": "hospital", "name": "Rumah Sakit Jakarta Medical Center"}, "type": "Feature"}, {"geometry": {"coordinates": [106.8107933, -6.3048811], "type": "Point"}, "id": 4148514189, "properties": {"addr:city": "South Jakarta", "addr:postcode": "12560", "addr:street": "Jl. Raya Cilandak KKO, Pasar Minggu, Daerah Khusus Ibukota Jakarta", "amenity": "hospital", "name": "Rumah Sakit Marinir Cilandak"}, "type": "Feature"}, {"geometry": {"coordinates": [106.8286279, -6.2147478], "type": "Point"}, "id": 4148521937, "properties": {"addr:city": "South Jakarta", "addr:postcode": "12920", "addr:street": "Jl. RS Mata Aini, HR Rasuna Said, Kuningan", "amenity": "hospital", "name": "Rumah Sakit Mata Prof. Dr. Isak Salim Aini"}, "type": "Feature"}, {"geometry": {"coordinates": [106.8473829, -6.1911547], "type": "Point"}, "id": 4148542049, "properties": {"addr:city": "Central Jakarta", "addr:housenumber": "No.174, RT.6/RW.2", "addr:postcode": "14030", "addr:street": "Jl. Kramat Raya, Kenari, Senen", "amenity": "hospital", "name": "Rumah Sakit Mohammad Ridwan Meuraksa"}, "type": "Feature"}, {"geometry": {"coordinates": [106.8837834, -6.179966], "type": "Point"}, "id": 4148551541, "properties": {"addr:city": "East Jakarta", "addr:housenumber": "VI No.20", "addr:postcode": "13210", "addr:street": "Jl. Pulo Mas Barat, Daerah Khusus Ibukota Jakarta", "amenity": "hospital", "name": "Rumah Sakit Omni Pulomas"}, "type": "Feature"}, {"geometry": {"coordinates": [106.7813491, -6.2838297], "type": "Point"}, "id": 4148568150, "properties": {"addr:city": "South Jakarta", "addr:housenumber": "Kav. UE", "addr:postcode": "12310", "addr:street": "Jl. Metro Duta, Pondok Indah, Daerah Khusus Ibukota Jakarta", "amenity": "hospital", "name": "Rumah Sakit Pondok Indah"}, "type": "Feature"}, {"geometry": {"coordinates": [106.794164, -6.3143647], "type": "Point"}, "id": 4148581277, "properties": {"addr:city": "East Jakarta", "addr:housenumber": "No.74", "addr:postcode": "12450", "addr:street": "Jl. RS Fatmawati, Pd. Labu, Cilandak", "amenity": "hospital", "name": "Rumah Sakit Prikasih"}, "type": "Feature"}, {"geometry": {"coordinates": [106.7826315, -6.3220384], "type": "Point"}, "id": 4148584943, "properties": {"addr:city": "West Java", "addr:housenumber": "Nomor 1", "addr:postcode": "16514", "addr:street": "JL. Maribaya, Puri Cinere", "amenity": "hospital", "name": "Rumah Sakit Puri Cinere"}, "type": "Feature"}, {"geometry": {"coordinates": [106.8703959, -6.2458464], "type": "Point"}, "id": 4148588977, "properties": {"addr:city": "East Jakarta", "addr:housenumber": "Kav. 11", "addr:postcode": "13630", "addr:street": "Jl. MT Haryono, Kelurahan Cawang, Kecamatan Kramat Jati, Daerah Khusus Ibukota Jakarta", "amenity": "hospital", "name": "Rumah Sakit Pusat Otak Nasional"}, "type": "Feature"}, {"geometry": {"coordinates": [106.7637973, -6.190789], "type": "Point"}, "id": 4148604442, "properties": {"addr:city": "West Jakarta", "addr:housenumber": "Kav. 8", "addr:postcode": "11530", "addr:street": "Jl. Raya Perjuangan, Kebon Jeruk, Daerah Khusus Ibukota Jakarta", "amenity": "hospital", "name": "Rumah Sakit Siloam Kebon Jeruk"}, "type": "Feature"}, {"geometry": {"coordinates": [106.8519311, -6.1934257], "type": "Point"}, "id": 4148610328, "properties": {"addr:city": "Central Jakarta", "addr:housenumber": "No.24-28, RT.1/RW.4", "addr:postcode": "10440", "addr:street": "Jl. Salemba Tengah", "amenity": "hospital", "name": "M.H. Thamrin Hospital"}, "type": "Feature"}, {"geometry": {"coordinates": [106.7978221, -6.1664155], "type": "Point"}, "id": 4148612913, "properties": {"addr:city": "West Jakarta", "addr:housenumber": "Nomor 1", "addr:postcode": "11440", "addr:street": "Jalan Kyai Tapa, omang, Grogol petamburan", "amenity": "hospital", "name": "Rumah Sakit Sumber Waras"}, "type": "Feature"}, {"geometry": {"coordinates": [106.8506698, -6.242861], "type": "Point"}, "id": 4148637050, "properties": {"addr:city": "South Jakarta", "addr:housenumber": "Kav. 13 No. 8", "addr:postcode": "12810", "addr:street": "Jl. Letjen M.T. Haryono, ebet Barat, Tebet, Daerah Khusus Ibukota Jakarta", "amenity": "hospital", "name": "Rumah Sakit Tebet"}, "type": "Feature"}, {"geometry": {"coordinates": [106.8994977, -6.1087305], "type": "Point"}, "id": 4148642109, "properties": {"addr:city": "North Jakarta", "addr:housenumber": "No. 4, RT. 11/RW. 7", "addr:postcode": "14220", "addr:street": "Jalan Deli", "amenity": "hospital", "name": "Rumah Sakit Umum Daerah Koja"}, "type": "Feature"}, {"geometry": {"coordinates": [106.8847227, -6.202399], "type": "Point"}, "id": 4148649701, "properties": {"addr:city": "East Jakarta", "addr:housenumber": "No.1", "addr:postcode": "13230", "addr:street": "Jl. Persahabatan Raya", "amenity": "hospital", "name": "Rumah Sakit Umum Persahabatan - IGD"}, "type": "Feature"}, {"geometry": {"coordinates": [106.897468, -6.1520702], "type": "Point"}, "id": 4148655309, "properties": {"addr:city": "North Jakarta", "addr:housenumber": "Kav.2", "addr:postcode": "14240", "addr:street": "Jl. Bukit Gading Raya, Kelapa GAding", "amenity": "hospital", "name": "R.S. Mitra Keluarga Kelapa Gading"}, "type": "Feature"}, {"geometry": {"coordinates": [106.8194622, -6.2094003], "type": "Point"}, "id": 4148725414, "properties": {"addr:city": "Central Jakarta", "addr:housenumber": "Nomor 86", "addr:postcode": "10220", "addr:street": "Jalan Jenderal Sudirman", "amenity": "hospital", "name": "Sahid Sahirman Memorial Hospital"}, "type": "Feature"}, {"geometry": {"coordinates": [106.8614466, -6.139115], "type": "Point"}, "id": 4148777653, "properties": {"addr:city": "North Jakarta", "addr:housenumber": "Nomor 1", "addr:postcode": "14350", "addr:street": "Jl. Agung Utara Raya Blok A, Sunter", "amenity": "hospital", "name": "Satya Negara"}, "type": "Feature"}, {"geometry": {"coordinates": [106.8409187, -6.1928627], "type": "Point"}, "id": 4148806483, "properties": {"addr:city": "Central Jakarta", "addr:housenumber": "No.40, RT.12/RW.2", "addr:postcode": "10430", "addr:street": "Jalan Raden Saleh Raya, Menteng, Cikini", "amenity": "hospital", "name": "RS PGI Cikini"}, "type": "Feature"}, {"geometry": {"coordinates": [106.7843406, -6.2919967], "type": "Point"}, "id": 4150308489, "properties": {"addr:city": "South Jakarta", "addr:housenumber": "No. 8", "addr:postcode": "12440", "addr:street": "Jl. RA. Kartini", "amenity": "hospital", "name": "Siloam Hospital"}, "type": "Feature"}, {"geometry": {"coordinates": [106.7610598, -6.1899231], "type": "Point"}, "id": 4150549447, "properties": {"addr:city": "Kb. Jeruk, Central Jakarta", "addr:housenumber": "No.1", "addr:postcode": "11420", "addr:street": "Jl. Terusan Arjuna Utara", "amenity": "hospital", "name": "Jakarta Eye Center"}, "type": "Feature"}, {"geometry": {"coordinates": [106.8727695, -6.2514239], "type": "Point"}, "id": 4150749417, "properties": {"addr:city": "RT.9/RW.6, Cawang, Kramatjati, East Jakarta", "addr:housenumber": "No.2", "addr:postcode": "13630", "addr:street": "Jl. Mayjen Sutoyo", "amenity": "hospital", "name": "Rumah Sakit UKI"}, "type": "Feature"}, {"geometry": {"coordinates": [106.7933105, -6.2405057], "type": "Point"}, "id": 4150777342, "properties": {"addr:city": "South Jakarta", "addr:housenumber": "No.43, RT.4/RW.8", "addr:postcode": "12120", "addr:street": "Jalan Kyai Maja", "amenity": "hospital", "name": "Pertamina Central Hospital"}, "type": "Feature"}, {"geometry": {"coordinates": [106.8684352, -6.2218122], "type": "Point"}, "id": 4152477517, "properties": {"addr:city": "East Jakarta", "addr:postcode": "13310", "addr:street": "Jalan Raya Jatinegara Timur", "amenity": "hospital", "name": "RS Premier Jatinegara"}, "type": "Feature"}, {"geometry": {"coordinates": [106.8968323, -6.2331493], "type": "Point"}, "id": 4153009395, "properties": {"addr:city": "East Jakarta", "addr:housenumber": "RT.4/RW.3", "addr:postcode": "13430", "addr:street": "Jl. Pahlawan Revolusi", "amenity": "hospital", "name": "RSIA Bunda Alliyah"}, "type": "Feature"}, {"geometry": {"coordinates": [106.8322192, -6.2542469], "type": "Point"}, "id": 4160694211, "properties": {"addr:city": "South Jakarta", "addr:postcode": "12430", "addr:street": "Jl. Duren Tiga No.20 ,Mampang", "amenity": "hospital", "name": "Rumah Sakit Asri (Mampang)"}, "type": "Feature"}, {"geometry": {"coordinates": [106.8082935, -6.2751011], "type": "Point"}, "id": 4240856082, "properties": {"addr:city": "South Jakarta", "addr:housenumber": "10", "addr:postcode": "12410", "addr:street": "Jalan Puri Sakti", "amenity": "hospital", "name": "International SOS Cipete"}, "type": "Feature"}, {"geometry": {"coordinates": [106.841435, -6.157613], "type": "Point"}, "id": 4242433219, "properties": {"addr:city": "Kemayoran, Gn. Sahari, Central Jakarta", "addr:housenumber": "No. 1", "addr:postcode": "10610", "addr:street": "Jl. Angkasa Blok B15", "amenity": "hospital", "name": "Garuda Sentra Medika"}, "type": "Feature"}, {"geometry": {"coordinates": [106.8445519, -6.1849684], "type": "Point"}, "id": 4242691424, "properties": {"addr:city": "Central Jakarta", "addr:housenumber": "47", "addr:postcode": "10450", "addr:street": "Jl. Kramat Raya , RT.3/RW.4, Kramat, Senen", "amenity": "hospital", "name": "PMI DKI Jakarta"}, "type": "Feature"}, {"geometry": {"coordinates": [106.8189008, -6.2859444], "type": "Point"}, "id": 4242702971, "properties": {"addr:city": "South Jakarta", "addr:housenumber": "34", "addr:postcode": "12560", "addr:street": "Jalan Ampera Raya , Cilandak Timur, Pasar Minggu", "amenity": "hospital", "name": "RSIA Kemang Medical Care Women and Children"}, "type": "Feature"}, {"geometry": {"coordinates": [106.7853535, -6.1671315], "type": "Point"}, "id": 4243845096, "properties": {"addr:city": "West Jakarta", "addr:housenumber": "No.34", "addr:postcode": "11440", "addr:street": "Jalan Daan Mogot", "amenity": "hospital", "name": "Rumah Sakit Royal Taruma"}, "type": "Feature"}, {"geometry": {"coordinates": [106.874768, -6.2878065], "type": "Point"}, "id": 4243850657, "properties": {"addr:city": "East Jakarta", "addr:housenumber": "No.23, RT.3/RW.1", "addr:postcode": "13510", "addr:street": "Jl. Pondok Gede", "amenity": "hospital", "name": "Rumah Sakit MH. Thamrin"}, "type": "Feature"}, {"geometry": {"coordinates": [106.7781696, -6.2185832], "type": "Point"}, "id": 4243947173, "properties": {"addr:city": "West Jakarta", "addr:postcode": "12180", "addr:street": "Jl. Raya Kebayoran Lama No. 64", "amenity": "hospital", "name": "Rumah Sakit Medika Permata Hijau"}, "type": "Feature"}, {"geometry": {"coordinates": [106.7610748, -6.1873253], "type": "Point"}, "id": 4243961867, "properties": {"addr:city": "West Jakarta", "addr:housenumber": "No.2, RT.7/RW.3", "addr:postcode": "11520", "addr:street": "Jl. Raya Kedoya", "amenity": "hospital", "name": "Rumah Sakit Puri Mandiri Kedoya"}, "type": "Feature"}, {"geometry": {"coordinates": [106.876024, -6.173752], "type": "Point"}, "id": 4243970276, "properties": {"addr:city": "Central Jakarta", "addr:housenumber": "No.2", "addr:postcode": "13210", "addr:street": "Jalan Ahmad Yani", "amenity": "hospital", "name": "Klinik Kantor Pusat Pertamina"}, "type": "Feature"}, {"geometry": {"coordinates": [106.8290384, -6.1898215], "type": "Point"}, "id": 4243991854, "properties": {"addr:city": "Central Jakarta", "addr:housenumber": "No. 31-33", "addr:postcode": "10350", "addr:street": "Jalan HOS. Cokroaminoto", "amenity": "hospital", "name": "Rumah Sakit Abdi Waluyo"}, "type": "Feature"}, {"geometry": {"coordinates": [106.8151689, -6.1712717], "type": "Point"}, "id": 4243993609, "properties": {"addr:city": "Central Jakarta", "addr:housenumber": "No. 09,", "addr:postcode": "10160", "addr:street": "Jl. Kesehatan,", "amenity": "hospital", "name": "Rumah Sakit THT. Bedah Prof. Nizar"}, "type": "Feature"}, {"geometry": {"coordinates": [106.7665024, -6.2071716], "type": "Point"}, "id": 4244002690, "properties": {"addr:city": "West Jakarta", "addr:housenumber": "2", "addr:postcode": "11550", "addr:street": "Jalan Raya Kebon Jeruk, Klp. Dua, Kb. Jeruk", "amenity": "hospital", "name": "Puskesmas Kebon Jeruk"}, "type": "Feature"}, {"geometry": {"coordinates": [106.8442391, -6.1853827], "type": "Point"}, "id": 4244006528, "properties": {"addr:city": "Central Jakarta", "addr:housenumber": "No.128, RT.1/RW.8", "addr:postcode": "10410", "addr:street": "Jl. Kramat Raya", "amenity": "hospital", "name": "Rumah Sakit Kramat 128"}, "type": "Feature"}, {"geometry": {"coordinates": [106.8383824, -6.1871091], "type": "Point"}, "id": 4244008555, "properties": {"addr:city": "Central Jakarta", "addr:housenumber": "RT.14/RW.10", "addr:postcode": "10330", "addr:street": "Jl. Kali Pasir", "amenity": "hospital", "name": "Rumah Sakit Menteng Mitra Afia"}, "type": "Feature"}, {"geometry": {"coordinates": [106.8451356, -6.2189213], "type": "Point"}, "id": 4244018642, "properties": {"addr:city": "South Jakarta", "addr:postcode": "12860", "addr:street": "Jl. Dr. Sahardjo No.120", "amenity": "hospital", "name": "RS Budhi Jaya"}, "type": "Feature"}, {"geometry": {"coordinates": [106.8010362, -6.2477668], "type": "Point"}, "id": 4244030331, "properties": {"addr:city": "South Jakarta", "addr:postcode": "12240", "addr:street": "Jl. Panglima Polim 1 No. 34", "amenity": "hospital", "name": "Rumah Sakit Ibu dan Anak ASIH"}, "type": "Feature"}, {"geometry": {"coordinates": [106.7776236, -6.2552414], "type": "Point"}, "id": 4244053954, "properties": {"addr:city": "South Jakarta", "addr:housenumber": "No.5, RT.13/RW.1", "addr:postcode": "12240", "addr:street": "Jl. Ciputat Raya", "amenity": "hospital", "name": "Rumah Sakit Yadika Kebayoran Lama"}, "type": "Feature"}, {"geometry": {"coordinates": [106.8111591, -6.2367278], "type": "Point"}, "id": 4244062098, "properties": {"addr:city": "South Jakarta", "addr:postcode": "12240", "addr:street": "Jalan Ciranjang No. 20-22", "amenity": "hospital", "name": "RS THT Bedah Ciranjang"}, "type": "Feature"}, {"geometry": {"coordinates": [106.9038299, -6.1796668], "type": "Point"}, "id": 4244074809, "properties": {"addr:city": "East Jakarta", "addr:housenumber": "No.149", "addr:postcode": "13250", "addr:street": "Jl. Perintis Kemerdekaan", "amenity": "hospital", "name": "RS Mediros"}, "type": "Feature"}, {"geometry": {"coordinates": [106.9059511, -6.1950377], "type": "Point"}, "id": 4244088008, "properties": {"addr:city": "East Jakarta", "addr:postcode": "13910", "addr:street": "Jl. Bekasi Timur Km 18 No. 6,", "amenity": "hospital", "name": "RS Harapan Jayakarta"}, "type": "Feature"}, {"geometry": {"coordinates": [106.8849862, -6.1758246], "type": "Point"}, "id": 4244090214, "properties": {"addr:city": "East Jakarta", "addr:housenumber": "No.2, RT.4/RW.14", "addr:postcode": "13210", "addr:street": "Jl. Pulo Mas Timur K", "amenity": "hospital", "name": "Rumah Sakit Kartika Pulomas"}, "type": "Feature"}, {"geometry": {"coordinates": [106.8861843, -6.1959647], "type": "Point"}, "id": 4244092221, "properties": {"addr:city": "East Jakarta", "addr:postcode": "13220", "addr:street": "Jl. Balai Pustaka Baru I", "amenity": "hospital", "name": "Ambulance Rs.Dharma Nugraha"}, "type": "Feature"}, {"geometry": {"coordinates": [106.8710653, -6.3079556], "type": "Point"}, "id": 4244101184, "properties": {"addr:city": "South Jakarta", "addr:postcode": "13830", "addr:street": "Jl. T.B. Simatupang No.71", "amenity": "hospital", "name": "RS BINA WALUYA"}, "type": "Feature"}, {"geometry": {"coordinates": [106.8821783, -6.1123667], "type": "Point"}, "id": 4244119028, "properties": {"addr:city": "North Jakarta", "addr:postcode": "14350", "addr:street": "Jl. Tawes No.18-20, RT.4/RW.8", "amenity": "hospital", "name": "RS. Sukmul"}, "type": "Feature"}, {"geometry": {"coordinates": [106.8893765, -6.1102248], "type": "Point"}, "id": 4244119641, "properties": {"addr:city": "North Jakarta", "addr:postcode": "14310", "addr:street": "Jalan Enggano No.10", "amenity": "hospital", "name": "RS. Port Medical Center-Poli Bedah Umum"}, "type": "Feature"}, {"geometry": {"coordinates": [106.7904436, -6.1334584], "type": "Point"}, "id": 4244121043, "properties": {"addr:city": "North Jakarta", "addr:postcode": "14440", "addr:street": "Jl. Raya Mas Pluit 1 Blok A. 2A-5A", "amenity": "hospital", "name": "Rumah Sakit Ibu dan Anak Family"}, "type": "Feature"}, {"geometry": {"coordinates": [106.8007721, -6.1999019], "type": "Point"}, "id": 4244136741, "properties": {"addr:city": "West Jakarta", "addr:housenumber": "79", "addr:postcode": "11410", "addr:street": "Jl. Aipda K.S. Tubun, Slipi", "amenity": "hospital", "name": "Rumah Sakit Bhakti Mulia"}, "type": "Feature"}, {"geometry": {"coordinates": [106.9100111, -6.2318807], "type": "Point"}, "id": 4244149563, "properties": {"addr:city": "East Jakarta", "addr:housenumber": "2", "addr:postcode": "13430", "addr:street": "Jl. Duren Sawit Baru, Pd. Bambu, Duren Sawit", "amenity": "hospital", "name": "Poli Psikiatri & NAPZA Rumah Sakit Duren Sawit"}, "type": "Feature"}, {"geometry": {"coordinates": [106.9212562, -6.1401106], "type": "Point"}, "id": 4244169524, "properties": {"addr:city": "North Jakarta", "addr:housenumber": "5", "addr:postcode": "14140", "addr:street": "Jl. Tipar Cakung, Sukapura, Cilincing", "amenity": "hospital", "name": "RS Islam Jakarta Sukapura"}, "type": "Feature"}, {"geometry": {"coordinates": [106.7021926, -6.1495852], "type": "Point"}, "id": 4244181889, "properties": {"addr:city": "West Jakarta", "addr:housenumber": "1", "addr:postcode": "11840", "addr:street": "Jl. Peta Selatan, RT.7/RW.11, Kalideres", "amenity": "hospital", "name": "RS Mitra Keluarga Kalideres"}, "type": "Feature"}, {"geometry": {"coordinates": [106.7563193, -6.3079026], "type": "Point"}, "id": 4245411264, "properties": {"addr:city": "South Tangerang", "addr:housenumber": "95", "addr:postcode": "15412", "addr:street": "Jalan Ir.Haji Juanda, Ciputat", "amenity": "hospital", "name": "Rumah Sakit Syarif Hidayatullah"}, "type": "Feature"}, {"geometry": {"coordinates": [106.9232448, -6.1559377], "type": "Point"}, "id": 4245429920, "properties": {"addr:city": "North Jakarta", "addr:housenumber": "14", "addr:postcode": "14140", "addr:street": "Jalan Siak J 5, Sukapura, Cilincing", "amenity": "hospital", "name": "RS. Firdaus RSP Firdaus"}, "type": "Feature"}, {"geometry": {"coordinates": [106.7327262, -6.3129482], "type": "Point"}, "id": 4245442945, "properties": {"addr:city": "South Tangerang", "addr:housenumber": "399", "addr:postcode": "15414", "addr:street": "Jl. Aria Putra Gg. Sukma , Serua Indah, Ciputat", "amenity": "hospital", "name": "Rumah Sakit Ibu dan Anak Buah Hati Ciputat"}, "type": "Feature"}, {"geometry": {"coordinates": [106.7394695, -6.2993414], "type": "Point"}, "id": 4245445125, "properties": {"addr:city": "South Tangerang", "addr:housenumber": "10", "addr:postcode": "15413", "addr:street": "Jalan Ciputat Baru Raya", "amenity": "hospital", "name": "RSIA Cinta Kasih"}, "type": "Feature"}, {"geometry": {"coordinates": [106.84122, -6.2534164], "type": "Point"}, "id": 4245445192, "properties": {"addr:city": "South Jakarta", "addr:housenumber": "5", "addr:postcode": "12780", "addr:street": "Jalan Duren Tiga Raya, RT.1/RW.1, Pancoran", "amenity": "hospital", "name": "Rumah Sakit Bersalin Duren Tiga"}, "type": "Feature"}, {"geometry": {"coordinates": [106.893185, -6.3071991], "type": "Point"}, "id": 4245461418, "properties": {"addr:city": "East Jakarta", "addr:housenumber": "60", "addr:postcode": "13820", "addr:street": "Jl. Hankam Raya , Ceger, Cipayung, Ceger, Cipayung", "amenity": "hospital", "name": "RSU Adhyaksa"}, "type": "Feature"}, {"geometry": {"coordinates": [106.7057326, -6.2213618], "type": "Point"}, "id": 4245482508, "properties": {"addr:city": "Tangerang", "addr:housenumber": "10", "addr:postcode": "15157", "addr:street": "Jl. Raden Salen, Karang Tengah, Ciledug, Karang Tengah", "amenity": "hospital", "name": "RSU Bhakti Asih"}, "type": "Feature"}, {"geometry": {"coordinates": [106.7709189, -6.2866269], "type": "Point"}, "id": 4245512182, "properties": {"addr:city": "South Jakarta", "addr:housenumber": "40", "addr:postcode": "12310", "addr:street": "Jl. Melati Jl. Ciputat Raya, RT.1/RW.9, Pd. Pinang, Kby. Lama,", "amenity": "hospital", "name": "Rumah Sakit Bhayangkara Sespimma Polri"}, "type": "Feature"}, {"geometry": {"coordinates": [106.7931387, -6.1268477], "type": "Point"}, "id": 4245601864, "properties": {"addr:city": "North Jakarta", "addr:housenumber": "2", "addr:postcode": "14430", "addr:street": "Jl. Pluit Raya, RT.21/RW.8, Penjaringan", "amenity": "hospital", "name": "Rumah Sakit Atma Jaya"}, "type": "Feature"}, {"geometry": {"coordinates": [106.972004, -6.2686369], "type": "Point"}, "id": 4245795140, "properties": {"addr:city": "Bekasi", "addr:housenumber": "11", "addr:postcode": "17147", "addr:street": "Jl. Gardenia Raya Blok BA-1", "amenity": "hospital", "name": "Rumah Sakit Hermina Galaxy"}, "type": "Feature"}, {"geometry": {"coordinates": [106.7387315, -6.1233053], "type": "Point"}, "id": 4245805121, "properties": {"addr:city": "North Jakarta", "addr:postcode": "14470", "addr:street": "Jl. Pantai Indah Selatan I, RT.3/RW.3, Kamal Muara, Penjaringan,", "amenity": "hospital", "name": "Grand Family Rumah Sakit Ibu dan Anak"}, "type": "Feature"}, {"geometry": {"coordinates": [106.8469041, -6.2023381], "type": "Point"}, "id": 4245817818, "properties": {"addr:city": "Central Jakarta", "addr:housenumber": "43", "addr:postcode": "10320", "addr:street": "Jalan Proklamasi, Menteng", "amenity": "hospital", "name": "Rumah Sakit Khusus THT-Bedah KL Proklamasi"}, "type": "Feature"}, {"geometry": {"coordinates": [106.7113969, -6.2249767], "type": "Point"}, "id": 4245842268, "properties": {"addr:city": "Tangerang", "addr:postcode": "15157", "addr:street": "Jl. Hos Cokroaminoto, Karang Tim., Karang Tengah", "amenity": "hospital", "name": "Rumah Sakit Medika Lestari"}, "type": "Feature"}, {"geometry": {"coordinates": [106.8763375, -6.1732534], "type": "Point"}, "id": 4245867792, "properties": {"addr:city": "Central Jakarta", "addr:housenumber": "2", "addr:postcode": "10510", "addr:street": "Jalan Jenderal Ahmad Yani, Cempaka Putih", "amenity": "hospital", "name": "Rumah Sakit Pertamina Jaya (RSPJ)"}, "type": "Feature"}, {"geometry": {"coordinates": [106.6889891, -6.2218595], "type": "Point"}, "id": 4245869742, "properties": {"addr:city": "Banten", "addr:postcode": "15144", "addr:street": "Jl. Kh.hasyim Ashari No.18", "amenity": "hospital", "name": "RS Mulya"}, "type": "Feature"}, {"geometry": {"coordinates": [106.6931195, -6.3054479], "type": "Point"}, "id": 4245875117, "properties": {"addr:city": "Banten", "addr:postcode": "15520", "addr:street": "Jl. Batam", "amenity": "hospital", "name": "RSIA Putra Dalima"}, "type": "Feature"}, {"geometry": {"coordinates": [106.7453394, -6.2378469], "type": "Point"}, "id": 4245878900, "properties": {"addr:city": "Banten", "addr:postcode": "15000", "addr:street": "Jalan HOS. Cokro Aminoto No. 4", "amenity": "hospital", "name": "Rumah Sakit Aminah"}, "type": "Feature"}, {"geometry": {"coordinates": [106.7213032, -6.2301344], "type": "Point"}, "id": 4245882810, "properties": {"addr:city": "Banten", "addr:housenumber": "Gg. H. Mencong No. 3", "addr:postcode": "15151", "addr:street": "Jalan Cipto Mangunkusumo", "amenity": "hospital", "name": "RS Mutiara Bunda Ciledug"}, "type": "Feature"}, {"geometry": {"coordinates": [106.7053102, -6.2920269], "type": "Point"}, "id": 4245884768, "properties": {"addr:city": "Banten", "addr:postcode": "15412", "addr:street": "Jalan Raya Jombang No. 56", "amenity": "hospital", "name": "Rumah Sakit Ichsan Medical Centre Bintaro"}, "type": "Feature"}, {"geometry": {"coordinates": [106.6819356, -6.3009346], "type": "Point"}, "id": 4253851059, "properties": {"amenity": "hospital", "name": "Rumah Sakit Trijata"}, "type": "Feature"}, {"geometry": {"coordinates": [106.7476277, -6.2717562], "type": "Point"}, "id": 4383772380, "properties": {"addr:city": "Tangerang Selatan", "addr:housenumber": "Blok AC No.1", "addr:postcode": "12330", "addr:street": "Bintaro Utama 3", "amenity": "hospital", "name": "Aesthetic & Family Dentistry", "opening_hours": "10-19", "operator": "Dentistry"}, "type": "Feature"}, {"geometry": {"coordinates": [106.954709, -6.1366001], "type": "Point"}, "id": 4441778292, "properties": {"addr:street": "Rorotan 5", "amenity": "hospital", "name:en": "Gerau Sehat Rorotan"}, "type": "Feature"}, {"geometry": {"coordinates": [[106.8675506, -6.3030797], [106.8681229, -6.3033691], [106.8681882, -6.3032743], [106.8683037, -6.3032743], [106.8684593, -6.3029599], [106.8678568, -6.3026305], [106.8675506, -6.3030797]], "type": "LineString"}, "id": 119427746, "properties": {"access:roof": "yes", "addr:full": "Jl. Raya Bogor Rt 008/02", "amenity": "hospital", "building": "yes", "building:levels": "4", "building:roof": "concrete", "building:structure": "reinforced_masonry", "building:use": "medical", "building:walls": "brick", "name": "Rumah Sakit Harapan Bunda", "operator:type": "private"}, "type": "Feature"}, {"geometry": {"coordinates": [[106.8634369, -6.2560763], [106.8634331, -6.2563109], [106.8627334, -6.2563029], [106.8627282, -6.2557673], [106.8628221, -6.255762], [106.8628194, -6.2556633], [106.8629347, -6.255666], [106.8629408, -6.2554379], [106.8634748, -6.2554329], [106.8634369, -6.2560763]], "type": "LineString"}, "id": 119452235, "properties": {"access:roof": "yes", "amenity": "hospital", "building": "yes", "building:levels": "12", "building:roof": "concrete", "building:structure": "reinforced_masonry", "building:use": "medical", "building:walls": "brick", "capacity": "294", "evacuation_center": "no", "flood_prone": "no", "name": "Rumah Sakit Budhi Asih", "operator:type": "government", "rooms": "58"}, "type": "Feature"}, {"geometry": {"coordinates": [[106.8815896, -6.112003], [106.8819604, -6.1117147], [106.8823775, -6.1122791], [106.8820365, -6.1125655], [106.8815896, -6.112003]], "type": "LineString"}, "id": 119503317, "properties": {"amenity": "hospital", "brand": "Sukmul", "building:levels": "2", "building:roof": "tin", "building:structure": "confined_masonry", "building:use": "medical", "building:walls": "brick", "emergency": "yes", "name": "Sukmul Hospital", "wheelchair": "yes"}, "type": "Feature"}, {"geometry": {"coordinates": [[106.8455146, -6.1980326], [106.8456631, -6.1981964], [106.8456403, -6.1982244], [106.8457248, -6.1982911], [106.8458013, -6.1982137], [106.8461545, -6.1985584], [106.8457198, -6.199021], [106.8455782, -6.1988635], [106.8458013, -6.1986484], [106.845624, -6.1984806], [106.8453949, -6.1982671], [106.8452008, -6.1984462], [106.8451227, -6.1983577], [106.8451951, -6.1982804], [106.8451776, -6.1982617], [106.8453037, -6.1981484], [106.845352, -6.1982111], [106.8455146, -6.1980326]], "type": "LineString"}, "id": 119783801, "properties": {"amenity": "hospital", "building": "yes", "building:roof": "concrete", "building:structure": "reinforced_masonry", "building:use": "commercial", "building:walls": "brick", "emergency": "yes", "name": "RSCM - Kencana (Hospital)"}, "type": "Feature"}, {"geometry": {"coordinates": [[106.9390767, -6.2197938], [106.9392001, -6.2197458], [106.9393234, -6.2200604], [106.9391893, -6.2201191], [106.9391464, -6.2200125], [106.9390981, -6.2200231], [106.9390713, -6.2199271], [106.9391142, -6.2199005], [106.9390767, -6.2197938]], "type": "LineString"}, "id": 119890013, "properties": {"amenity": "hospital", "building": "yes", "name": "Gedung Alfalah RSI Pondok Kopi"}, "type": "Feature"}, {"geometry": {"coordinates": [[106.9393825, -6.2201298], [106.9395434, -6.2200391], [106.9395756, -6.2200871], [106.9397794, -6.2199858], [106.9397526, -6.2199378], [106.9399028, -6.2198685], [106.9401013, -6.2202151], [106.9399296, -6.2203218], [106.9398009, -6.2200818], [106.9396399, -6.2201618], [106.9398223, -6.2204657], [106.9396453, -6.2205724], [106.9393825, -6.2201298]], "type": "LineString"}, "id": 119890193, "properties": {"amenity": "hospital", "building": "yes", "emergency": "yes", "name": "RSI Pondok Kopi"}, "type": "Feature"}, {"geometry": {"coordinates": [[106.8588134, -6.3080717], [106.8588175, -6.3082038], [106.8591164, -6.3081946], [106.8590895, -6.3073305], [106.858878, -6.307337], [106.8588637, -6.3068776], [106.8587724, -6.3068804], [106.8587763, -6.3070064], [106.8586615, -6.3070099], [106.8586773, -6.3075173], [106.8588157, -6.3075131], [106.8588215, -6.3076984], [106.8589645, -6.307694], [106.8589761, -6.3080667], [106.8588134, -6.3080717]], "type": "LineString"}, "id": 119913162, "properties": {"amenity": "hospital", "building": "yes", "building:levels": "1", "building:roof": "tile", "building:structure": "plastered", "building:use": "medical", "building:walls": "brick", "name": "Rumah Sakit Cijantung"}, "type": "Feature"}, {"geometry": {"coordinates": [[106.8687376, -6.2763535], [106.8688279, -6.2762848], [106.8690883, -6.2766493], [106.8690139, -6.2767126], [106.8687376, -6.2763535]], "type": "LineString"}, "id": 120161341, "properties": {"amenity": "hospital", "building": "yes", "building:levels": "2", "building:roof": "tile", "building:structure": "plastered", "building:use": "medical", "building:walls": "brick", "name": "Rumah Sakit Pusdikes"}, "type": "Feature"}, {"geometry": {"coordinates": [[106.9102028, -6.2479968], [106.9099629, -6.247937], [106.9099326, -6.248057], [106.90931, -6.2479019], [106.9092692, -6.2480639], [106.9093626, -6.2480872], [106.9093312, -6.2482118], [106.9092484, -6.2481911], [106.909211, -6.2483393], [106.9095132, -6.2484146], [106.9095423, -6.248299], [106.9094666, -6.2482801], [106.9094951, -6.2481672], [106.9101205, -6.2483231], [106.9102028, -6.2479968]], "type": "LineString"}, "id": 120184483, "properties": {"access:roof": "yes", "addr:full": "Jl. Inspeksi Tarum Barat Rw 13", "amenity": "hospital", "building": "yes", "building:levels": "4-7", "building:roof": "concrete", "building:structure": "confined_masonry", "building:use": "medical", "building:walls": "brick", "capacity:persons": "1000", "evacuation_center": "no", "flood_prone": "no", "name": "Rumah Sakit Harum", "operator:type": "private", "rooms": "> 100"}, "type": "Feature"}, {"geometry": {"coordinates": [[106.8642998, -6.2614298], [106.86439, -6.261413], [106.8644013, -6.2615026], [106.864328, -6.2615307], [106.8642998, -6.2614298]], "type": "LineString"}, "id": 120383353, "properties": {"amenity": "hospital", "building": "yes", "building:levels": "1", "building:roof": "tile", "building:structure": "plastered", "building:use": "medical", "building:walls": "brick", "name": "Klinik Bulan Sabit Merah Indonesia"}, "type": "Feature"}, {"geometry": {"coordinates": [[106.8499988, -6.2423337], [106.850343, -6.2423152], [106.8503695, -6.2428024], [106.8503286, -6.2428046], [106.8503292, -6.2428184], [106.8500241, -6.2428358], [106.8500233, -6.2427854], [106.8499988, -6.2423337]], "type": "LineString"}, "id": 120390221, "properties": {"amenity": "hospital", "building": "yes", "building:levels": "5;8", "building:roof": "concrete", "building:structure": "confined_masonry;reinforced_masonry", "building:use": "medical", "building:walls": "brick", "name": "Rumah Sakit Umum Tebet"}, "type": "Feature"}, {"geometry": {"coordinates": [[106.8639184, -6.2532459], [106.863988, -6.2530971], [106.8641963, -6.2531934], [106.8641268, -6.2533422], [106.8639184, -6.2532459]], "type": "LineString"}, "id": 120390229, "properties": {"amenity": "hospital", "building": "yes", "building:levels": "3", "building:roof": "tile", "building:structure": "reinforced_masonry", "building:use": "medical", "building:walls": "brick", "evacuation_center": "no", "flood_prone": "no", "name": "Rumah Sakit Umum Sejahtera"}, "type": "Feature"}, {"geometry": {"coordinates": [[106.8702878, -6.2318015], [106.8704112, -6.2318057], [106.8704197, -6.2320806], [106.8703006, -6.232089], [106.8702878, -6.2318015]], "type": "LineString"}, "id": 120494412, "properties": {"access:roof": "no", "addr:full": "Jalan Otista III RT 01/08", "amenity": "hospital", "building": "yes", "building:levels": "2", "building:roof": "tile", "building:structure": "reinforced_masonry", "building:use": "medical", "building:walls": "brick", "capacity:persons": "30", "name": "Klinik Juni Tjahyawati", "operator:type": "private", "rooms": "5"}, "type": "Feature"}, {"geometry": {"coordinates": [[106.8669435, -6.2306248], [106.8670098, -6.2306262], [106.8670087, -6.2306794], [106.8669424, -6.230678], [106.8669435, -6.2306248]], "type": "LineString"}, "id": 120495770, "properties": {"amenity": "hospital", "building": "yes", "building:levels": "2", "building:roof": "tile", "building:structure": "plastered", "building:use": "medical", "building:walls": "brick", "evacuation_center": "no", "flood_prone": "no", "name": "Rumah Sakit Bersalin Bidara Mulia"}, "type": "Feature"}, {"geometry": {"coordinates": [[106.8503662, -6.1953668], [106.85093, -6.1949623], [106.8516396, -6.1958871], [106.8511604, -6.1962861], [106.8503662, -6.1953668]], "type": "LineString"}, "id": 120509601, "properties": {"amenity": "hospital", "building": "yes", "building:levels": "6", "building:roof": "concrete", "building:structure": "confined_masonry", "building:use": "medical", "building:walls": "brick", "name": "Rumah Sakit St Carolus"}, "type": "Feature"}, {"geometry": {"coordinates": [[106.7976733, -6.1859946], [106.7983537, -6.1859552], [106.7983969, -6.186875], [106.7985697, -6.1868929], [106.7986237, -6.1875479], [106.7979505, -6.187598], [106.7979325, -6.1874548], [106.7974609, -6.1873976], [106.7974933, -6.1871542], [106.7977129, -6.1870575], [106.7976733, -6.1859946]], "type": "LineString"}, "id": 120912164, "properties": {"amenity": "hospital", "building": "yes", "building:roof": "tile", "building:structure": "reinforced_masonry", "building:use": "medical", "building:walls": "brick", "name": "RS Kanker Dharmais"}, "type": "Feature"}, {"geometry": {"coordinates": [[106.8685659, -6.2215115], [106.8687716, -6.221508], [106.8687716, -6.2216766], [106.8690805, -6.2216491], [106.8690805, -6.2217912], [106.8685687, -6.2218325], [106.8685668, -6.2216157], [106.8685659, -6.2215115]], "type": "LineString"}, "id": 120982154, "properties": {"amenity": "hospital", "building": "yes", "building:levels": "8", "building:roof": "concrete", "building:structure": "confined_masonry", "building:use": "medical", "building:walls": "brick", "name": "Rumah Sakit Mitra International"}, "type": "Feature"}, {"geometry": {"coordinates": [[106.8283185, -6.2141328], [106.8287177, -6.2141075], [106.8287361, -6.2143959], [106.8283369, -6.2144211], [106.8283185, -6.2141328]], "type": "LineString"}, "id": 121129241, "properties": {"amenity": "hospital", "building": "yes", "building:levels": "4", "building:roof": "concrete", "building:structure": "confined_masonry", "building:use": "medical", "building:walls": "brick", "emergency": "yes", "name": "Rumah Sakit Mata Aini"}, "type": "Feature"}, {"geometry": {"coordinates": [[106.8320658, -6.219939], [106.8326731, -6.2196769], [106.8327668, -6.2198914], [106.8321595, -6.2201535], [106.8320658, -6.219939]], "type": "LineString"}, "id": 121129268, "properties": {"amenity": "hospital", "building": "yes", "building:levels": "4", "building:roof": "concrete", "building:structure": "confined_masonry", "building:use": "medical", "building:walls": "brick", "emergency": "yes", "name": "RS MMC"}, "type": "Feature"}, {"geometry": {"coordinates": [[106.7964056, -6.2931729], [106.7968016, -6.2931851], [106.7967836, -6.2937595], [106.796314, -6.293745], [106.796332, -6.2931706], [106.7964056, -6.2931729]], "type": "LineString"}, "id": 121370625, "properties": {"amenity": "hospital", "building": "yes", "building:levels": "4", "building:roof": "tile", "building:structure": "reinforced_masonry", "building:use": "medical", "building:walls": "brick", "name": "RS Fatmawati"}, "type": "Feature"}, {"geometry": {"coordinates": [[106.7815334, -6.28363], [106.7814516, -6.2836314], [106.781449, -6.2834181], [106.7813792, -6.2834194], [106.7813779, -6.2832101], [106.7817292, -6.2832115], [106.7817266, -6.2830688], [106.7818955, -6.2830675], [106.7819072, -6.2837798], [106.7819063, -6.2839073], [106.7818305, -6.283906], [106.7818318, -6.2839846], [106.7817373, -6.2839846], [106.781742, -6.2841773], [106.7816629, -6.2841773], [106.7816649, -6.2842466], [106.781535, -6.2842473], [106.7815348, -6.2840393], [106.7814007, -6.2840418], [106.7813993, -6.2838593], [106.7815401, -6.283858], [106.7815334, -6.28363]], "type": "LineString"}, "id": 121370629, "properties": {"amenity": "hospital", "building": "yes", "building:levels": "6", "building:roof": "concrete", "building:structure": "confined_masonry", "building:use": "medical", "building:walls": "brick", "name": "Rumah Sakit Pondok Indah"}, "type": "Feature"}, {"geometry": {"coordinates": [[106.8451737, -6.1891229], [106.8453007, -6.1890744], [106.8454994, -6.1894111], [106.8453724, -6.1894694], [106.8451737, -6.1891229]], "type": "LineString"}, "id": 121523126, "properties": {"amenity": "hospital", "building": "yes", "building:levels": "4", "building:roof": "concrete", "building:structure": "confined_masonry", "building:use": "medical", "building:walls": "brick", "name": "Raden Saleh Medical Center"}, "type": "Feature"}, {"geometry": {"coordinates": [[106.8376786, -6.1596331], [106.8379605, -6.1595435], [106.8379881, -6.1596493], [106.8379229, -6.1596655], [106.8379718, -6.1597951], [106.8377682, -6.1598639], [106.8376786, -6.1596331]], "type": "LineString"}, "id": 121551464, "properties": {"amenity": "hospital", "building": "yes", "building:levels": "2", "building:roof": "asbestos", "building:structure": "reinforced_masonry", "building:use": "medical", "building:walls": "brick", "name": "Gunung Sahari Laboratorium Klinik"}, "type": "Feature"}, {"geometry": {"coordinates": [[106.7975941, -6.1682196], [106.7979509, -6.1682989], [106.7978805, -6.168453], [106.7978053, -6.1684483], [106.7976222, -6.1690551], [106.7974016, -6.1689758], [106.7976175, -6.1684249], [106.7975377, -6.1683969], [106.7975941, -6.1682196]], "type": "LineString"}, "id": 121716531, "properties": {"amenity": "hospital", "building": "yes", "building:levels": "6", "building:roof": "concrete", "building:structure": "confined_masonry", "building:use": "medical", "building:walls": "brick", "name": "Rumah Sakit Umum Sumber Waras"}, "type": "Feature"}, {"geometry": {"coordinates": [[106.9145887, -6.2215348], [106.9147498, -6.2213275], [106.9150133, -6.22153], [106.9148522, -6.2217372], [106.9145887, -6.2215348]], "type": "LineString"}, "id": 121802687, "properties": {"access:roof": "yes", "addr:full": "JL. DUREN SAWIT RAYA BLOK K3 NO. 1", "amenity": "hospital", "building": "yes", "building:levels": "2", "building:roof": "tile", "building:structure": "plastered", "building:walls": "brick", "capacity:persons": "25", "name": "RS. ASTA NUGRAHA", "operator:type": "private", "rooms": "15"}, "type": "Feature"}, {"geometry": {"coordinates": [[106.8580724, -6.1518575], [106.8587076, -6.1517608], [106.8587943, -6.1523065], [106.8584994, -6.1523413], [106.8583468, -6.1523609], [106.8580967, -6.1521204], [106.8580724, -6.1518575]], "type": "LineString"}, "id": 121828006, "properties": {"amenity": "hospital", "building": "yes", "building:levels": "6", "building:roof": "concrete", "building:structure": "confined_masonry", "building:use": "medical", "building:walls": "brick", "emergency": "yes", "evacuation_center": "no", "flood_prone": "no", "name": "Rumah Sakit Mitra Kemayoran"}, "type": "Feature"}, {"geometry": {"coordinates": [[106.8653622, -6.1396942], [106.8654344, -6.1400682], [106.8657307, -6.1399586], [106.8656319, -6.1395998], [106.8653622, -6.1396942]], "type": "LineString"}, "id": 121828013, "properties": {"amenity": "hospital", "building": "yes", "building:levels": "10+", "building:roof": "concrete", "building:structure": "confined_masonry", "building:use": "medical", "building:walls": "brick", "name": "Rumah Sakit Medika Griya"}, "type": "Feature"}, {"geometry": {"coordinates": [[106.8969288, -6.1512376], [106.8965186, -6.152003], [106.8973712, -6.1524559], [106.8978387, -6.1517156], [106.8969288, -6.1512376]], "type": "LineString"}, "id": 121919441, "properties": {"access:roof": "yes", "addr:city": "Jakarta", "addr:full": "Jl. Bukit Gading Raya", "amenity": "hospital", "building": "yes", "building:levels": "6", "building:roof": "concrete", "building:structure": "confined_masonry", "building:use": "medical", "building:walls": "brick", "capacity:persons": "5000", "emergency": "yes", "name": "Rumah Sakit Mitra Keluarga Kelapa Gading", "operator:type": "private", "rooms": "70"}, "type": "Feature"}, {"geometry": {"coordinates": [[106.8192538, -6.2092944], [106.8197188, -6.2094139], [106.819684, -6.2095063], [106.8192422, -6.2094177], [106.8192538, -6.2092944]], "type": "LineString"}, "id": 122152269, "properties": {"access:roof": "yes", "addr:full": "jalan jenderal sudirman kav.86", "amenity": "hospital", "building": "yes", "building:levels": "10+", "building:roof": "concrete", "building:structure": "confined_masonry", "building:use": "commercial", "building:walls": "brick", "capacity:persons": "50", "name": "sahid sahirman memorial hospital", "operator:type": "private", "rooms": "50"}, "type": "Feature"}, {"geometry": {"coordinates": [[106.8160074, -6.2184201], [106.816399, -6.2184574], [106.8164098, -6.2183988], [106.8164795, -6.2183614], [106.8165385, -6.2183561], [106.8166244, -6.2183828], [106.8166565, -6.2184521], [106.8166726, -6.2185054], [106.8166619, -6.2185481], [106.8166244, -6.2185961], [106.8165621, -6.2186281], [106.8165439, -6.2187667], [106.8163315, -6.2189481], [106.8159774, -6.2185694], [106.8159345, -6.2185588], [106.8159399, -6.2184201], [106.8160074, -6.2184201]], "type": "LineString"}, "id": 124163125, "properties": {"amenity": "hospital", "building": "yes", "emergency": "yes", "name": "RS Jakarta"}, "type": "Feature"}, {"geometry": {"coordinates": [[106.8615949, -6.303328], [106.8617072, -6.3030888], [106.8618676, -6.3031632], [106.8618409, -6.3032323], [106.8622206, -6.3034184], [106.8622122, -6.3034388], [106.8622485, -6.303454], [106.8622634, -6.3037317], [106.8623018, -6.3037506], [106.86262, -6.3038931], [106.8625146, -6.3041526], [106.8624908, -6.3041463], [106.8624827, -6.3041627], [106.8624135, -6.3041258], [106.862364, -6.3041127], [106.8623087, -6.3041476], [106.8621983, -6.3040878], [106.8622232, -6.3040284], [106.8620816, -6.3039607], [106.8620864, -6.3039487], [106.8620426, -6.3036536], [106.8615757, -6.3033941], [106.8616165, -6.303339], [106.8615949, -6.303328]], "type": "LineString"}, "id": 153303478, "properties": {"access:roof": "yes", "amenity": "hospital", "building": "yes", "building:levels": "6", "building:roof": "concrete", "building:structure": "reinforced_masonry", "building:use": "medical", "building:walls": "brick", "name": "Pasar Rebo;Rumah Sakit Pasar Rebo", "operator:type": "government"}, "type": "Feature"}, {"geometry": {"coordinates": [[106.8864486, -6.1957813], [106.8864463, -6.1957387], [106.8863854, -6.1957364], [106.8863876, -6.1957813], [106.8863244, -6.195788], [106.8863041, -6.195824], [106.8862883, -6.1958576], [106.8862928, -6.1958913], [106.8862883, -6.1959227], [106.8862951, -6.1959542], [106.8862928, -6.1959766], [106.8862928, -6.1960125], [106.8862883, -6.1962527], [106.8863605, -6.1962572], [106.8864554, -6.1962729], [106.886487, -6.1962415], [106.8865231, -6.1962415], [106.8865254, -6.196044], [106.8865322, -6.1958936], [106.8865344, -6.1957903], [106.8864486, -6.1957813]], "type": "LineString"}, "id": 153318582, "properties": {"amenity": "hospital", "name": "Rumah Sakit Dharma Nugraha", "operator:type": "private"}, "type": "Feature"}, {"geometry": {"coordinates": [[106.8842109, -6.2060905], [106.8857072, -6.2070822], [106.8857379, -6.2060871], [106.8857957, -6.2041675], [106.8858623, -6.2021438], [106.8849549, -6.202227], [106.884562, -6.2022753], [106.8841249, -6.202364], [106.8837254, -6.202409], [106.8833078, -6.2024134], [106.8829182, -6.2023843], [106.8827307, -6.2023725], [106.8827466, -6.2026282], [106.8827521, -6.2027037], [106.8827691, -6.2028224], [106.882855, -6.202966], [106.8829065, -6.2031531], [106.8829429, -6.2032162], [106.8829632, -6.2035657], [106.8829375, -6.203822], [106.882875, -6.2039411], [106.882805, -6.2041048], [106.8828558, -6.2042059], [106.8842109, -6.2060905]], "type": "LineString"}, "id": 153318583, "properties": {"amenity": "hospital", "emergency": "yes", "name": "Rumah Sakit Persahabatan", "operator:type": "government"}, "type": "Feature"}, {"geometry": {"coordinates": [[106.7353739, -6.1866412], [106.7356364, -6.1866344], [106.7356986, -6.1865691], [106.7356951, -6.1859407], [106.7356951, -6.1858137], [106.7356467, -6.1857519], [106.7353566, -6.1857278], [106.735253, -6.1856935], [106.7351736, -6.185666], [106.735063, -6.1858206], [106.7350078, -6.1860644], [106.7350147, -6.1864318], [106.7350389, -6.186576], [106.7350699, -6.186655], [106.7353739, -6.1866412]], "type": "LineString"}, "id": 153751731, "properties": {"access:roof": "yes", "amenity": "hospital", "building:levels": ">7", "building:roof": "concrete", "building:structure": "reinforced_masonry", "building:walls": "brick", "name": "RS Puri Indah", "operator:type": "private"}, "type": "Feature"}, {"geometry": {"coordinates": [[106.7923085, -6.1258901], [106.7923162, -6.1260647], [106.7926994, -6.126048], [106.7927199, -6.1265118], [106.7925493, -6.1265193], [106.792559, -6.1267405], [106.793256, -6.1267101], [106.793531, -6.1266981], [106.79352, -6.1264476], [106.7936974, -6.1264399], [106.7936754, -6.125941], [106.7937786, -6.1259365], [106.7938465, -6.1259335], [106.7938347, -6.1256675], [106.7935557, -6.1256736], [106.7933631, -6.1258012], [106.793366, -6.1259434], [106.7929811, -6.1259602], [106.7929768, -6.1258611], [106.7928265, -6.1258677], [106.7928286, -6.1259166], [106.7926761, -6.1259233], [106.7926739, -6.1258742], [106.7923085, -6.1258901]], "type": "LineString"}, "id": 154421165, "properties": {"amenity": "hospital", "building": "yes", "evacuation_center": "no", "flood_prone": "yes", "name": "RS Atmajaya"}, "type": "Feature"}, {"geometry": {"coordinates": [[106.9205065, -6.139294], [106.9204387, -6.1400919], [106.921112, -6.1401508], [106.9212052, -6.1391677], [106.9205192, -6.1390835], [106.9205065, -6.139294]], "type": "LineString"}, "id": 154825614, "properties": {"access:roof": "no", "addr:full": "Jalan Tipar Cakung RT.5 RW.5", "amenity": "hospital", "building": "yes", "building:levels": "1", "building:roof": "tile", "building:structure": "reinforced_masonry", "building:walls": "brick", "capacity:persons": "500", "evacuation_center": "no", "flood_prone": "yes", "name": "Rumah Sakit Islam Sukapura", "operator:type": "private"}, "type": "Feature"}, {"geometry": {"coordinates": [[106.889174, -6.1102745], [106.8896252, -6.1102842], [106.8896155, -6.1105553], [106.8891675, -6.1105521], [106.889174, -6.1102745]], "type": "LineString"}, "id": 154828483, "properties": {"access:roof": "no", "amenity": "hospital", "building:levels": "3", "building:structure": "reinforced_masonry", "building:walls": "brick", "name": "Port Medical Center (PMC)", "operator:type": "private"}, "type": "Feature"}, {"geometry": {"coordinates": [[106.9586675, -6.1248818], [106.9586787, -6.1247111], [106.9585533, -6.124703], [106.9585421, -6.1248737], [106.9586675, -6.1248818]], "type": "LineString"}, "id": 154828683, "properties": {"amenity": "hospital", "name": "PUSKESMAS KELURAHAN MARUNDA"}, "type": "Feature"}, {"geometry": {"coordinates": [[106.8652603, -6.138976], [106.8654344, -6.1400682], [106.8657307, -6.1399586], [106.8655052, -6.1388739], [106.8652603, -6.138976]], "type": "LineString"}, "id": 154830070, "properties": {"amenity": "hospital", "name": "RS ROYAL PROGRESS"}, "type": "Feature"}, {"geometry": {"coordinates": [[106.8613779, -6.1386974], [106.8614673, -6.1390806], [106.8617857, -6.1390196], [106.8616684, -6.1386363], [106.8613779, -6.1386974]], "type": "LineString"}, "id": 154830071, "properties": {"amenity": "hospital", "name": "RS SETYA NEGARA"}, "type": "Feature"}, {"geometry": {"coordinates": [[106.7807692, -6.1379343], [106.7807904, -6.1381175], [106.7811468, -6.1380813], [106.7811223, -6.1378942], [106.7807692, -6.1379343]], "type": "LineString"}, "id": 154830127, "properties": {"amenity": "hospital", "name": "Puskesmas Kecamatan Penjaringan"}, "type": "Feature"}, {"geometry": {"coordinates": [[106.7902659, -6.1335827], [106.7900919, -6.1335991], [106.7901042, -6.1337579], [106.7905025, -6.1337299], [106.7904324, -6.1330706], [106.7902342, -6.1330461], [106.7902659, -6.1335827]], "type": "LineString"}, "id": 154830128, "properties": {"access:roof": "-", "addr:full": "-", "amenity": "hospital", "building": "yes", "building:levels": "-", "building:roof": "-", "building:structure": "-", "building:walls": "-", "capacity:persons": "-", "evacuation_center": "no", "flood_prone": "no", "name": "RS Familly", "operator:type": "private", "rooms": "-"}, "type": "Feature"}, {"geometry": {"coordinates": [[106.9008575, -6.1193076], [106.9008575, -6.1195429], [106.9009351, -6.1195429], [106.9009429, -6.1194311], [106.9010049, -6.1194349], [106.901001, -6.1194819], [106.9011018, -6.1194792], [106.9011214, -6.1193076], [106.9008575, -6.1193076]], "type": "LineString"}, "id": 154830304, "properties": {"amenity": "hospital", "name": "Puskesmas Kincir"}, "type": "Feature"}, {"geometry": {"coordinates": [[106.8978196, -6.117591], [106.8979572, -6.1175926], [106.8979572, -6.1174229], [106.897839, -6.1173997], [106.8978196, -6.117591]], "type": "LineString"}, "id": 154830305, "properties": {"amenity": "hospital", "name": "Puskesmas Rawabinangun"}, "type": "Feature"}, {"geometry": {"coordinates": [[106.7997164, -6.1259769], [106.7992522, -6.1259769], [106.7992561, -6.1255317], [106.7997099, -6.1255336], [106.7997164, -6.1259769]], "type": "LineString"}, "id": 154830418, "properties": {"amenity": "hospital", "building": "yes", "building:levels": "4-7", "building:roof": "tile", "building:structure": "reinforced_masonry", "building:walls": "brick", "evacuation_center": "no", "flood_prone": "no", "name": "Rumah Sakit Pluit", "operator:type": "Rumah Sakit"}, "type": "Feature"}, {"geometry": {"coordinates": [[106.753188, -6.1117506], [106.7528272, -6.1118008], [106.7528172, -6.1117298], [106.7526657, -6.1117508], [106.7526756, -6.1118212], [106.7523071, -6.1118725], [106.7523356, -6.1120751], [106.7532164, -6.1119525], [106.753188, -6.1117506]], "type": "LineString"}, "id": 154830545, "properties": {"access:roof": "yes", "addr:full": "Jl. Pantai Indah Timur", "amenity": "hospital", "building": "yes", "building:levels": "4-7", "building:roof": "tile", "building:structure": "reinforced_masonry", "building:walls": "brick", "capacity:persons": "1500", "evacuation_center": "no", "flood_prone": "no", "name": "RS PIK", "operator:type": "private", "rooms": "200"}, "type": "Feature"}, {"geometry": {"coordinates": [[106.8611598, -6.1455577], [106.8612707, -6.1457517], [106.8615556, -6.1456462], [106.8614643, -6.145407], [106.8611598, -6.1455577]], "type": "LineString"}, "id": 154830843, "properties": {"amenity": "hospital", "name": "RS HERMINA"}, "type": "Feature"}, {"geometry": {"coordinates": [[106.8667779, -6.1569958], [106.8668821, -6.1570323], [106.8667861, -6.1572049], [106.866731, -6.1571846], [106.8667146, -6.1572049], [106.8666799, -6.1571866], [106.8667779, -6.1569958]], "type": "LineString"}, "id": 154831142, "properties": {"amenity": "hospital", "building:levels": "1", "building:roof": "tile", "building:structure": "reinforced_masonry", "building:walls": "brick", "name": "Medical Center", "operator:type": "private"}, "type": "Feature"}, {"geometry": {"coordinates": [[106.8742627, -6.119963], [106.8743547, -6.1199251], [106.874404, -6.1200671], [106.8742913, -6.1201066], [106.8742579, -6.1200261], [106.8742786, -6.1200135], [106.8742627, -6.119963]], "type": "LineString"}, "id": 154831869, "properties": {"amenity": "hospital", "name": "Klinik Velda"}, "type": "Feature"}, {"geometry": {"coordinates": [[106.8752848, -6.1203983], [106.8754557, -6.1203428], [106.8755186, -6.1205258], [106.8753471, -6.1205738], [106.8752848, -6.1203983]], "type": "LineString"}, "id": 154831887, "properties": {"amenity": "hospital", "name": "Puskesmas Warakas"}, "type": "Feature"}, {"geometry": {"coordinates": [[106.8569364, -6.1322894], [106.8570312, -6.1324759], [106.8571241, -6.132421], [106.8570372, -6.1322285], [106.8569364, -6.1322894]], "type": "LineString"}, "id": 154831928, "properties": {"amenity": "hospital", "name": "PUSKESMAS SUNTER AGUNG 1"}, "type": "Feature"}, {"geometry": {"coordinates": [[106.8625804, -6.1423016], [106.8626307, -6.1424904], [106.8627955, -6.1424627], [106.862734, -6.1422822], [106.8625804, -6.1423016]], "type": "LineString"}, "id": 154831929, "properties": {"amenity": "hospital", "name": "PUSKESMAS SUNTER AGUNG 2"}, "type": "Feature"}, {"geometry": {"coordinates": [[106.8699183, -6.1363923], [106.869938, -6.1365769], [106.8700466, -6.1365533], [106.870015, -6.136355], [106.8699183, -6.1363923]], "type": "LineString"}, "id": 154831930, "properties": {"amenity": "hospital", "name": "PUSKESMAS SUNTER AGUNG 3"}, "type": "Feature"}, {"geometry": {"coordinates": [[106.9063696, -6.1770296], [106.9065318, -6.1770269], [106.9065345, -6.1771882], [106.9064361, -6.1772146], [106.9063803, -6.1772173], [106.9063696, -6.1770296]], "type": "LineString"}, "id": 154834893, "properties": {"amenity": "hospital", "name": "puskesmas kelapa gading timur 1"}, "type": "Feature"}, {"geometry": {"coordinates": [[106.9079819, -6.1647955], [106.908044, -6.1646758], [106.9081587, -6.1647357], [106.9080872, -6.1648647], [106.9079819, -6.1647955]], "type": "LineString"}, "id": 154834894, "properties": {"amenity": "hospital", "name": "puskesmas kelurahan"}, "type": "Feature"}, {"geometry": {"coordinates": [[106.9060844, -6.1783973], [106.9061125, -6.1783217], [106.9062117, -6.1783645], [106.9061836, -6.1784433], [106.9060844, -6.1783973]], "type": "LineString"}, "id": 154834895, "properties": {"amenity": "hospital", "name": "puskesmas kelurahan"}, "type": "Feature"}, {"geometry": {"coordinates": [[106.9159481, -6.1659273], [106.9159242, -6.1659774], [106.9158604, -6.165959], [106.9157701, -6.1662099], [106.9158163, -6.1662744], [106.9157993, -6.1663155], [106.9161978, -6.1664819], [106.9162642, -6.166334], [106.9163093, -6.1663498], [106.9163572, -6.1662231], [106.9162987, -6.1661914], [106.9163147, -6.1660989], [106.9162429, -6.1660699], [106.9162456, -6.1660382], [106.9159481, -6.1659273]], "type": "LineString"}, "id": 154835529, "properties": {"amenity": "hospital", "building": "yes", "building:roof": "concrete", "evacuation_center": "no", "flood_prone": "yes", "name": "RS Gading Pluit"}, "type": "Feature"}, {"geometry": {"coordinates": [[106.9164751, -6.1132644], [106.9168762, -6.1132798], [106.9168659, -6.11374], [106.9164751, -6.1137246], [106.9164751, -6.1132644]], "type": "LineString"}, "id": 154838034, "properties": {"access:roof": "no", "addr:full": "Jl. Kramat Jaya", "amenity": "hospital", "building:levels": "1", "building:roof": "tile", "building:structure": "reinforced_masonry", "building:walls": "brick", "name": "RS keluraga Mulia", "operator:type": "private", "rooms": "100 kamar"}, "type": "Feature"}, {"geometry": {"coordinates": [[106.9164596, -6.1141337], [106.9166962, -6.114144], [106.9170408, -6.1141593], [106.9170202, -6.1144457], [106.9170202, -6.1145633], [106.9164391, -6.1145428], [106.9164596, -6.1141337]], "type": "LineString"}, "id": 154838066, "properties": {"access:roof": "no", "addr:full": "Jl. Kramat Jaya", "amenity": "hospital", "building:levels": "1", "building:roof": "tile", "building:structure": "reinforced_masonry", "building:walls": "brick", "name": "bunda cinta mulia", "operator:type": "private"}, "type": "Feature"}, {"geometry": {"coordinates": [[106.9100973, -6.1147769], [106.9102703, -6.1147859], [106.9102631, -6.1149113], [106.9100937, -6.1149041], [106.9100973, -6.1147769]], "type": "LineString"}, "id": 154838070, "properties": {"access:roof": "no", "addr:full": "Jl. Manggar", "amenity": "hospital", "building:levels": "1", "building:roof": "tile", "building:structure": "reinforced_masonry", "building:walls": "brick", "name": "Rumah Bersalin Lestari", "operator:type": "private"}, "type": "Feature"}, {"geometry": {"coordinates": [[106.8812886, -6.1170663], [106.8820194, -6.1168764], [106.8821502, -6.1174531], [106.8814749, -6.1175969], [106.8812886, -6.1170663]], "type": "LineString"}, "id": 154893002, "properties": {"access:roof": "no", "addr:full": "Jalan Ganggeng Raya No. 9", "amenity": "hospital", "building:levels": "1", "building:roof": "tile", "building:structure": "plastered", "building:walls": "brick", "name": "RS Santo Josef", "operator:type": "private"}, "type": "Feature"}, {"geometry": {"coordinates": [[106.8519155, -6.1934581], [106.8521144, -6.1933947], [106.852275, -6.1938206], [106.852071, -6.1939119], [106.8519155, -6.1934581]], "type": "LineString"}, "id": 155097709, "properties": {"access:roof": "yes", "addr:full": "Jl. Salemba Tengah", "amenity": "hospital", "building": "hospital", "building:levels": ">7", "building:roof": "concrete", "building:structure": "reinforced_masonry", "building:walls": "brick", "name": "Rumah Sakit MH Thamrin", "operator:type": "private", "rooms": "131"}, "type": "Feature"}, {"geometry": {"coordinates": [[106.8470368, -6.202249], [106.8477525, -6.2014765], [106.8476616, -6.2013763], [106.8471693, -6.2018755], [106.8471376, -6.2018461], [106.8468999, -6.2021133], [106.8470368, -6.202249]], "type": "LineString"}, "id": 155098189, "properties": {"addr:full": "Jl. Proklamsi No. 43", "amenity": "hospital", "building": "hospital", "building:levels": "3", "building:roof": "tile", "building:walls": "brick", "name": "RS Khusus THT dan Bedah", "operator:type": "private", "rooms": "50"}, "type": "Feature"}, {"geometry": {"coordinates": [[106.8591209, -6.1934249], [106.859096, -6.1936795], [106.8595833, -6.1937611], [106.8600688, -6.1938276], [106.8600994, -6.193385], [106.8599866, -6.1933774], [106.8599637, -6.1934458], [106.8595222, -6.1934306], [106.8591209, -6.1934249]], "type": "LineString"}, "id": 155109641, "properties": {"amenity": "hospital", "name": "RSIA Evasari", "operator:type": "private"}, "type": "Feature"}, {"geometry": {"coordinates": [[106.8421285, -6.1908954], [106.8419212, -6.1910206], [106.8418949, -6.1909659], [106.8414856, -6.1912111], [106.8416719, -6.1915606], [106.8414384, -6.1917223], [106.8416981, -6.1920667], [106.8422938, -6.1916467], [106.8423541, -6.1912189], [106.8421285, -6.1908954]], "type": "LineString"}, "id": 155110123, "properties": {"access:roof": "no", "addr:full": "Jl Raden Saleh Raya", "amenity": "hospital", "building": "yes", "building:levels": "3", "building:roof": "tile", "building:structure": "reinforced_masonry", "building:walls": "brick", "capacity:persons": "1000", "name": "RS PGI Cikini", "operator:type": "private"}, "type": "Feature"}, {"geometry": {"coordinates": [[106.8511562, -6.1773484], [106.8511462, -6.177524], [106.8513087, -6.1775311], [106.8513115, -6.177347], [106.8511562, -6.1773484]], "type": "LineString"}, "id": 155110330, "properties": {"access:roof": "yes", "addr:full": "JL Baladewa RW 05", "amenity": "hospital", "building": "yes", "building:levels": "1", "building:roof": "tile", "building:structure": "reinforced_masonry", "building:walls": "brick", "capacity:persons": "200 orang", "name": "Rumah Sakit Paru-paru", "operator:type": "private", "rooms": "10 kamar"}, "type": "Feature"}, {"geometry": {"coordinates": [[106.8187105, -6.180214], [106.8181613, -6.1800565], [106.8176788, -6.1807894], [106.8184201, -6.1810217], [106.8187105, -6.180214]], "type": "LineString"}, "id": 155110911, "properties": {"access:roof": "yes", "addr:full": "Jalan Budi Kemuliaan", "amenity": "hospital", "building:levels": "1", "building:roof": "tile", "building:structure": "reinforced_masonry", "building:walls": "brick", "name": "RS Budi Kemuliaan", "operator:type": "private"}, "type": "Feature"}, {"geometry": {"coordinates": [[106.845864, -6.1920713], [106.8455265, -6.192236], [106.8456615, -6.1925228], [106.847711, -6.1914675], [106.8475343, -6.1911401], [106.8462328, -6.1918657], [106.845864, -6.1920713]], "type": "LineString"}, "id": 155112451, "properties": {"access:roof": "yes", "addr:full": "KramaT Raya no.178", "amenity": "hospital", "building": "yes", "building:levels": "2", "building:roof": "tile", "building:structure": "reinforced_masonry", "building:walls": "brick", "name": "RS Ridwan Maureksa", "operator:type": "government", "rooms": ">100"}, "type": "Feature"}, {"geometry": {"coordinates": [[106.8290344, -6.1908468], [106.8293028, -6.1908708], [106.8292305, -6.1910624], [106.8291167, -6.1910558], [106.8290275, -6.1910453], [106.8290344, -6.1908468]], "type": "LineString"}, "id": 155112757, "properties": {"access:roof": "yes", "addr:full": "Jl. Hos Cokroaminoto No. 31-33", "amenity": "hospital", "building": "yes", "building:levels": "1", "building:roof": "tile", "building:structure": "reinforced_masonry", "building:walls": "brick", "capacity:persons": "150", "name": "RS. ABDI WALUYO", "operator:type": "private", "rooms": "75"}, "type": "Feature"}, {"geometry": {"coordinates": [[106.8364645, -6.1961198], [106.8364636, -6.1960611], [106.836309, -6.1960743], [106.8361942, -6.1960496], [106.8361516, -6.196218], [106.8363231, -6.1962637], [106.8363267, -6.1962373], [106.8364755, -6.196272], [106.836471, -6.1962176], [106.8364652, -6.1961738], [106.8364645, -6.1961198]], "type": "LineString"}, "id": 155112765, "properties": {"access:roof": "yes", "addr:full": "Jl. Cik Ditiro RW.02", "amenity": "hospital", "building": "yes", "building:levels": "3", "building:roof": "tile", "building:structure": "reinforced_masonry", "building:walls": "brick", "capacity:persons": "200", "name": "RS. Bunda", "operator:type": "private", "rooms": "100"}, "type": "Feature"}, {"geometry": {"coordinates": [[106.8280444, -6.1910449], [106.8276658, -6.1914246], [106.8278104, -6.1915717], [106.8281923, -6.1911954], [106.8280444, -6.1910449]], "type": "LineString"}, "id": 155112769, "properties": {"access:roof": "yes", "addr:full": "Jl. Gereja Theresia No.22", "amenity": "hospital", "building": "yes", "building:levels": "3", "building:roof": "tile", "building:structure": "reinforced_masonry", "building:walls": "brick", "capacity:persons": "150", "name": "YPK. MANDIRI", "operator:type": "private", "rooms": "75"}, "type": "Feature"}, {"geometry": {"coordinates": [[106.8653992, -6.1634341], [106.8653346, -6.1635879], [106.865422, -6.1636468], [106.8655485, -6.163699], [106.8655822, -6.163711], [106.8656629, -6.1635398], [106.865418, -6.1634341], [106.8653992, -6.1634341]], "type": "LineString"}, "id": 155114678, "properties": {"access:roof": "yes", "addr:full": "Jl Sumur batu Raya Rt 011/02", "amenity": "hospital", "building:levels": "3", "building:roof": "tile", "building:structure": "reinforced_masonry", "building:walls": "brick", "name": "RS Berkat Ibu", "operator:type": "private"}, "type": "Feature"}, {"geometry": {"coordinates": [[106.8081528, -6.2108075], [106.8091007, -6.2107732], [106.8091549, -6.2114365], [106.8092386, -6.2116543], [106.8093493, -6.2119333], [106.8093437, -6.2121801], [106.8091626, -6.212187], [106.8090514, -6.2121606], [106.8090053, -6.2120433], [106.8087587, -6.2121212], [106.8084175, -6.2120762], [106.8083096, -6.2120762], [106.8081982, -6.2120624], [106.8081528, -6.2108075]], "type": "LineString"}, "id": 155115812, "properties": {"amenity": "hospital", "name": "Laboratorium Kedokteran Gigi (LADOKGI)", "opening_hours": "Tu-Su 08:00-15:00;Sa 08:00-12:00"}, "type": "Feature"}, {"geometry": {"coordinates": [[106.8122662, -6.2106389], [106.812261, -6.2113], [106.8100728, -6.2113675], [106.8100623, -6.210715], [106.8122662, -6.2106389]], "type": "LineString"}, "id": 155115832, "properties": {"amenity": "hospital", "name": "Rumah Sakit AL Mintohardjo"}, "type": "Feature"}, {"geometry": {"coordinates": [[106.8289542, -6.147452], [106.8292199, -6.1473841], [106.8298317, -6.1472277], [106.8299042, -6.1475077], [106.8294634, -6.1476204], [106.8290266, -6.1477321], [106.8289542, -6.147452]], "type": "LineString"}, "id": 155116034, "properties": {"access:roof": "yes", "addr:full": "jl. mangga besar raya", "amenity": "hospital", "building:levels": ">7", "building:structure": "reinforced_masonry", "building:walls": "brick", "name": "RS Husada", "operator:type": "private"}, "type": "Feature"}, {"geometry": {"coordinates": [[106.8887814, -6.2895354], [106.8885402, -6.290169], [106.8886522, -6.2902888], [106.88997, -6.2900748], [106.8898494, -6.2897152], [106.8889536, -6.2894584], [106.8887814, -6.2895354]], "type": "LineString"}, "id": 155930180, "properties": {"amenity": "hospital", "name": "RS HAJI JAKARTA"}, "type": "Feature"}, {"geometry": {"coordinates": [[106.8683617, -6.2213925], [106.8683797, -6.2215891], [106.8685668, -6.2216157], [106.8685687, -6.2218325], [106.8690805, -6.2217912], [106.8692203, -6.2221045], [106.8693934, -6.2220353], [106.8692498, -6.2214844], [106.8692158, -6.2212847], [106.8683617, -6.2213925]], "type": "LineString"}, "id": 155931564, "properties": {"amenity": "hospital", "name": "RS Primer Jatinegara", "operator:type": "private"}, "type": "Feature"}, {"geometry": {"coordinates": [[106.8926964, -6.3075513], [106.8930388, -6.3078319], [106.8927722, -6.3081151], [106.8924167, -6.3078215], [106.8926964, -6.3075513]], "type": "LineString"}, "id": 155936712, "properties": {"access:roof": "yes", "addr:full": "Jl. RT 007/02", "amenity": "hospital", "building:levels": "4-7", "building:roof": "concrete", "building:structure": "reinforced_masonry", "building:walls": "brick", "name": "RS. Kejaksaan"}, "type": "Feature"}, {"geometry": {"coordinates": [[106.8913123, -6.3098633], [106.8917707, -6.3100066], [106.8916968, -6.3104916], [106.8917337, -6.3110427], [106.8916894, -6.3114763], [106.8911201, -6.3114947], [106.8910942, -6.3105173], [106.8912318, -6.310056], [106.8913123, -6.3098633]], "type": "LineString"}, "id": 155936716, "properties": {"access:roof": "yes", "addr:full": "Jl. Raya Ceger RT 010/02", "amenity": "hospital", "building:levels": "4-7", "building:roof": "concrete", "building:structure": "reinforced_masonry", "building:walls": "brick", "name": "RS. Kejaksaan"}, "type": "Feature"}, {"geometry": {"coordinates": [[106.8836087, -6.1799672], [106.8837555, -6.1800164], [106.8837787, -6.1801039], [106.883859, -6.1801285], [106.884015, -6.1803405], [106.8839965, -6.1803881], [106.884307, -6.1805002], [106.8842251, -6.1807244], [106.883669, -6.1805355], [106.8836844, -6.1804986], [106.8835547, -6.180451], [106.8836041, -6.1803036], [106.8835732, -6.1802191], [106.8835438, -6.1802022], [106.883567, -6.1801408], [106.8835392, -6.180127], [106.8836087, -6.1799672]], "type": "LineString"}, "id": 155947535, "properties": {"access:roof": "yes", "addr:full": "Jalan Pulomas Barat VI No. 20", "amenity": "hospital", "building": "yes", "building:levels": "4-7", "building:roof": "concrete", "building:structure": "reinforced_masonry", "building:walls": "brick", "capacity:persons": "300 tempat tidur", "name": "RS Omni Internasional Pulomas", "operator:type": "private", "rooms": "180"}, "type": "Feature"}, {"geometry": {"coordinates": [[106.8847379, -6.1757459], [106.884622, -6.1759793], [106.8850638, -6.1761836], [106.8851843, -6.1759594], [106.8847379, -6.1757459]], "type": "LineString"}, "id": 155947536, "properties": {"access:roof": "yes", "addr:full": "Jalan Pulo Mas Timur K No. 2", "amenity": "hospital", "building": "yes", "building:levels": "3", "building:roof": "tile", "building:structure": "reinforced_masonry", "building:walls": "brick", "capacity:persons": "100 tempat tidur", "name": "RS Umum Kartika Pulomas", "operator:type": "private", "rooms": "35"}, "type": "Feature"}, {"geometry": {"coordinates": [[106.890906, -6.1826709], [106.8910971, -6.1827056], [106.8912916, -6.181865], [106.891095, -6.1818216], [106.890906, -6.1826709]], "type": "LineString"}, "id": 155947694, "properties": {"access:roof": "yes", "addr:full": "Jalan Kayu Putih Raya", "amenity": "hospital", "building": "yes", "building:levels": "4-7", "building:roof": "concrete", "building:structure": "reinforced_masonry", "building:walls": "brick", "capacity:persons": "104 tempat tidur", "name": "Rumah Sakit Umum Admira", "operator:type": "private", "rooms": "52"}, "type": "Feature"}, {"geometry": {"coordinates": [[106.9329356, -6.2215934], [106.933066, -6.2215738], [106.9331021, -6.2218075], [106.9331516, -6.2217997], [106.9332375, -6.2221805], [106.9330177, -6.2222158], [106.933, -6.2220878], [106.9331221, -6.2220767], [106.9330999, -6.2219333], [106.9330493, -6.2219412], [106.9329859, -6.2219494], [106.9329356, -6.2215934]], "type": "LineString"}, "id": 155948488, "properties": {"amenity": "hospital", "operator:type": "private"}, "type": "Feature"}, {"geometry": {"coordinates": [[106.9056538, -6.1959375], [106.9056514, -6.1961181], [106.9061082, -6.1961221], [106.9061805, -6.1960968], [106.9061838, -6.1959465], [106.9056538, -6.1959375]], "type": "LineString"}, "id": 155949357, "properties": {"access:roof": "yes", "addr:full": "Jl. Raya Bekasi KM. 18", "amenity": "hospital", "building:levels": "2", "building:roof": "concrete", "building:structure": "reinforced_masonry", "building:walls": "brick", "name": "RS Harapan Jayakarta", "operator:type": "private"}, "type": "Feature"}, {"geometry": {"coordinates": [[106.8759207, -6.2653231], [106.8758615, -6.2655017], [106.8757617, -6.2654691], [106.8758209, -6.2652905], [106.8759207, -6.2653231]], "type": "LineString"}, "id": 155950400, "properties": {"access:roof": "no", "addr:full": "RT.012 RW.01 Kelurahan Makasar", "amenity": "hospital", "building": "yes", "building:levels": "1", "building:roof": "tile", "building:structure": "reinforced_masonry", "building:walls": "brick", "capacity:persons": "100", "operator:type": "private", "rooms": "FIXME"}, "type": "Feature"}, {"geometry": {"coordinates": [[106.9032464, -6.1924187], [106.9033562, -6.1927539], [106.903709, -6.192637], [106.9036267, -6.1923057], [106.9032464, -6.1924187]], "type": "LineString"}, "id": 155950969, "properties": {"amenity": "hospital", "name": "Antam Medika", "operator:type": "government"}, "type": "Feature"}, {"geometry": {"coordinates": [[106.8662094, -6.2650012], [106.8662124, -6.2652251], [106.8666905, -6.2652251], [106.8666844, -6.2649767], [106.8662094, -6.2650012]], "type": "LineString"}, "id": 155951286, "properties": {"access:roof": "no", "addr:full": "Jl. Raya Bogor", "amenity": "hospital", "building:levels": "1", "building:roof": "tile", "building:structure": "unreinforced_masonry", "building:walls": "brick", "name": "RS Restu", "operator:type": "private"}, "type": "Feature"}, {"geometry": {"coordinates": [[106.8700422, -6.2697685], [106.8704174, -6.2707008], [106.8717958, -6.2701544], [106.8718918, -6.2695777], [106.871617, -6.2694433], [106.8712244, -6.2693522], [106.8707881, -6.2691918], [106.8705264, -6.2691094], [106.8698634, -6.2693609], [106.8700422, -6.2697685]], "type": "LineString"}, "id": 155951290, "properties": {"access:roof": "yes", "addr:full": "Jl. Raya Bogor", "amenity": "hospital", "building": "yes", "building:levels": "3", "building:roof": "tile", "building:structure": "reinforced_masonry", "building:walls": "brick", "name": "RS Soekanto", "operator:type": "government"}, "type": "Feature"}, {"geometry": {"coordinates": [[106.9254519, -6.2303126], [106.9254486, -6.2304152], [106.9256453, -6.2304055], [106.9256453, -6.2302581], [106.9256453, -6.2301876], [106.9254841, -6.2301844], [106.925439, -6.2301876], [106.9254519, -6.2303126]], "type": "LineString"}, "id": 155952189, "properties": {"access:roof": "no", "addr:full": "Jalan Taman Malaka Utara", "amenity": "hospital", "building": "yes", "building:levels": "3", "building:roof": "tile", "building:structure": "reinforced_masonry", "building:walls": "brick", "capacity:persons": "300", "name": "Sayidah", "operator:type": "private"}, "type": "Feature"}, {"geometry": {"coordinates": [[106.9092265, -6.2316092], [106.9095301, -6.231615], [106.9098688, -6.2316092], [106.9099038, -6.2317659], [106.9098629, -6.2318704], [106.9096761, -6.2319168], [106.9096002, -6.2319168], [106.9096177, -6.2320851], [106.9095943, -6.2321838], [106.9093024, -6.2321664], [106.9092732, -6.2319806], [106.9092674, -6.2318646], [106.9092265, -6.2316092]], "type": "LineString"}, "id": 155954215, "properties": {"access:roof": "yes", "addr:full": "Jalan sawah barat", "addr:housenumber": "13440", "addr:street": "Jalan Duren Sawit Baru", "amenity": "hospital", "building": "yes", "building:levels": "4-7", "building:roof": "asbestos", "building:structure": "reinforced_masonry", "building:walls": "brick", "capacity:persons": "190", "name": "RS Duren Sawit", "operator:type": "government", "rooms": "55"}, "type": "Feature"}, {"geometry": {"coordinates": [[106.9199128, -6.2299702], [106.9198837, -6.2301444], [106.9200647, -6.2301821], [106.9200909, -6.2299992], [106.9199128, -6.2299702]], "type": "LineString"}, "id": 155954217, "properties": {"access:roof": "yes", "addr:full": "Jalan Pendidikan Raya", "amenity": "hospital", "building:levels": "2", "building:roof": "tile", "building:structure": "reinforced_masonry", "building:walls": "brick", "name": "Rumah Sakit Ibnu Sina", "operator:type": "private"}, "type": "Feature"}, {"geometry": {"coordinates": [[106.8710642, -6.3076043], [106.8712683, -6.3076857], [106.8712064, -6.3078287], [106.8709923, -6.3077439], [106.8710642, -6.3076043]], "type": "LineString"}, "id": 155954263, "properties": {"access:roof": "yes", "addr:full": "Jl. Supriyadi", "amenity": "hospital", "building": "yes", "building:levels": "4-7", "building:roof": "tile", "building:structure": "reinforced_masonry", "building:walls": "brick", "capacity:persons": "1500", "name": "RS Binawaluya", "operator:type": "private"}, "type": "Feature"}, {"geometry": {"coordinates": [[106.9084647, -6.2310873], [106.9085759, -6.2310873], [106.9085687, -6.23123], [106.9084683, -6.23123], [106.9084647, -6.2310873]], "type": "LineString"}, "id": 155955548, "properties": {"access:roof": "yes", "addr:full": "Jalan Bulu Perindu", "amenity": "hospital", "building": "yes", "building:levels": "2", "building:roof": "tile", "building:structure": "reinforced_masonry", "building:walls": "brick", "name": "UGD", "operator:type": "government"}, "type": "Feature"}, {"geometry": {"coordinates": [[106.8966564, -6.2332119], [106.896877, -6.2329717], [106.8971292, -6.233097], [106.8975127, -6.2332328], [106.8974233, -6.2335879], [106.8973393, -6.2335461], [106.8973971, -6.2333424], [106.8968665, -6.2331649], [106.8967352, -6.2333006], [106.8966564, -6.2332119]], "type": "LineString"}, "id": 155955622, "properties": {"access:roof": "yes", "addr:full": "Jalan Pahlawan Revolusi", "amenity": "hospital", "building:levels": "3", "building:roof": "tile", "building:structure": "reinforced_masonry", "building:walls": "brick", "name": "Rumah Sakit Bunda Alliyah", "operator:type": "private"}, "type": "Feature"}, {"geometry": {"coordinates": [[106.8987961, -6.2372169], [106.8990107, -6.2370585], [106.8991595, -6.2372102], [106.8989047, -6.2374111], [106.8987961, -6.2372169]], "type": "LineString"}, "id": 155955678, "properties": {"access:roof": "yes", "addr:full": "Jalan Pahlawan Revolusi Rt 04/Rw 005", "amenity": "hospital", "building:levels": "4-7", "building:roof": "tile", "building:structure": "reinforced_masonry", "building:walls": "brick", "name": "Rumah Sakit Iyadika", "operator:type": "private"}, "type": "Feature"}, {"geometry": {"coordinates": [[106.9393856, -6.2201306], [106.939645, -6.2205757], [106.9398249, -6.2204623], [106.9396398, -6.2201577], [106.9398019, -6.2200797], [106.9399285, -6.2203188], [106.9401021, -6.2202128], [106.9399923, -6.2200225], [106.9399034, -6.2198665], [106.9397517, -6.2199403], [106.939782, -6.2199861], [106.9395759, -6.2200849], [106.9395435, -6.2200381], [106.9393856, -6.2201306]], "type": "LineString"}, "id": 155957494, "properties": {"access:roof": "yes", "addr:full": "Jalan Raya Pondok Kopi", "amenity": "hospital", "building": "yes", "building:levels": "4-7", "building:roof": "tile", "building:structure": "reinforced_masonry", "building:walls": "brick", "capacity:persons": "2000", "name": "RSI Pondok Kopi", "operator:type": "private", "rooms": "300"}, "type": "Feature"}, {"geometry": {"coordinates": [[106.9392868, -6.2198154], [106.9394229, -6.2197522], [106.9394894, -6.2198742], [106.9397616, -6.2197272], [106.9398371, -6.2198537], [106.9395516, -6.2200154], [106.939522, -6.2199625], [106.9393696, -6.2200184], [106.9392868, -6.2198154]], "type": "LineString"}, "id": 155957498, "properties": {"access:roof": "yes", "addr:full": "Jalan Raya Pondok Kopi", "amenity": "hospital", "building": "yes", "building:levels": "4-7", "building:roof": "tile", "building:structure": "reinforced_masonry", "building:walls": "brick", "capacity:persons": "3000", "name": "RSI Pondok Kopi", "operator:type": "private", "rooms": "300"}, "type": "Feature"}, {"geometry": {"coordinates": [[106.9330051, -6.1826449], [106.9329887, -6.1825144], [106.9332335, -6.1824853], [106.9332476, -6.1826088], [106.9330051, -6.1826449]], "type": "LineString"}, "id": 155961378, "properties": {"access:roof": "no", "addr:full": "Jalan Raya Bekasi KM 22", "amenity": "hospital", "building": "yes", "building:levels": "1", "building:roof": "tile", "building:structure": "unreinforced_masonry", "building:walls": "brick", "capacity:persons": "20 ORang", "name": "Rumah Bersalin Nandra Tiara", "operator:type": "private", "rooms": "4"}, "type": "Feature"}, {"geometry": {"coordinates": [[106.8914788, -6.2567398], [106.8916445, -6.2570183], [106.8920018, -6.2568082], [106.89211, -6.25699], [106.8922706, -6.2568955], [106.8919611, -6.2563756], [106.8918184, -6.2564595], [106.8918539, -6.2565191], [106.8914788, -6.2567398]], "type": "LineString"}, "id": 155962912, "properties": {"access:roof": "yes", "addr:full": "Jl. Rajawali Raya", "amenity": "hospital", "building": "yes", "building:levels": "3", "building:roof": "concrete", "name": "RS. Antariksa Esnawan", "operator:type": "government"}, "type": "Feature"}, {"geometry": {"coordinates": [[106.7959592, -6.1603334], [106.7960892, -6.1602971], [106.796146, -6.1605381], [106.7960512, -6.1605623], [106.7960309, -6.1604479], [106.7959903, -6.1604573], [106.7959592, -6.1603334]], "type": "LineString"}, "id": 156909663, "properties": {"access:roof": "yes", "addr:full": "JL Dr Nurdin 4 RW 07 Kelurahan Grogol", "amenity": "hospital", "building": "yes", "building:levels": "1", "building:roof": "tile", "building:structure": "reinforced_masonry", "building:walls": "brick", "capacity:persons": "200 orang", "name": "Rumah Sakit Bersalin", "operator:type": "private", "rooms": "12"}, "type": "Feature"}, {"geometry": {"coordinates": [[106.7646543, -6.1681412], [106.7646084, -6.1686794], [106.7654204, -6.1687387], [106.7654892, -6.1676943], [106.7651589, -6.1676715], [106.7651038, -6.1681549], [106.7646543, -6.1681412]], "type": "LineString"}, "id": 156912846, "properties": {"access:roof": "no", "amenity": "hospital", "building:levels": ">7", "building:roof": "tile", "building:structure": "reinforced_masonry", "building:walls": "brick", "name": "Rumah Sakit Grha Kedoya", "operator:type": "private"}, "type": "Feature"}, {"geometry": {"coordinates": [[106.7924755, -6.1972628], [106.7925802, -6.1969297], [106.7929292, -6.1970407], [106.792814, -6.1973947], [106.7929222, -6.1975612], [106.7928419, -6.1976723], [106.7923079, -6.1975369], [106.7924755, -6.1972628]], "type": "LineString"}, "id": 156919180, "properties": {"access:roof": "yes", "addr:full": "komplek hankam rt 5/02", "amenity": "hospital", "building": "yes", "building:levels": "3", "building:roof": "tile", "building:structure": "reinforced_masonry", "building:walls": "brick", "capacity:persons": "200", "name": "patria IKKT", "operator:type": "private"}, "type": "Feature"}, {"geometry": {"coordinates": [[106.7972012, -6.1841103], [106.7972303, -6.1853039], [106.801148, -6.1851396], [106.8011043, -6.1841683], [106.8003023, -6.184265], [106.8002731, -6.1836512], [106.7981247, -6.1838204], [106.7981296, -6.1841007], [106.7972012, -6.1841103]], "type": "LineString"}, "id": 156919209, "properties": {"addr:full": "Jl. Letjend. S. Parman Kav. 87 RT.010/08 Tlp. 0215668284", "amenity": "hospital", "name": "Komplek RS. Harapan Kita (R.S Anak dan Bunda)", "operator:type": "government"}, "type": "Feature"}, {"geometry": {"coordinates": [[106.7973952, -6.1853497], [106.7974045, -6.185763], [106.8012112, -6.1856663], [106.8011821, -6.1851976], [106.7973952, -6.1853497]], "type": "LineString"}, "id": 156919210, "properties": {"addr:full": "Jl. Letjend. S. Parman Kav. 87 RT.010/08 Tlp. 0215684085 - 93", "amenity": "hospital", "name": "Komplek RS. Harapan Kita Khusus Jantung & Pembuluh Darah", "operator:type": "government"}, "type": "Feature"}, {"geometry": {"coordinates": [[106.8099688, -6.1577143], [106.8100402, -6.1577102], [106.8100388, -6.1575943], [106.8099153, -6.1575915], [106.8099126, -6.1577143], [106.8099688, -6.1577143]], "type": "LineString"}, "id": 156919546, "properties": {"access:roof": "yes", "addr:full": "RW 012 Kelurahan Tanah Sereal", "amenity": "hospital", "building": "yes", "building:levels": "2", "building:roof": "tile", "building:structure": "reinforced_masonry", "building:walls": "brick", "capacity:persons": "50", "name": "Bidan Aries", "operator:type": "private"}, "type": "Feature"}, {"geometry": {"coordinates": [[106.8091924, -6.1580976], [106.8093487, -6.158103], [106.809346, -6.1580335], [106.8091924, -6.1580348], [106.8091924, -6.1580976]], "type": "LineString"}, "id": 156919548, "properties": {"access:roof": "no", "addr:full": "RW 013 Kelurahan Tanah Sereal", "amenity": "hospital", "building": "yes", "building:levels": "1", "building:roof": "concrete", "building:structure": "reinforced_masonry", "building:walls": "brick", "capacity:persons": "20", "name": "Klinik Cendana", "operator:type": "private"}, "type": "Feature"}, {"geometry": {"coordinates": [[106.8083046, -6.157679], [106.808483, -6.1576733], [106.8084805, -6.1575955], [106.8083021, -6.1576012], [106.8083046, -6.157679]], "type": "LineString"}, "id": 156919549, "properties": {"access:roof": "yes", "addr:full": "RW 012 Kelurahan Tanah Sereal", "amenity": "hospital", "building": "yes", "building:levels": "2", "building:roof": "tile", "building:structure": "reinforced_masonry", "building:walls": "brick", "capacity:persons": "30", "name": "Klinik Lotus", "operator:type": "private"}, "type": "Feature"}, {"geometry": {"coordinates": [[106.8023109, -6.1391227], [106.8024808, -6.1391055], [106.8025016, -6.1393503], [106.8023421, -6.1393779], [106.8023109, -6.1391227]], "type": "LineString"}, "id": 156919730, "properties": {"addr:full": "Jln Mesjid Pekojan RT 2 RW 3", "amenity": "hospital", "building:levels": "1", "building:roof": "tile", "building:structure": "reinforced_masonry", "building:walls": "brick", "name": "RS Budi Kemuliaan"}, "type": "Feature"}, {"geometry": {"coordinates": [[106.7850971, -6.1661916], [106.7850652, -6.1666759], [106.7850302, -6.1668754], [106.7850397, -6.1670115], [106.7857561, -6.1670431], [106.7857529, -6.1668564], [106.7857434, -6.166486], [106.7853995, -6.1664575], [106.7853868, -6.1661948], [106.7850971, -6.1661916]], "type": "LineString"}, "id": 156922057, "properties": {"access:roof": "yes", "addr:full": "Jl. Daan Mogot", "amenity": "hospital", "building": "yes", "building:levels": "4-7", "building:roof": "tile", "building:structure": "reinforced_masonry", "building:walls": "brick", "capacity:persons": "500", "name": "Rumah Sakit Royal Taruma", "operator:type": "private"}, "type": "Feature"}, {"geometry": {"coordinates": [[106.7612794, -6.1855812], [106.7615951, -6.185573], [106.7616076, -6.1857588], [106.7612835, -6.1857588], [106.7612794, -6.1855812]], "type": "LineString"}, "id": 156923931, "properties": {"access:roof": "no", "addr:full": "Jl. Kedoya Al-Kamal RT 07 RW 03", "amenity": "hospital", "building": "yes", "building:levels": "2", "building:roof": "tile", "building:walls": "brick", "capacity:persons": "200", "name": "Rumah Sakit Puri Mandiri", "operator:type": "private"}, "type": "Feature"}, {"geometry": {"coordinates": [[106.7614656, -6.1897676], [106.7615434, -6.1895482], [106.7615279, -6.1893882], [106.7614707, -6.1892462], [106.7614396, -6.1892023], [106.7613253, -6.1891997], [106.7612552, -6.1892101], [106.7612838, -6.1897883], [106.7614656, -6.1897676]], "type": "LineString"}, "id": 156923934, "properties": {"access:roof": "no", "addr:full": "Jl. Arjuna Selatan RW 03", "amenity": "hospital", "building": "yes", "building:levels": "4-7", "building:roof": "tile", "building:walls": "brick", "capacity:persons": "500", "name": "Rumah Sakit Mata Internasional", "operator:type": "private"}, "type": "Feature"}, {"geometry": {"coordinates": [[106.787397, -6.1621905], [106.7873742, -6.162373], [106.7873484, -6.1627147], [106.7873374, -6.1629616], [106.7873369, -6.1629936], [106.7873098, -6.1629932], [106.7873002, -6.1631095], [106.7872881, -6.1632726], [106.7872781, -6.1634096], [106.7872746, -6.1634689], [106.7881699, -6.1634925], [106.7888334, -6.1635168], [106.7891222, -6.1634299], [106.7892577, -6.1631975], [106.7892776, -6.1621975], [106.7888245, -6.1621851], [106.7874067, -6.1620966], [106.787397, -6.1621905]], "type": "LineString"}, "id": 156923946, "properties": {"access:roof": "no", "addr:full": "Jl. Prof.Dr. Latumenten 1", "amenity": "hospital", "building": "yes", "building:levels": "1", "building:roof": "tile", "building:structure": "unreinforced_masonry", "building:walls": "brick", "capacity:persons": "1000", "name": "RS Jiwa Soeharto Heerdjan", "operator:type": "government"}, "type": "Feature"}, {"geometry": {"coordinates": [[106.7998064, -6.1674072], [106.7996783, -6.1678578], [106.7991106, -6.1677304], [106.7989641, -6.1678077], [106.7975267, -6.1678897], [106.7974671, -6.1672297], [106.7974763, -6.1666153], [106.7974717, -6.166415], [106.7983369, -6.1663012], [106.7985796, -6.1667427], [106.7998202, -6.1673253], [106.7998064, -6.1674072]], "type": "LineString"}, "id": 156926471, "properties": {"access:roof": "yes", "addr:full": "jl. kyai tapa", "amenity": "hospital", "building": "yes", "building:levels": "4-7", "building:roof": "tile", "building:structure": "reinforced_masonry", "building:walls": "brick", "capacity:persons": ">1000", "name": "RS Sumber Waras", "operator:type": "private"}, "type": "Feature"}, {"geometry": {"coordinates": [[106.8052652, -6.1939352], [106.8046912, -6.1939617], [106.803917, -6.1940148], [106.8031095, -6.1940546], [106.8028091, -6.1940546], [106.8022819, -6.1940679], [106.8021885, -6.1935835], [106.8020683, -6.193119], [106.8020083, -6.1928337], [106.8023553, -6.1928271], [106.8025553, -6.1928351], [106.8025579, -6.1927558], [106.8030262, -6.1927532], [106.803021, -6.1927021], [106.8031265, -6.1927021], [106.8031342, -6.1925383], [106.8033761, -6.192546], [106.8033813, -6.1923644], [106.8040271, -6.1923951], [106.8048428, -6.1924104], [106.8048917, -6.1924104], [106.8048994, -6.19272], [106.8053858, -6.1927788], [106.8054321, -6.1927788], [106.8053832, -6.1932035], [106.8053446, -6.1934286], [106.8053034, -6.1937074], [106.8052652, -6.1939352]], "type": "LineString"}, "id": 156928888, "properties": {"access:roof": "no", "addr:full": "AIPDA K S TUBUN", "amenity": "hospital", "building": "yes", "building:levels": "4-7", "building:roof": "tile", "building:structure": "reinforced_masonry", "building:walls": "brick", "capacity:persons": "900", "name": "RS Pelni Petamburan", "operator:type": "government", "rooms": "331"}, "type": "Feature"}, {"geometry": {"coordinates": [[106.8002723, -6.1990411], [106.8003003, -6.1992548], [106.800319, -6.1994444], [106.8003097, -6.1995187], [106.8002846, -6.1998144], [106.8003419, -6.1999799], [106.8004019, -6.2001378], [106.8004928, -6.2000799], [106.80079, -6.1999591], [106.8009639, -6.1998811], [106.8008368, -6.1996191], [106.8007414, -6.1993998], [106.8006798, -6.1992028], [106.8006685, -6.1990021], [106.8005209, -6.199004], [106.8004143, -6.1990188], [106.8002723, -6.1990411]], "type": "LineString"}, "id": 156928913, "properties": {"access:roof": "no", "addr:full": "AIPDA K S TUBUN", "amenity": "hospital", "building": "yes", "building:levels": "2", "building:roof": "tile", "building:structure": "reinforced_masonry", "building:walls": "brick", "capacity:persons": "90", "name": "RUMAH SAKIT BHAKTI MULIA", "operator:type": "government", "rooms": "30"}, "type": "Feature"}, {"geometry": {"coordinates": [[106.7771562, -6.2184974], [106.7771811, -6.2187005], [106.7771861, -6.2188417], [106.7771761, -6.2191364], [106.7771711, -6.2191686], [106.7771263, -6.2191785], [106.7771014, -6.2195178], [106.7773381, -6.2195253], [106.777343, -6.2197828], [106.7782324, -6.2197432], [106.7784118, -6.2197333], [106.7784043, -6.2194113], [106.7783994, -6.2191884], [106.7783346, -6.219077], [106.7782175, -6.2189333], [106.7779534, -6.21876], [106.7776395, -6.2185247], [106.7774925, -6.2184331], [106.7771437, -6.2184479], [106.7771562, -6.2184974]], "type": "LineString"}, "id": 156931595, "properties": {"access:roof": "yes", "addr:full": "Jl. Kebayoran Lama", "amenity": "hospital", "building": "yes", "building:levels": "3", "building:roof": "asbestos", "building:structure": "reinforced_masonry", "building:walls": "brick", "capacity:persons": "Besar", "name": "RS Medika Permata Hijau", "operator:type": "private"}, "type": "Feature"}, {"geometry": {"coordinates": [[106.773096, -6.2030956], [106.7731873, -6.2030977], [106.7731911, -6.2029311], [106.7730998, -6.2029291], [106.773096, -6.2030956]], "type": "LineString"}, "id": 157204608, "properties": {"access:roof": "yes", "addr:full": "Jalan Anggrek RW. 02 Kelurahan Kelapa Dua", "amenity": "hospital", "building": "yes", "building:levels": "2", "building:roof": "tile", "building:structure": "reinforced_masonry", "building:walls": "brick", "capacity:persons": "300", "name": "Rumah Sakit Bersalin Dokter Sanusi", "operator:type": "private", "rooms": "10"}, "type": "Feature"}, {"geometry": {"coordinates": [[106.7715653, -6.1854674], [106.7714712, -6.18577], [106.7717349, -6.1858657], [106.771849, -6.1855548], [106.7715703, -6.1854536], [106.7715653, -6.1854674]], "type": "LineString"}, "id": 157205903, "properties": {"access:roof": "no", "addr:full": "jl duri raya no 22", "amenity": "hospital", "building": "yes", "building:levels": "2", "building:roof": "concrete", "building:structure": "reinforced_masonry", "building:walls": "brick", "capacity:persons": ">100", "name": "bina sehat mandiri", "operator:type": "private", "rooms": "10"}, "type": "Feature"}, {"geometry": {"coordinates": [[106.9416523, -6.2085486], [106.9415678, -6.2089463], [106.9417121, -6.2089463], [106.9419142, -6.2089483], [106.9419266, -6.2087905], [106.9419699, -6.2086203], [106.9416523, -6.2085486]], "type": "LineString"}, "id": 157211723, "properties": {"access:roof": "yes", "addr:full": "Jalan Pahlawan Komarudin Raya No. 5", "amenity": "hospital", "building": "yes", "building:levels": "3", "building:roof": "concrete", "building:structure": "reinforced_masonry", "building:walls": "brick", "capacity:persons": "75", "name": "RS Resti Mulya", "operator:type": "private", "rooms": "20"}, "type": "Feature"}, {"geometry": {"coordinates": [[106.817156, -6.2187114], [106.8173459, -6.2187124], [106.8173425, -6.2193859], [106.8171526, -6.2193849], [106.817156, -6.2187114]], "type": "LineString"}, "id": 157347116, "properties": {"access:roof": "yes", "addr:full": "Jl. Garnisun Dalam RT 003 RW 04", "amenity": "hospital", "building": "yes", "building:levels": ">7", "building:roof": "concrete", "building:walls": "brick", "capacity:persons": "1000", "name": "MRCC Siloam Hospital", "operator:type": "private"}, "type": "Feature"}, {"geometry": {"coordinates": [[106.8080146, -6.2742988], [106.8080021, -6.2746762], [106.8080646, -6.2746911], [106.8080521, -6.2747829], [106.8080471, -6.2750387], [106.8079572, -6.2750362], [106.8079497, -6.274989], [106.8076549, -6.2749741], [106.8076549, -6.2751132], [106.8076674, -6.2751529], [106.8077723, -6.2751479], [106.8077698, -6.2751976], [106.8079547, -6.27521], [106.8079622, -6.2751256], [106.808127, -6.2751355], [106.8081345, -6.2750039], [106.8082794, -6.2750138], [106.8082944, -6.2747308], [106.8082919, -6.2746191], [106.8083193, -6.2746141], [106.8083593, -6.2744229], [106.8083044, -6.2744055], [106.8083268, -6.2743261], [106.8082794, -6.2742988], [106.8080146, -6.2742988]], "type": "LineString"}, "id": 157353873, "properties": {"access:roof": "yes", "addr:full": "Jl. Pangeran Antasari RT 003/RW 06", "amenity": "hospital", "building": "yes", "building:levels": "3", "building:roof": "tile", "building:structure": "reinforced_masonry", "building:walls": "brick", "capacity:persons": "200", "name": "Klinik SOS Medika", "operator:type": "private", "rooms": "125"}, "type": "Feature"}, {"geometry": {"coordinates": [[106.8008481, -6.2478168], [106.8012543, -6.2478236], [106.8012529, -6.248166], [106.8008563, -6.2481769], [106.8008481, -6.2478168]], "type": "LineString"}, "id": 157354417, "properties": {"access:roof": "yes", "addr:full": "Jalan Panglima Polim 1", "amenity": "hospital", "building": "yes", "building:levels": "2", "building:roof": "tile", "building:structure": "reinforced_masonry", "building:walls": "brick", "capacity:persons": "100-200", "name": "Rumah Sakit Bersalin Asih", "operator:type": "private", "rooms": "30-40"}, "type": "Feature"}, {"geometry": {"coordinates": [[106.8465778, -6.2090616], [106.8465482, -6.2092413], [106.8464637, -6.2092276], [106.846452, -6.2092984], [106.8463389, -6.20928], [106.8463426, -6.2092574], [106.8462712, -6.2092458], [106.8463087, -6.2090178], [106.8465778, -6.2090616]], "type": "LineString"}, "id": 157354596, "properties": {"access:roof": "no", "addr:city": "South Jakarta", "addr:full": "Jl. Sultan Agung", "addr:housenumber": "67", "addr:postcode": "12970", "addr:street": "Jl. Sultan Agung, Ps. Manggis, Setia Budi,", "amenity": "hospital", "building": "yes", "building:levels": "4", "building:roof": "tile", "building:structure": "reinforced_masonry", "building:walls": "brick", "capacity:persons": "500", "name": "RS Agung", "operator:type": "private"}, "type": "Feature"}, {"geometry": {"coordinates": [[106.8448218, -6.2188642], [106.844935, -6.2191366], [106.8451761, -6.2190603], [106.8450556, -6.2187879], [106.8448218, -6.2188642]], "type": "LineString"}, "id": 157357325, "properties": {"access:roof": "yes", "addr:full": "Jalan Dr Saharjo RW 08", "amenity": "hospital", "building": "hospital", "building:levels": "4-7", "building:roof": "tile", "building:structure": "reinforced_masonry", "building:walls": "brick", "emergency": "yes", "name": "RSIA Budhi Jaya", "operator:type": "private"}, "type": "Feature"}, {"geometry": {"coordinates": [[106.7559418, -6.2585697], [106.7561277, -6.2585974], [106.7561673, -6.2583155], [106.7559279, -6.2582947], [106.7559418, -6.2585697]], "type": "LineString"}, "id": 157359443, "properties": {"access:roof": "no", "addr:full": "Jalan Pesangrahan Raya", "amenity": "hospital", "building": "yes", "building:levels": "1", "building:roof": "tile", "building:structure": "reinforced_masonry", "building:walls": "brick", "capacity:persons": "100", "name": "Rumah Sakit kesdam", "operator:type": "government"}, "type": "Feature"}, {"geometry": {"coordinates": [[106.7856184, -6.2395997], [106.785515, -6.2400774], [106.7860215, -6.2401858], [106.786125, -6.2397081], [106.7858965, -6.2396592], [106.7856184, -6.2395997]], "type": "LineString"}, "id": 157359661, "properties": {"access:roof": "no", "addr:full": "Jln. Gandaria Tengah I", "amenity": "hospital", "building": "yes", "building:levels": "2", "building:roof": "tile", "building:structure": "reinforced_masonry", "building:walls": "brick", "capacity:persons": "Fix me", "operator:type": "private", "rooms": "Fix Me"}, "type": "Feature"}, {"geometry": {"coordinates": [[106.8352608, -6.2103777], [106.8351954, -6.2104527], [106.8350103, -6.2102807], [106.8350878, -6.2102077], [106.8352608, -6.2103777]], "type": "LineString"}, "id": 157360778, "properties": {"access:roof": "yes", "addr:full": "jalan Guntur rt 01 rw 01", "amenity": "hospital", "building": "yes", "building:levels": "2", "building:roof": "tile", "building:structure": "reinforced_masonry", "building:walls": "brick", "capacity:persons": "150", "name": "Rumah Bersalin Budi Kemuliaan", "operator:type": "private", "rooms": "30"}, "type": "Feature"}, {"geometry": {"coordinates": [[106.7658167, -6.2694103], [106.7671813, -6.2695681], [106.7672513, -6.2686745], [106.7673205, -6.2680336], [106.7673455, -6.2678023], [106.7674236, -6.2668685], [106.7674536, -6.2663425], [106.7661899, -6.2662706], [106.76603, -6.2674473], [106.765912, -6.2683895], [106.7658167, -6.2694103]], "type": "LineString"}, "id": 157360934, "properties": {"access:roof": "no", "addr:full": "Jl. RC Veteran", "amenity": "hospital", "building": "hospital", "building:levels": "3", "building:roof": "tile", "building:structure": "reinforced_masonry", "building:walls": "brick", "name": "Rumah Sakit Dr. Suyoto", "operator:type": "private", "short_name": "RS Dr. Suyoto"}, "type": "Feature"}, {"geometry": {"coordinates": [[106.8389919, -6.2727201], [106.8389529, -6.2727899], [106.8391967, -6.2730826], [106.8393, -6.2730166], [106.8395146, -6.2730089], [106.8394814, -6.2728306], [106.839382, -6.2728364], [106.8393898, -6.2727511], [106.8392318, -6.272753], [106.8392259, -6.2726794], [106.8389919, -6.2727201]], "type": "LineString"}, "id": 157363185, "properties": {"access:roof": "yes", "amenity": "hospital", "building": "hospital", "building:levels": "2", "building:roof": "tile", "building:structure": "reinforced_masonry", "building:walls": "brick", "name": "RS SIAGA", "operator:type": "private"}, "type": "Feature"}, {"geometry": {"coordinates": [[106.832239, -6.2543164], [106.8323911, -6.254301], [106.8324396, -6.2543492], [106.8324462, -6.2544456], [106.8325101, -6.2544456], [106.832519, -6.2545267], [106.8324572, -6.2545333], [106.8324837, -6.254781], [106.8322434, -6.2547919], [106.8322169, -6.2543164], [106.832239, -6.2543164]], "type": "LineString"}, "id": 157364894, "properties": {"access:roof": "yes", "addr:full": "jl.raya duren tiga", "amenity": "hospital", "building": "hospital", "building:levels": "4-7", "building:roof": "tile", "building:structure": "reinforced_masonry", "building:walls": "brick", "name": "Rs.Asri", "operator:type": "private"}, "type": "Feature"}, {"geometry": {"coordinates": [[106.7702922, -6.2381088], [106.7702266, -6.2381108], [106.7702226, -6.2382827], [106.7701729, -6.2382827], [106.7701868, -6.2381266], [106.7700994, -6.2381207], [106.7700914, -6.2381918], [106.7701332, -6.2381977], [106.7701312, -6.2382471], [106.7699623, -6.2382392], [106.7699563, -6.2383696], [106.7702922, -6.2383439], [106.7702922, -6.2381088]], "type": "LineString"}, "id": 157366793, "properties": {"addr:full": "Jl. Ciledur Raya 94-96", "amenity": "hospital", "building": "yes", "building:levels": "2", "building:roof": "tile", "building:structure": "reinforced_masonry", "building:walls": "brick", "capacity:persons": "200", "name": "RS Bersalin Kartini", "operator:type": "private"}, "type": "Feature"}, {"geometry": {"coordinates": [[106.8072714, -6.2573587], [106.8077741, -6.2573508], [106.8077771, -6.2575418], [106.8072744, -6.2575496], [106.8072714, -6.2573587]], "type": "LineString"}, "id": 157367038, "properties": {"access:roof": "yes", "addr:full": "JL. TAMAN BRAWIJAYA NO.1", "amenity": "hospital", "building": "hospital", "building:levels": "4-7", "building:roof": "tile", "building:structure": "reinforced_masonry", "building:walls": "brick", "name": "RS. WOMEN CHILDREEN", "operator:type": "private"}, "type": "Feature"}, {"geometry": {"coordinates": [[106.7835764, -6.2401112], [106.7840194, -6.2401749], [106.78397, -6.2405252], [106.7835306, -6.2404697], [106.7835764, -6.2401112]], "type": "LineString"}, "id": 157367793, "properties": {"access:roof": "yes", "addr:full": "Jl. Sultan Iskandar Muda", "amenity": "hospital", "building": "yes", "building:levels": "4-7", "building:roof": "tile", "building:structure": "reinforced_masonry", "building:walls": "brick", "capacity:persons": "500", "operator:type": "government"}, "type": "Feature"}, {"geometry": {"coordinates": [[106.8266795, -6.2492895], [106.8267251, -6.2494764], [106.8269349, -6.2494258], [106.8268893, -6.2492389], [106.8266795, -6.2492895]], "type": "LineString"}, "id": 157397564, "properties": {"access:roof": "yes", "amenity": "hospital", "building": "yes", "building:levels": "3", "building:roof": "concrete", "building:structure": "confined_masonry", "building:walls": "brick", "capacity:persons": "100", "name": "JMC", "operator:type": "private", "rooms": "20"}, "type": "Feature"}, {"geometry": {"coordinates": [[106.7939698, -6.1431435], [106.7940445, -6.1431411], [106.7940472, -6.1432226], [106.7939726, -6.1432251], [106.7939698, -6.1431435]], "type": "LineString"}, "id": 173254155, "properties": {"amenity": "hospital", "building": "hospital", "name": "Lab. Klinik Etika", "operator:type": "private"}, "type": "Feature"}, {"geometry": {"coordinates": [[106.8037318, -6.2776171], [106.803724, -6.2778666], [106.8038443, -6.2778692], [106.8038482, -6.277621], [106.8037318, -6.2776171]], "type": "LineString"}, "id": 173958680, "properties": {"amenity": "hospital", "name": "Klinik Cipete"}, "type": "Feature"}, {"geometry": {"coordinates": [[106.9133378, -6.2826914], [106.9137028, -6.282653], [106.9137376, -6.2830408], [106.9133919, -6.2830754], [106.9133378, -6.2826914]], "type": "LineString"}, "id": 174000152, "properties": {"amenity": "hospital", "name": "Puskesmas Pondok Gede"}, "type": "Feature"}, {"geometry": {"coordinates": [[106.8854363, -6.1962629], [106.885424, -6.1963485], [106.8853256, -6.1963567], [106.8853215, -6.1964953], [106.8855594, -6.1964994], [106.8855594, -6.1962262], [106.8854363, -6.1962629]], "type": "LineString"}, "id": 174132866, "properties": {"amenity": "hospital", "building": "hospital", "name": "Rumah Sakit Rawamangun"}, "type": "Feature"}, {"geometry": {"coordinates": [[106.8719557, -6.2078656], [106.8720484, -6.2078699], [106.8720561, -6.2077046], [106.8719635, -6.2077003], [106.8719557, -6.2078656]], "type": "LineString"}, "id": 191511789, "properties": {"amenity": "hospital", "emergency": "no", "name": "Puskesmas Utan Kayu Selatan"}, "type": "Feature"}, {"geometry": {"coordinates": [[106.7351301, -6.1863956], [106.7352266, -6.1864542], [106.73535, -6.1864862], [106.735468, -6.1864596], [106.73557, -6.1863902], [106.7355861, -6.1858676], [106.7354949, -6.1858249], [106.7353822, -6.1857983], [106.7352642, -6.1857876], [106.7351676, -6.1858303], [106.7351247, -6.1858569], [106.7351301, -6.1863956]], "type": "LineString"}, "id": 192006387, "properties": {"amenity": "hospital", "emergency": "yes"}, "type": "Feature"}, {"geometry": {"coordinates": [[106.9719704, -6.2684136], [106.9719074, -6.2691901], [106.9723961, -6.269229], [106.9724498, -6.2684612], [106.9719704, -6.2684136]], "type": "LineString"}, "id": 197883356, "properties": {"amenity": "hospital", "name": "RS Hermina Galaxy"}, "type": "Feature"}, {"geometry": {"coordinates": [[106.7631171, -6.1905158], [106.7631502, -6.1911135], [106.7643801, -6.1910751], [106.7643691, -6.1904555], [106.7631171, -6.1905158]], "type": "LineString"}, "id": 225098529, "properties": {"amenity": "hospital", "building": "yes", "name": "RS Siloam", "name:en": "Kebun Jeruk"}, "type": "Feature"}, {"geometry": {"coordinates": [[106.7819842, -6.3212236], [106.7821976, -6.3222843], [106.7836503, -6.3219558], [106.7835471, -6.3212989], [106.7829894, -6.3213878], [106.7828861, -6.3207446], [106.7824937, -6.3208404], [106.7825281, -6.3210936], [106.7819842, -6.3212236]], "type": "LineString"}, "id": 225103500, "properties": {"amenity": "hospital", "building": "yes", "name": "RS Puri Cinere"}, "type": "Feature"}, {"geometry": {"coordinates": [[106.8850594, -6.1963147], [106.8851705, -6.196312], [106.8851732, -6.1964199], [106.8850622, -6.1964227], [106.8850594, -6.1963147]], "type": "LineString"}, "id": 230174470, "properties": {"amenity": "hospital", "building": "hospital", "name": "Rumah Sakit Rawamangun"}, "type": "Feature"}, {"geometry": {"coordinates": [[106.8488517, -6.2019311], [106.8488142, -6.2021254], [106.8488745, -6.2021335], [106.8489184, -6.2020801], [106.8490096, -6.2019506], [106.8488842, -6.201936], [106.8488517, -6.2019311]], "type": "LineString"}, "id": 235435171, "properties": {"amenity": "hospital", "building": "yes", "name": "Klinik Mata Talang"}, "type": "Feature"}, {"geometry": {"coordinates": [[106.907836, -6.1167546], [106.9079057, -6.11676], [106.9079071, -6.1168293], [106.9078346, -6.116824], [106.907836, -6.1167546]], "type": "LineString"}, "id": 244652432, "properties": {"amenity": "hospital", "building": "yes", "emergency": "no", "name": "Bidan Rusyanti"}, "type": "Feature"}, {"geometry": {"coordinates": [[106.9062321, -6.1288712], [106.9067124, -6.1288061], [106.906807, -6.1292837], [106.9063267, -6.1294284], [106.9062321, -6.1288712]], "type": "LineString"}, "id": 244985550, "properties": {"amenity": "hospital", "building": "yes", "name": "Rumah Sakit Mulyasari"}, "type": "Feature"}, {"geometry": {"coordinates": [[106.9065132, -6.1138262], [106.9066178, -6.1138448], [106.9066124, -6.1139728], [106.9065078, -6.1139702], [106.9065132, -6.1138262]], "type": "LineString"}, "id": 244985557, "properties": {"amenity": "hospital", "building": "yes", "name": "Klinik Umum Yakri"}, "type": "Feature"}, {"geometry": {"coordinates": [[106.8995176, -6.1091317], [106.9005127, -6.1092597], [106.9006112, -6.1083852], [106.8995407, -6.10829], [106.8995176, -6.1091317]], "type": "LineString"}, "id": 244985558, "properties": {"amenity": "hospital", "building": "yes", "name": "Rumah Sakit Umum Daerah (RSUD) Koja"}, "type": "Feature"}, {"geometry": {"coordinates": [[106.7373631, -6.1320125], [106.7370466, -6.1322365], [106.7368695, -6.1320205], [106.736942, -6.1319618], [106.7369178, -6.1319245], [106.7369956, -6.1318551], [106.7370627, -6.1318151], [106.7370895, -6.1318498], [106.7371207, -6.1318294], [106.7371472, -6.1318122], [106.7371834, -6.1317885], [106.7373631, -6.1320125]], "type": "LineString"}, "id": 249665587, "properties": {"addr:city": "RW 17", "addr:postcode": "11730", "addr:street": "Kamal Raya Outer Ring Road (Kamal - Kapuk)", "amenity": "hospital", "building": "yes", "emergency": "yes", "evacuation_center": "no", "flood_prone": "yes", "level": "3", "name": "RS Cinta Kasih Tzu Chi", "operator": "Yayasan Budha Tzu Chi Medika"}, "type": "Feature"}, {"geometry": {"coordinates": [[106.8560722, -6.2254366], [106.8561936, -6.225462], [106.8561829, -6.2255133], [106.8560595, -6.225486], [106.8560722, -6.2254366]], "type": "LineString"}, "id": 250081709, "properties": {"addr:street": "KH Abdul Syafi'ie", "amenity": "hospital", "building": "yes", "name": "An-Nur Medical Centre"}, "type": "Feature"}, {"geometry": {"coordinates": [[106.8549612, -6.2267068], [106.8549561, -6.2265708], [106.8551448, -6.2265639], [106.8551498, -6.2266998], [106.8549612, -6.2267068]], "type": "LineString"}, "id": 250089371, "properties": {"amenity": "hospital", "building": "yes", "name": "Dokter Gigi Kusumastuty"}, "type": "Feature"}, {"geometry": {"coordinates": [[106.7780616, -6.2496672], [106.7786264, -6.2496418], [106.7787174, -6.2497577], [106.7787272, -6.249797], [106.7780895, -6.2498411], [106.7780616, -6.2496672]], "type": "LineString"}, "id": 250183795, "properties": {"addr:city": "Jakarta Selatan", "addr:postcode": "12240", "addr:street": "Ciputat Raya", "amenity": "hospital", "building": "yes", "emergency": "yes", "name": "Puskesmas Kebayoran Lama"}, "type": "Feature"}, {"geometry": {"coordinates": [[106.8779473, -6.2826695], [106.8779406, -6.2827166], [106.877992, -6.2827273], [106.8779988, -6.2826816], [106.8779473, -6.2826695]], "type": "LineString"}, "id": 274193872, "properties": {"amenity": "hospital", "name": "apotek medi Z"}, "type": "Feature"}, {"geometry": {"coordinates": [[106.8784208, -6.2777302], [106.878256, -6.2779414], [106.8787374, -6.2783812], [106.8789803, -6.2779587], [106.8784208, -6.2777302]], "type": "LineString"}, "id": 274194243, "properties": {"amenity": "hospital", "name": "slb suprapto"}, "type": "Feature"}, {"geometry": {"coordinates": [[106.8778472, -6.2837154], [106.8778451, -6.2837466], [106.8778963, -6.2837466], [106.8778984, -6.2837113], [106.8778472, -6.2837154]], "type": "LineString"}, "id": 274194557, "properties": {"amenity": "hospital", "name": "Bidan Titin"}, "type": "Feature"}, {"geometry": {"coordinates": [[106.8832517, -6.2032409], [106.8834074, -6.2032409], [106.8833968, -6.2036491], [106.8832234, -6.203628], [106.8832517, -6.2032409]], "type": "LineString"}, "id": 274482666, "properties": {"addr:city": "Jakarta Timur", "addr:housenumber": "No. 1", "addr:postcode": "13230", "addr:street": "Jalan Persahabatan", "amenity": "hospital", "emergency": "yes", "name": "Gedung Asma RS Persahabatan Jakarta"}, "type": "Feature"}, {"geometry": {"coordinates": [[106.7308618, -6.2646848], [106.7307418, -6.2646667], [106.7304953, -6.2646309], [106.7302702, -6.2645998], [106.7302817, -6.2643239], [106.730694, -6.2643471], [106.7309117, -6.2643591], [106.7308962, -6.26446], [106.7308618, -6.2646848]], "type": "LineString"}, "id": 301869610, "properties": {"amenity": "hospital", "area": "yes", "emergency": "yes", "name": "Puskesmas Jurangmangu TImur"}, "type": "Feature"}, {"geometry": {"coordinates": [[106.9229915, -6.2342876], [106.9232765, -6.2342924], [106.9232618, -6.2346065], [106.922985, -6.2345951], [106.9229915, -6.2342876]], "type": "LineString"}, "id": 304604828, "properties": {"amenity": "hospital", "name": "RSIA SEKAR"}, "type": "Feature"}, {"geometry": {"coordinates": [[106.7386808, -6.1231303], [106.7387528, -6.1230394], [106.7389686, -6.1231989], [106.7388937, -6.1232913], [106.7387813, -6.1232138], [106.7387393, -6.1232719], [106.7386763, -6.1232287], [106.7387243, -6.123172], [106.7386808, -6.1231303]], "type": "LineString"}, "id": 314067037, "properties": {"amenity": "hospital", "building": "yes", "evacuation_center": "no", "flood_prone": "no", "name": "Rumah Sakit Grand Family"}, "type": "Feature"}, {"geometry": {"coordinates": [[106.793877, -6.3144725], [106.7939232, -6.3144047], [106.7944958, -6.3144088], [106.7944911, -6.314794], [106.7938293, -6.3147977], [106.7938302, -6.3147118], [106.7937852, -6.3147111], [106.793797, -6.3145798], [106.7938332, -6.3145098], [106.793877, -6.3144725]], "type": "LineString"}, "id": 314070585, "properties": {"amenity": "hospital", "building": "yes", "flood_prone": "no", "name": "RS Prikasih"}, "type": "Feature"}, {"geometry": {"coordinates": [[106.7830229, -6.1198076], [106.7832345, -6.1198434], [106.783194, -6.1201657], [106.783134, -6.1201613], [106.7831205, -6.1202463], [106.7829524, -6.1202239], [106.7830229, -6.1198076]], "type": "LineString"}, "id": 314513966, "properties": {"amenity": "hospital", "building": "yes", "evacuation_center": "no", "flood_prone": "no", "name": "AMC (Advance Medical Center)"}, "type": "Feature"}, {"geometry": {"coordinates": [[106.765162, -6.167884], [106.7651338, -6.1682335], [106.764698, -6.1681916], [106.7646839, -6.168364], [106.7652838, -6.1684339], [106.7653307, -6.167926], [106.765162, -6.167884]], "type": "LineString"}, "id": 315413743, "properties": {"amenity": "hospital", "building": "yes", "evacuation_center": "no", "flood_prone": "no", "name": "RS Grha Kedoya"}, "type": "Feature"}, {"geometry": {"coordinates": [[106.87027, -6.2465918], [106.8701938, -6.246571], [106.870347, -6.2460161], [106.8707714, -6.2461318], [106.8706182, -6.2466868], [106.8704803, -6.2466492], [106.8704458, -6.2467939], [106.8704264, -6.24687], [106.8704858, -6.246885], [106.8704374, -6.2470746], [106.8703745, -6.2470587], [106.8703481, -6.2471624], [106.8700688, -6.247092], [106.8700789, -6.2470528], [106.8700195, -6.2470378], [106.8700758, -6.2468169], [106.8701356, -6.2468319], [106.8701464, -6.2467897], [106.8702096, -6.2468056], [106.8702266, -6.2467387], [106.87027, -6.2465918]], "type": "LineString"}, "id": 315857307, "properties": {"amenity": "hospital", "building": "yes", "evacuation_center": "no", "flood_prone": "yes", "name": "Rumah Sakit Pusat Otak dan Stroke"}, "type": "Feature"}, {"geometry": {"coordinates": [[106.7624479, -6.2323019], [106.7625182, -6.2322912], [106.7625128, -6.2323664], [106.7626534, -6.2323718], [106.7626374, -6.2324658], [106.7624429, -6.2324681], [106.7624479, -6.2323019]], "type": "LineString"}, "id": 334958356, "properties": {"amenity": "hospital", "building": "yes", "evacuation_center": "no", "flood_prone": "no", "name": "RSB Afisena"}, "type": "Feature"}, {"geometry": {"coordinates": [[106.924309, -6.1450703], [106.9243218, -6.1458986], [106.9236949, -6.1459082], [106.923682, -6.14508], [106.924309, -6.1450703]], "type": "LineString"}, "id": 334982120, "properties": {"amenity": "hospital", "building": "yes", "evacuation_center": "no", "flood_prone": "no", "name": "Rumah Sakit Pekerja"}, "type": "Feature"}, {"geometry": {"coordinates": [[106.7116965, -6.1525692], [106.7117164, -6.1532413], [106.7126641, -6.1532347], [106.7129976, -6.1531754], [106.7125978, -6.1525648], [106.7116965, -6.1525692]], "type": "LineString"}, "id": 344086020, "properties": {"amenity": "hospital"}, "type": "Feature"}, {"geometry": {"coordinates": [[106.7843386, -6.2921426], [106.7847074, -6.2922406], [106.784655, -6.2924355], [106.7842861, -6.2923375], [106.7843386, -6.2921426]], "type": "LineString"}, "id": 351209453, "properties": {"amenity": "hospital", "building": "yes", "emergency": "yes", "name": "Siloam Hospitals Simatupang"}, "type": "Feature"}, {"geometry": {"coordinates": [[106.785797, -6.2984903], [106.7860249, -6.2984074], [106.7861414, -6.2987241], [106.7864725, -6.2986038], [106.7865557, -6.2988297], [106.7859966, -6.2990329], [106.785797, -6.2984903]], "type": "LineString"}, "id": 351280939, "properties": {"amenity": "hospital", "emergency": "yes", "name": "Mayapada Hospital"}, "type": "Feature"}, {"geometry": {"coordinates": [[106.7510145, -6.2782044], [106.7510233, -6.2783273], [106.7513105, -6.2783625], [106.7513326, -6.2781649], [106.7510145, -6.2782044]], "type": "LineString"}, "id": 373166946, "properties": {"amenity": "hospital", "name": "Puskesmas Rengas"}, "type": "Feature"}, {"geometry": {"coordinates": [[106.9693475, -6.0978525], [106.9693551, -6.0979008], [106.9693786, -6.0978971], [106.969371, -6.0978489], [106.9693475, -6.0978525]], "type": "LineString"}, "id": 376783162, "properties": {"amenity": "hospital", "building": "yes", "building:condition": "good", "building:levels": "1", "building:roof": "asbestos", "building:walls": "brick", "flood_prone": "yes", "hospital:type_idn": "puskesmas", "name": "Posyandu"}, "type": "Feature"}, {"geometry": {"coordinates": [[106.9636244, -6.0997925], [106.9636365, -6.0998293], [106.9636576, -6.0998231], [106.9636462, -6.0997863], [106.9636244, -6.0997925]], "type": "LineString"}, "id": 378081371, "properties": {"addr:full": "Jalan Marunda Empang", "amenity": "hospital", "building": "yes", "building:condition": "poor", "building:levels": "1", "building:roof": "asbestos", "building:walls": "brick", "flood_prone": "yes", "hospital:type_idn": "puskesmas", "name": "Posyandu Karang Hijau"}, "type": "Feature"}, {"geometry": {"coordinates": [[106.8666275, -6.1693887], [106.866686, -6.169306], [106.8667777, -6.1693719], [106.8667292, -6.1694561], [106.8666275, -6.1693887]], "type": "LineString"}, "id": 381675606, "properties": {"amenity": "hospital", "name": "Klinik Agape"}, "type": "Feature"}, {"geometry": {"coordinates": [[106.6929612, -6.3052586], [106.6931516, -6.3057344], [106.6929329, -6.3058209], [106.6927425, -6.305345], [106.6929612, -6.3052586]], "type": "LineString"}, "id": 402025659, "properties": {"amenity": "hospital", "building": "yes"}, "type": "Feature"}, {"geometry": {"coordinates": [[106.8318081, -6.2009675], [106.8317556, -6.201098], [106.8319357, -6.2011696], [106.8319882, -6.2010391], [106.8318081, -6.2009675]], "type": "LineString"}, "id": 449624401, "properties": {"amenity": "hospital", "emergency": "yes", "name": "Rumah Sehat Masjid Agung Sunda Kelapa", "operator": "BAZNAS"}, "type": "Feature"}, {"geometry": {"coordinates": [[106.8554959, -6.2000117], [106.8553038, -6.2001699], [106.8552829, -6.2001447], [106.8551954, -6.2002168], [106.8552292, -6.2002574], [106.8551482, -6.2003241], [106.8552372, -6.200431], [106.8555978, -6.2001341], [106.8554959, -6.2000117]], "type": "LineString"}, "id": 454014924, "properties": {"access:roof": "yes", "addr:full": "Jalan Matraman Raya", "amenity": "hospital", "building": "hospital", "building:levels": "9", "building:roof": "concrete", "building:structure": "confined_masonry", "building:walls": "brick", "capacity": "1000", "name": "Rumah Sakit Jantung Jakarta", "operator:type": "private"}, "type": "Feature"}, {"geometry": {"coordinates": [[106.870687, -6.2468939], [106.8707176, -6.246749], [106.8709992, -6.2468076], [106.8709687, -6.2469525], [106.870687, -6.2468939]], "type": "LineString"}, "id": 481918111, "properties": {"amenity": "hospital", "building": "yes", "evacuation_center": "no", "flood_prone": "yes", "name": "Rumah Sakit Pusat Otak dan Stroke"}, "type": "Feature"}, {"geometry": {"coordinates": [[106.8302895, -6.2711495], [106.8304049, -6.2711575], [106.8303962, -6.2712807], [106.8302809, -6.2712727], [106.8302895, -6.2711495]], "type": "LineString"}, "id": 482191824, "properties": {"access:roof": "no", "addr:full": "jl kalibata pulo rt0w 5", "amenity": "hospital", "building": "yes", "building:levels": ">7", "building:roof": "tile", "building:structure": "reinforced_masonry", "building:walls": "brick", "capacity:persons": "500", "name": "rumah sakit JMC", "operator:type": "private", "rooms": "200"}, "type": "Feature"}, {"geometry": {"coordinates": [[106.8336106, -6.2395698], [106.834033, -6.2397352], [106.8338607, -6.24017], [106.8336964, -6.2401057], [106.8337712, -6.2399171], [106.8337115, -6.2397677], [106.8335562, -6.2397069], [106.8336106, -6.2395698]], "type": "LineString"}, "id": 482391293, "properties": {"addr:full": "Jl. Gatot Subroto", "amenity": "hospital", "building": "hospital", "building:levels": "5", "building:roof": "concrete", "building:structure": "confined_masonry", "building:use": "medical", "building:walls": "brick", "name": "RS Medistra", "operator:type": "private"}, "type": "Feature"}], "type": "FeatureCollection"}