{
  "version": 0.6,
  "generator": "Overpass API",
  "osm3s": {
    "timestamp_osm_base": "2017-04-04T16:42:01Z",
    "copyright": "The data included in this document is from www.openstreetmap.org. The data is made available under ODbL."
  },
  "elements": [

{
  "type": "node",
  "id": 309730932,
  "lat": -6.2413893,
  "lon": 106.7928178,
  "timestamp": "2016-06-16T02:37:19Z",
  "version": 6,
  "changeset": 40051250,
  "user": "bleutaxi",
  "uid": 3873184,
  "tags": {
    "addr:city": "East Jakarta",
    "addr:housenumber": "No.43, RT.4/RW.8",
    "addr:postcode": "12120",
    "addr:street": "Jl. Kyai Maja, Gunung, Kby. Baru",
    "amenity": "hospital",
    "name": "Rumah Sakit Pusat Pertamina"
  }
},
{
  "type": "node",
  "id": 315471556,
  "lat": -6.1961948,
  "lon": 106.8366543,
  "timestamp": "2016-06-16T04:04:13Z",
  "version": 3,
  "changeset": 40051868,
  "user": "bleutaxi",
  "uid": 3873184,
  "tags": {
    "addr:city": "Central Jakarta",
    "addr:housenumber": "No.21, RT.9/RW.2",
    "addr:postcode": "10350",
    "addr:street": "Jalan Teuku Cik Ditiro",
    "amenity": "hospital",
    "name": "RS Bunda"
  }
},
{
  "type": "node",
  "id": 316452691,
  "lat": -6.2109388,
  "lon": 106.8122810,
  "timestamp": "2016-04-26T08:47:47Z",
  "version": 2,
  "changeset": 38879799,
  "user": "bleutan",
  "uid": 3873179,
  "tags": {
    "addr:city": "Central Jakarta",
    "addr:housenumber": "No.17",
    "addr:postcode": "10210",
    "addr:street": "Jl. Bendungan Hilir",
    "amenity": "hospital",
    "name": "RS Mintohardjo"
  }
},
{
  "type": "node",
  "id": 318076629,
  "lat": -6.1713170,
  "lon": 106.8104915,
  "timestamp": "2016-06-16T02:47:42Z",
  "version": 3,
  "changeset": 40051310,
  "user": "bleutaxi",
  "uid": 3873184,
  "tags": {
    "amenity": "hospital",
    "name": "Rumah Sakit Umum Daerah Tarakan"
  }
},
{
  "type": "node",
  "id": 318702081,
  "lat": -6.1630869,
  "lon": 106.7891175,
  "timestamp": "2016-06-16T03:49:51Z",
  "version": 3,
  "changeset": 40051764,
  "user": "bleutaxi",
  "uid": 3873184,
  "tags": {
    "addr:city": "West Jakarta",
    "addr:housenumber": "1",
    "addr:postcode": "11460",
    "addr:street": "Jalan Professor Doktor Latumenten",
    "amenity": "hospital",
    "name": "RSJ Grogol"
  }
},
{
  "type": "node",
  "id": 321545603,
  "lat": -6.1662933,
  "lon": 106.7854469,
  "timestamp": "2016-06-16T02:38:15Z",
  "version": 3,
  "changeset": 40051254,
  "user": "bleutaxi",
  "uid": 3873184,
  "tags": {
    "addr:city": "West Jakarta",
    "addr:housenumber": "No.34",
    "addr:postcode": "11470",
    "addr:street": "Jalan Daan Mogot",
    "amenity": "hospital",
    "name": "Rumah Sakit Royal Taruma"
  }
},
{
  "type": "node",
  "id": 328229518,
  "lat": -6.1709983,
  "lon": 106.8714192,
  "timestamp": "2016-06-24T08:50:06Z",
  "version": 4,
  "changeset": 40254386,
  "user": "bleumeltha",
  "uid": 3873217,
  "tags": {
    "addr:city": "Central Jakarta",
    "addr:housenumber": "RT.11/RW.5",
    "addr:postcode": "10520",
    "addr:street": "Jl. Cemp. Putih Tengah,",
    "amenity": "hospital",
    "name": "RS Islam Jakarta"
  }
},
{
  "type": "node",
  "id": 347198105,
  "lat": -6.1255216,
  "lon": 106.7994878,
  "timestamp": "2016-06-24T06:57:16Z",
  "version": 3,
  "changeset": 40251970,
  "user": "bleumeltha",
  "uid": 3873217,
  "tags": {
    "addr:city": "North Jakarta",
    "addr:housenumber": "Nomor 2",
    "addr:postcode": "14450",
    "addr:street": "Jalan Raya Pluit Selatan",
    "amenity": "hospital",
    "name": "Rumah Sakit Pluit"
  }
},
{
  "type": "node",
  "id": 356145261,
  "lat": -6.2574779,
  "lon": 106.8078807,
  "timestamp": "2016-06-13T07:23:14Z",
  "version": 3,
  "changeset": 39985834,
  "user": "blueueto",
  "uid": 3873099,
  "tags": {
    "addr:city": "Cipete Utara, Kby. Baru, South Jakarta",
    "addr:housenumber": "No.1, RT.3/RW.3",
    "addr:postcode": "12150",
    "addr:street": "Jl. Taman Brawijaya II",
    "amenity": "hospital",
    "name": "Brawijaya Women and Children Hospital"
  }
},
{
  "type": "node",
  "id": 370801706,
  "lat": -6.1123203,
  "lon": 106.7528548,
  "timestamp": "2016-06-16T06:21:42Z",
  "version": 2,
  "changeset": 40053433,
  "user": "bleutaxi",
  "uid": 3873184,
  "tags": {
    "addr:city": "North Jakarta",
    "addr:housenumber": "3",
    "addr:postcode": "14460",
    "addr:street": "Jl. Pantai Indah Utara, Kapuk Muara Penjaringan",
    "amenity": "hospital",
    "name": "RS Pantai Indah Kapuk"
  }
},
{
  "type": "node",
  "id": 393097996,
  "lat": -6.1292473,
  "lon": 106.8524909,
  "timestamp": "2009-05-10T08:44:04Z",
  "version": 1,
  "changeset": 1135859,
  "user": "Firman Hadi",
  "uid": 76518,
  "tags": {
    "amenity": "hospital",
    "name": "RS Ancol"
  }
},
{
  "type": "node",
  "id": 396646055,
  "lat": -6.1304754,
  "lon": 106.8619872,
  "timestamp": "2016-06-16T03:50:45Z",
  "version": 2,
  "changeset": 40051771,
  "user": "bleutaxi",
  "uid": 3873184,
  "tags": {
    "addr:city": "North Jakarta",
    "addr:postcode": "14340",
    "addr:street": "Jl. Sunter Permai Raya, Papanggo",
    "amenity": "hospital",
    "name": "RS Sulianto Saroso"
  }
},
{
  "type": "node",
  "id": 401426991,
  "lat": -6.1455577,
  "lon": 106.8611598,
  "timestamp": "2009-05-16T06:38:02Z",
  "version": 1,
  "changeset": 1206152,
  "user": "Firman Hadi",
  "uid": 76518,
  "tags": {
    "amenity": "hospital",
    "name": "RS Hermina"
  }
},
{
  "type": "node",
  "id": 408210669,
  "lat": -6.1250021,
  "lon": 106.9170280,
  "timestamp": "2016-06-15T11:21:23Z",
  "version": 3,
  "changeset": 40036511,
  "user": "bleutaxi",
  "uid": 3873184,
  "tags": {
    "addr:city": "North Jakarta",
    "addr:housenumber": "1",
    "addr:postcode": "14260",
    "addr:street": "Jl. Kramat Jaya Raya, RT.5/RW.14, Tugu Utara, Koja,",
    "amenity": "hospital",
    "name": "Rumah Sakit Pelabuhan Jakarta"
  }
},
{
  "type": "node",
  "id": 409469894,
  "lat": -6.1528807,
  "lon": 106.7125761,
  "timestamp": "2016-06-15T08:23:35Z",
  "version": 2,
  "changeset": 40033697,
  "user": "bleutaxi",
  "uid": 3873184,
  "tags": {
    "addr:city": "West Jakarta",
    "addr:housenumber": "2",
    "addr:postcode": "11840",
    "addr:street": "Jl. Kintamani Raya , RT.1/RW.12, Kalideres",
    "amenity": "hospital",
    "name": "RS Hermina Daan Mogot"
  }
},
{
  "type": "node",
  "id": 1170849783,
  "lat": -6.3077980,
  "lon": 106.7564242,
  "timestamp": "2011-02-24T20:15:41Z",
  "version": 1,
  "changeset": 7384903,
  "user": "Wirapati",
  "uid": 354205,
  "tags": {
    "amenity": "hospital",
    "name": "Klinik UIN Jakarta"
  }
},
{
  "type": "node",
  "id": 1256938453,
  "lat": -6.3213835,
  "lon": 106.7465576,
  "timestamp": "2011-04-24T10:15:01Z",
  "version": 3,
  "changeset": 7951261,
  "user": "muhammadgyan",
  "uid": 437863,
  "tags": {
    "amenity": "hospital",
    "name": "Klinik Mama"
  }
},
{
  "type": "node",
  "id": 1256957650,
  "lat": -6.3099440,
  "lon": 106.7471693,
  "timestamp": "2011-04-23T18:03:09Z",
  "version": 1,
  "changeset": 7945859,
  "user": "muhammadgyan",
  "uid": 437863,
  "tags": {
    "amenity": "hospital",
    "emergency": "no",
    "name": "Puskesmas Ciputat"
  }
},
{
  "type": "node",
  "id": 1343092357,
  "lat": -6.1914360,
  "lon": 106.8419336,
  "timestamp": "2016-04-26T07:53:37Z",
  "version": 4,
  "changeset": 38878599,
  "user": "bleutaxi",
  "uid": 3873184,
  "tags": {
    "addr:city": "West Jakarta",
    "addr:housenumber": "No. 92 - 94",
    "addr:postcode": "11410",
    "addr:street": "Jalan Aipda KS. Tubun",
    "amenity": "hospital",
    "designation": "Rumah Sakit PGI Cikini",
    "emergency": "yes",
    "name": "Rumah Sakit PGI Cikini"
  }
},
{
  "type": "node",
  "id": 1456487381,
  "lat": -6.2746362,
  "lon": 106.8080679,
  "timestamp": "2016-09-08T03:38:19Z",
  "version": 2,
  "changeset": 41993395,
  "user": "@aurizasalim",
  "uid": 686074,
  "tags": {
    "amenity": "hospital",
    "name": "SOS"
  }
},
{
  "type": "node",
  "id": 1663995423,
  "lat": -6.1865787,
  "lon": 106.7351851,
  "timestamp": "2016-06-15T11:30:25Z",
  "version": 4,
  "changeset": 40036661,
  "user": "bleutaxi",
  "uid": 3873184,
  "tags": {
    "access:roof": "yes",
    "addr:city": "West Jakarta",
    "addr:housenumber": "Blok S-2",
    "addr:postcode": "11610",
    "addr:street": "Jalan Puri Indah Raya, Kembangan Selatan, Daerah Khusus Ibukota Jakarta",
    "amenity": "hospital",
    "building:levels": ">7",
    "building:roof": "concrete",
    "building:structure": "reinforced_masonry",
    "building:walls": "brick",
    "emergency": "no",
    "name": "RS Pondok Indah - Puri Indah",
    "operator:type": "private"
  }
},
{
  "type": "node",
  "id": 1674155181,
  "lat": -6.1270166,
  "lon": 106.8750325,
  "timestamp": "2012-03-14T04:14:44Z",
  "version": 1,
  "changeset": 10974281,
  "user": "kelurahanpapanggo1",
  "uid": 626743,
  "tags": {
    "amenity": "hospital",
    "name": "Puskesma I Papanggo"
  }
},
{
  "type": "node",
  "id": 1674159250,
  "lat": -6.1290540,
  "lon": 106.8738202,
  "timestamp": "2012-03-14T04:17:55Z",
  "version": 1,
  "changeset": 10974281,
  "user": "kelurahanpapanggo1",
  "uid": 626743,
  "tags": {
    "amenity": "hospital",
    "emergency": "yes",
    "name": "Puskesmas II Papanggo"
  }
},
{
  "type": "node",
  "id": 1675331031,
  "lat": -6.1560860,
  "lon": 106.7995081,
  "timestamp": "2012-03-15T05:10:29Z",
  "version": 2,
  "changeset": 10984893,
  "user": "kelurahan kalianyar",
  "uid": 629306,
  "tags": {
    "amenity": "hospital",
    "emergency": "no",
    "name": "Puskesmas Kel. kalianyar"
  }
},
{
  "type": "node",
  "id": 1675471403,
  "lat": -6.1722417,
  "lon": 106.8105843,
  "timestamp": "2016-04-26T06:16:55Z",
  "version": 2,
  "changeset": 38876771,
  "user": "bleutaxi",
  "uid": 3873184,
  "tags": {
    "access:roof": "yes",
    "addr:city": "Central Jakarta",
    "addr:full": "Jalan Caringin",
    "addr:housenumber": "Nomor 7",
    "addr:postcode": "10150",
    "addr:street": "Jl. Kyai Caringin, Cideng, Gambir",
    "amenity": "hospital",
    "building:levels": ">7",
    "building:roof": "concrete",
    "building:structure": "reinforced_masonry",
    "building:walls": "brick",
    "name": "RSUD Tarakan",
    "operator:type": "private"
  }
},
{
  "type": "node",
  "id": 1675471407,
  "lat": -6.1779942,
  "lon": 106.8105320,
  "timestamp": "2012-03-15T07:38:44Z",
  "version": 1,
  "changeset": 10985552,
  "user": "kharis_24",
  "uid": 617248,
  "tags": {
    "access:roof": "no",
    "amenity": "hospital",
    "building:levels": "1",
    "building:roof": "tile",
    "building:structure": "reinforced_masonry",
    "building:walls": "brick",
    "name": "Rumah Sakit bersalin",
    "operator:type": "private"
  }
},
{
  "type": "node",
  "id": 1682958719,
  "lat": -6.1938649,
  "lon": 106.8919957,
  "timestamp": "2012-04-11T09:31:59Z",
  "version": 3,
  "changeset": 11262415,
  "user": "emirhartato",
  "uid": 452826,
  "tags": {
    "access:roof": "yes",
    "addr:full": "Jl. Pemuda",
    "amenity": "hospital",
    "building": "yes",
    "building:levels": "2",
    "building:roof": "concrete",
    "building:structure": "reinforced_masonry",
    "building:walls": "brick",
    "capacity:persons": "FIX ME",
    "operator:type": "private",
    "rooms": "FIX ME"
  }
},
{
  "type": "node",
  "id": 1691655068,
  "lat": -6.1834246,
  "lon": 106.7835976,
  "timestamp": "2015-07-14T05:41:32Z",
  "version": 2,
  "changeset": 32619197,
  "user": "Serpico",
  "uid": 11618,
  "tags": {
    "access:roof": "no",
    "addr:housenumber": "25",
    "addr:postcode": "11470",
    "addr:street": "Jalan Tanjung Duren Raya",
    "amenity": "hospital",
    "building:levels": "1",
    "building:roof": "tile",
    "building:structure": "reinforced_masonry",
    "building:walls": "brick",
    "name": "Klinik Dr. Herdiman",
    "operator:type": "private"
  }
},
{
  "type": "node",
  "id": 1691655069,
  "lat": -6.1804375,
  "lon": 106.7837495,
  "timestamp": "2015-07-14T05:41:32Z",
  "version": 2,
  "changeset": 32619197,
  "user": "Serpico",
  "uid": 11618,
  "tags": {
    "access:roof": "no",
    "addr:housenumber": "2",
    "addr:street": "Jalan Tanjung Duren Raya",
    "amenity": "hospital",
    "building:levels": "1",
    "building:roof": "tile",
    "building:structure": "reinforced_masonry",
    "building:walls": "brick",
    "name": "Klinik Tomang",
    "operator:type": "private"
  }
},
{
  "type": "node",
  "id": 1695782292,
  "lat": -6.2445300,
  "lon": 106.7911179,
  "timestamp": "2012-04-11T09:32:01Z",
  "version": 3,
  "changeset": 11262415,
  "user": "emirhartato",
  "uid": 452826,
  "tags": {
    "access:roof": "no",
    "addr:full": "Jln Gandaria Tengah II",
    "amenity": "hospital",
    "building": "yes",
    "building:levels": "3",
    "building:roof": "tile",
    "building:structure": "reinforced_masonry",
    "building:walls": "brick",
    "capacity:persons": "150",
    "operator:type": "private",
    "rooms": "Fix Me"
  }
},
{
  "type": "node",
  "id": 1717114897,
  "lat": -6.1988388,
  "lon": 106.8459931,
  "timestamp": "2016-12-11T11:07:39Z",
  "version": 4,
  "changeset": 44320056,
  "user": "yakali ga kuy",
  "uid": 4697982,
  "tags": {
    "addr:city": "Central Jakarta",
    "addr:housenumber": "Nomor 71",
    "addr:postcode": "10430",
    "addr:street": "Jalan P Diponegoro",
    "amenity": "hospital",
    "name": "RSCM Kencana"
  }
},
{
  "type": "node",
  "id": 1777742761,
  "lat": -6.2815086,
  "lon": 106.7961351,
  "timestamp": "2016-06-16T02:40:50Z",
  "version": 3,
  "changeset": 40051276,
  "user": "bleutaxi",
  "uid": 3873184,
  "tags": {
    "addr:city": "South Jakarta",
    "addr:housenumber": "No.80-82",
    "addr:postcode": "12140",
    "addr:street": "Jalan Fatmawati",
    "amenity": "hospital",
    "name": "RS Setia Mitra"
  }
},
{
  "type": "node",
  "id": 2479742650,
  "lat": -6.1121401,
  "lon": 106.7710803,
  "timestamp": "2015-12-20T20:53:10Z",
  "version": 3,
  "changeset": 36073339,
  "user": "ChrissW-R1",
  "uid": 251543,
  "tags": {
    "addr:full": "MUARA ANGKE RW 01",
    "amenity": "hospital",
    "building": "yes",
    "building:condition": "good",
    "building:levels": "2",
    "building:use": "Posko Kesehatan",
    "hospital:type_idn": "puskesmas",
    "name": "PUSKESMAS KEL. PLUIT"
  }
},
{
  "type": "node",
  "id": 2479751949,
  "lat": -6.1090885,
  "lon": 106.7707653,
  "timestamp": "2015-12-20T20:53:08Z",
  "version": 3,
  "changeset": 36073339,
  "user": "ChrissW-R1",
  "uid": 251543,
  "tags": {
    "access:roof": "yes",
    "addr:full": "Jl.Pengasinan",
    "amenity": "hospital",
    "building": "yes",
    "building:condition": "good",
    "building:levels": "2",
    "building:use": "Posko Kesehatan",
    "name": "Klinik Paru-Paru"
  }
},
{
  "type": "node",
  "id": 2479752641,
  "lat": -6.1185351,
  "lon": 106.7964718,
  "timestamp": "2013-10-02T07:12:52Z",
  "version": 1,
  "changeset": 18138173,
  "user": "faisalpluit",
  "uid": 1762659,
  "tags": {
    "amenity": "hospital",
    "building:condition": "baik",
    "building:levels": "3",
    "hospital:type_idn": "puskesmas",
    "name": "klinik hemodialisislions"
  }
},
{
  "type": "node",
  "id": 2479752915,
  "lat": -6.1198611,
  "lon": 106.7831089,
  "timestamp": "2013-10-02T07:14:08Z",
  "version": 1,
  "changeset": 18138190,
  "user": "Suryadi Suryanullah",
  "uid": 1748649,
  "tags": {
    "access:roof": "yes",
    "addr:full": "Jl. Pluit Karang Timur",
    "amenity": "hospital",
    "building:condition": "good",
    "building:levels": "2",
    "name": "AMC (Advance Medical Center)"
  }
},
{
  "type": "node",
  "id": 2479762425,
  "lat": -6.1091268,
  "lon": 106.7753003,
  "timestamp": "2013-10-02T07:37:25Z",
  "version": 1,
  "changeset": 18138468,
  "user": "rose linggar",
  "uid": 1762656,
  "tags": {
    "addr:full": "jl.pluit karang ayu",
    "amenity": "hospital",
    "building:condition": "good",
    "building:levels": "1",
    "hospital:type_idn": "puskesmas",
    "name": "posyandu blibis"
  }
},
{
  "type": "node",
  "id": 2490616742,
  "lat": -6.1124033,
  "lon": 106.8025581,
  "timestamp": "2013-10-10T05:39:22Z",
  "version": 1,
  "changeset": 18275259,
  "user": "kintaniptr",
  "uid": 1762637,
  "tags": {
    "amenity": "hospital",
    "building:levels": "1",
    "name": "klinik muara baru"
  }
},
{
  "type": "node",
  "id": 2490616743,
  "lat": -6.1145151,
  "lon": 106.8027897,
  "timestamp": "2013-10-10T05:39:23Z",
  "version": 1,
  "changeset": 18275259,
  "user": "kintaniptr",
  "uid": 1762637,
  "tags": {
    "amenity": "hospital",
    "building:levels": "2",
    "name": "klinik umum rahim medika"
  }
},
{
  "type": "node",
  "id": 2490617752,
  "lat": -6.1296499,
  "lon": 106.8010066,
  "timestamp": "2013-10-10T05:41:47Z",
  "version": 1,
  "changeset": 18275278,
  "user": "Ramdani",
  "uid": 1762645,
  "tags": {
    "addr:full": "Ruko 33 Jalan Tanah Pasir",
    "amenity": "hospital",
    "building:condition": "good",
    "building:levels": "3",
    "hospital:type_idn": "puskesmas",
    "name": "Klinik Anggrek"
  }
},
{
  "type": "node",
  "id": 2565958371,
  "lat": -6.2257823,
  "lon": 106.8547392,
  "timestamp": "2013-12-05T08:33:21Z",
  "version": 1,
  "changeset": 19284960,
  "user": "MaulidaRaviola",
  "uid": 1830418,
  "tags": {
    "addr:city": "Jakarta Selatan",
    "addr:housename": "Jl.Tebet Utara Dalam",
    "addr:street": "Tebet Utara Dalam",
    "amenity": "hospital",
    "name": "Dokter Gigi Gunawan"
  }
},
{
  "type": "node",
  "id": 2567245926,
  "lat": -6.2385487,
  "lon": 106.9058271,
  "timestamp": "2015-11-14T08:07:31Z",
  "version": 3,
  "changeset": 35301589,
  "user": "wheelmap_visitor",
  "uid": 290680,
  "tags": {
    "addr:city": "Jakarta Timur",
    "addr:housename": "Sultan Soffat Asmawi",
    "addr:housenumber": "319",
    "addr:street": "Tutul 2",
    "amenity": "hospital",
    "emergency": "no",
    "name": "Sultan Soffat Asmawi \"Pijat & Urut Tulang\"",
    "note": "Sabtu Tutup, hari libur nasional tutup",
    "phone": "+62 21 8617011",
    "toilets:wheelchair": "yes",
    "wheelchair": "yes"
  }
},
{
  "type": "node",
  "id": 2640622526,
  "lat": -6.2930957,
  "lon": 106.9647392,
  "timestamp": "2014-01-28T06:08:04Z",
  "version": 1,
  "changeset": 20241475,
  "user": "Fajar_Wisnu_Hardono",
  "uid": 1902489,
  "tags": {
    "amenity": "hospital",
    "name": "Puskesmas Jatiasih"
  }
},
{
  "type": "node",
  "id": 2640697581,
  "lat": -6.3200517,
  "lon": 106.9500149,
  "timestamp": "2014-01-28T08:26:54Z",
  "version": 1,
  "changeset": 20242842,
  "user": "Fajar_Wisnu_Hardono",
  "uid": 1902489,
  "tags": {
    "amenity": "hospital",
    "emergency": "no",
    "name": "Puskesmas Jatiluhur"
  }
},
{
  "type": "node",
  "id": 2641717066,
  "lat": -6.2836939,
  "lon": 106.9675678,
  "timestamp": "2014-01-29T04:07:18Z",
  "version": 1,
  "changeset": 20258487,
  "user": "Fajar_Wisnu_Hardono",
  "uid": 1902489,
  "tags": {
    "amenity": "hospital",
    "name": "Klinik Mawar"
  }
},
{
  "type": "node",
  "id": 2696043847,
  "lat": -6.3184096,
  "lon": 106.8346735,
  "timestamp": "2014-03-01T06:00:39Z",
  "version": 1,
  "changeset": 20839602,
  "user": "nike shabrina",
  "uid": 1960033,
  "tags": {
    "addr:housenumber": "7",
    "addr:postcode": "12610",
    "addr:street": "Joe",
    "amenity": "hospital",
    "emergency": "yes",
    "name": "Unit Transfusi Darah Pusat PMI Indonesia"
  }
},
{
  "type": "node",
  "id": 3060361808,
  "lat": -6.2644915,
  "lon": 106.7305894,
  "timestamp": "2014-09-05T06:16:49Z",
  "version": 2,
  "changeset": 25241226,
  "user": "DarkRider910",
  "uid": 2303045,
  "tags": {
    "amenity": "hospital",
    "emergency": "yes",
    "name": "Puskesmas Jurangmangu Timur"
  }
},
{
  "type": "node",
  "id": 3311995952,
  "lat": -6.1743557,
  "lon": 106.8220096,
  "timestamp": "2015-01-26T13:00:37Z",
  "version": 1,
  "changeset": 28417798,
  "user": "umiatun hasanah",
  "uid": 2366562,
  "tags": {
    "amenity": "hospital",
    "name": "RS. IBNU SINA",
    "operator": "14075012"
  }
},
{
  "type": "node",
  "id": 3312119465,
  "lat": -6.1743897,
  "lon": 106.8220212,
  "timestamp": "2015-01-26T14:28:01Z",
  "version": 1,
  "changeset": 28419679,
  "user": "umiatun hasanah",
  "uid": 2366562,
  "tags": {
    "amenity": "hospital",
    "name": "RS. IBNU SINA",
    "operator": "14075012"
  }
},
{
  "type": "node",
  "id": 3679654524,
  "lat": -6.2268616,
  "lon": 106.7606924,
  "timestamp": "2015-08-04T02:28:08Z",
  "version": 1,
  "changeset": 33086466,
  "user": "Madu Sehat",
  "uid": 3119662,
  "tags": {
    "addr:city": "jakarta selatan",
    "addr:housenumber": "No. 77b",
    "addr:street": "swadarma raya",
    "amenity": "hospital",
    "name": "klinik sehat",
    "name_1": "Madu Sehat",
    "operator": "iman",
    "phone": "+6281572339113",
    "website": "www.madusehatku.com"
  }
},
{
  "type": "node",
  "id": 3692631793,
  "lat": -6.1271546,
  "lon": 106.8572945,
  "timestamp": "2015-08-12T01:30:40Z",
  "version": 1,
  "changeset": 33281394,
  "user": "mkamil",
  "uid": 2617471,
  "tags": {
    "amenity": "hospital",
    "name": "Klinik"
  }
},
{
  "type": "node",
  "id": 3692631794,
  "lat": -6.1283428,
  "lon": 106.8571213,
  "timestamp": "2015-08-12T01:30:40Z",
  "version": 1,
  "changeset": 33281394,
  "user": "mkamil",
  "uid": 2617471,
  "tags": {
    "amenity": "hospital",
    "name": "Puskesmas Sunter Agung"
  }
},
{
  "type": "node",
  "id": 3692631795,
  "lat": -6.1302559,
  "lon": 106.8713072,
  "timestamp": "2015-08-12T01:30:40Z",
  "version": 1,
  "changeset": 33281394,
  "user": "mkamil",
  "uid": 2617471,
  "tags": {
    "amenity": "hospital",
    "name": "Puskesmas & Posyandu Papanggo II"
  }
},
{
  "type": "node",
  "id": 3801705134,
  "lat": -6.0942487,
  "lon": 106.9641878,
  "timestamp": "2015-10-27T03:48:02Z",
  "version": 2,
  "changeset": 34895645,
  "user": "Edwin Enifri",
  "uid": 3330620,
  "tags": {
    "addr:full": "Jalan Marunda Rusun",
    "amenity": "hospital",
    "hospital:type_idn": "puskesmas",
    "name": "Puskesmas Rusun Marunda",
    "water_source:id": "PDAM"
  }
},
{
  "type": "node",
  "id": 3816522570,
  "lat": -6.0978749,
  "lon": 106.9693606,
  "timestamp": "2015-11-04T04:01:56Z",
  "version": 1,
  "changeset": 35070674,
  "user": "jihannursabriya1",
  "uid": 3330694,
  "tags": {
    "amenity": "hospital"
  }
},
{
  "type": "node",
  "id": 3910152111,
  "lat": -6.2069263,
  "lon": 106.8336811,
  "timestamp": "2016-06-15T08:18:50Z",
  "version": 2,
  "changeset": 40033632,
  "user": "bleutaxi",
  "uid": 3873184,
  "tags": {
    "addr:city": "South Jakarta",
    "addr:housenumber": "13",
    "addr:postcode": "12980",
    "addr:street": "Jl. Halimun Raya, RT.8/RW.2, Guntur",
    "amenity": "hospital",
    "name": "Puskesmas Setiabudi Puskesmas Kec. Setia Budi"
  }
},
{
  "type": "node",
  "id": 4129780395,
  "lat": -6.2770341,
  "lon": 106.8692576,
  "timestamp": "2017-01-08T10:20:23Z",
  "version": 4,
  "changeset": 44997136,
  "user": "yakali ga kuy",
  "uid": 4697982,
  "tags": {
    "addr:city": "East Jakarta",
    "addr:postcode": "13510",
    "addr:street": "Jalan Raya Bogor, Kramat Jati",
    "amenity": "hospital",
    "name": "RS. PUSDIKKES"
  }
},
{
  "type": "node",
  "id": 4130191495,
  "lat": -6.1356412,
  "lon": 106.8658872,
  "timestamp": "2016-04-18T11:15:29Z",
  "version": 1,
  "changeset": 38664503,
  "user": "서상범",
  "uid": 3836172,
  "tags": {
    "amenity": "hospital",
    "internet_access": "wlan",
    "name": "마사지 세븐스타(체인점)"
  }
},
{
  "type": "node",
  "id": 4145889018,
  "lat": -6.2695992,
  "lon": 106.8717613,
  "timestamp": "2016-06-23T11:37:36Z",
  "version": 3,
  "changeset": 40229441,
  "user": "bleutaxi",
  "uid": 3873184,
  "tags": {
    "addr:city": "East Jakarta",
    "addr:housenumber": "RT.1/RW.5",
    "addr:postcode": "13510",
    "addr:street": "Jl. Rs Polri Sukanto",
    "amenity": "hospital",
    "name": "Polri Hospital (RS Soekanto)"
  }
},
{
  "type": "node",
  "id": 4146053199,
  "lat": -6.2979922,
  "lon": 106.7863022,
  "timestamp": "2016-06-23T09:03:19Z",
  "version": 2,
  "changeset": 40223772,
  "user": "bleutaxi",
  "uid": 3873184,
  "tags": {
    "addr:city": "Jakarta Selatan",
    "addr:housenumber": "kav 19",
    "addr:postcode": "12430",
    "addr:street": "Lebak Bulus 1",
    "amenity": "hospital",
    "name": "Mayapada Hospital"
  }
},
{
  "type": "node",
  "id": 4146190336,
  "lat": -6.1929517,
  "lon": 106.9030467,
  "timestamp": "2016-04-25T07:42:31Z",
  "version": 1,
  "changeset": 38849767,
  "user": "blueueto",
  "uid": 3873099,
  "tags": {
    "addr:city": "Pulo Gadung, East Jakarta",
    "addr:housenumber": "No.1A",
    "addr:postcode": "13210",
    "addr:street": "Jl. Raya Pemuda",
    "amenity": "hospital",
    "name": "Antam Medika Hospital"
  }
},
{
  "type": "node",
  "id": 4146386753,
  "lat": -6.2186770,
  "lon": 106.8173671,
  "timestamp": "2016-06-23T10:12:08Z",
  "version": 2,
  "changeset": 40226215,
  "user": "bleutaxi",
  "uid": 3873184,
  "tags": {
    "addr:city": "jakarta selatan",
    "addr:housenumber": "no 2-3",
    "addr:postcode": "12930",
    "addr:street": "Jalan Garnisun Dalam",
    "amenity": "hospital",
    "name": "MRCCC Siloam Hospital Semanggi"
  }
},
{
  "type": "node",
  "id": 4146433888,
  "lat": -6.1967374,
  "lon": 106.8474240,
  "timestamp": "2016-06-24T09:03:42Z",
  "version": 2,
  "changeset": 40254695,
  "user": "bleumeltha",
  "uid": 3873217,
  "tags": {
    "addr:city": "Central Jakarta",
    "addr:housenumber": "Nomor 71",
    "addr:postcode": "10320",
    "addr:street": "Jl. Diponegoro",
    "amenity": "hospital",
    "name": "RS Cipto Mangunkusumo",
    "phone": "1500135"
  }
},
{
  "type": "node",
  "id": 4146438320,
  "lat": -6.1938037,
  "lon": 106.8594337,
  "timestamp": "2016-06-24T09:01:48Z",
  "version": 2,
  "changeset": 40254646,
  "user": "bleumeltha",
  "uid": 3873217,
  "tags": {
    "addr:city": "Central Jakarta",
    "addr:housenumber": "Nomor 47",
    "addr:postcode": "10570",
    "addr:street": "Jalan Rawamangun",
    "amenity": "hospital",
    "name": "RS Evasari",
    "phone": "(021) 4202851"
  }
},
{
  "type": "node",
  "id": 4146453382,
  "lat": -6.1801480,
  "lon": 106.8186779,
  "timestamp": "2016-06-24T08:52:17Z",
  "version": 2,
  "changeset": 40254422,
  "user": "bleumeltha",
  "uid": 3873217,
  "tags": {
    "addr:city": "Central Jakarta",
    "addr:housenumber": "No.25, RT.2/RW.3",
    "addr:postcode": "10110",
    "addr:street": "Jl. Budi Kemulyaan, Gambir",
    "amenity": "hospital",
    "name": "RS Ibu Dan Anak Budi Kemuliaan",
    "phone": "3842828"
  }
},
{
  "type": "node",
  "id": 4146456983,
  "lat": -6.2201217,
  "lon": 106.9401095,
  "timestamp": "2016-06-24T08:47:56Z",
  "version": 2,
  "changeset": 40254337,
  "user": "bleumeltha",
  "uid": 3873217,
  "tags": {
    "addr:city": "East Jakarta",
    "addr:housenumber": "RT.2/RW.1",
    "addr:postcode": "13460",
    "addr:street": "Jl. Pondok Kopi Raya, Duren Sawit",
    "amenity": "hospital",
    "name": "RS Islam Jakarta Pondok Kopi",
    "phone": "(021) 29809000"
  }
},
{
  "type": "node",
  "id": 4146465746,
  "lat": -6.1852767,
  "lon": 106.7973263,
  "timestamp": "2016-06-24T08:45:27Z",
  "version": 2,
  "changeset": 40254274,
  "user": "bleumeltha",
  "uid": 3873217,
  "tags": {
    "addr:city": "West Jakarta",
    "addr:housenumber": "Kav. 87",
    "addr:postcode": "11420",
    "addr:street": "Jalan Letjen. S. Parman, Slipi",
    "amenity": "hospital",
    "name": "RS Jantung Dan Pembuluh Darah Harapan Kita",
    "phone": "(021) 5684093"
  }
},
{
  "type": "node",
  "id": 4146467952,
  "lat": -6.2190788,
  "lon": 106.7784191,
  "timestamp": "2016-06-24T08:42:51Z",
  "version": 2,
  "changeset": 40254223,
  "user": "bleumeltha",
  "uid": 3873217,
  "tags": {
    "addr:city": "West Jakarta",
    "addr:housenumber": "Nomor 64",
    "addr:postcode": "12240",
    "addr:street": "Kebayoran Lama Jl. No., Kp. Dukuh Raya",
    "amenity": "hospital",
    "name": "RS Medika Permata Hijau",
    "phone": "(021) 5347411"
  }
},
{
  "type": "node",
  "id": 4146471251,
  "lat": -6.1865567,
  "lon": 106.7976240,
  "timestamp": "2016-06-24T08:44:07Z",
  "version": 2,
  "changeset": 40254251,
  "user": "bleumeltha",
  "uid": 3873217,
  "tags": {
    "addr:city": "West Jakarta",
    "addr:housenumber": "Kav. 84-86",
    "addr:postcode": "11420",
    "addr:street": "Jalan Letjen. S. Parman",
    "amenity": "hospital",
    "name": "RS Kanker Dharmais",
    "phone": "+62-21-5681570"
  }
},
{
  "type": "node",
  "id": 4146514529,
  "lat": -6.2202133,
  "lon": 106.8319991,
  "timestamp": "2016-06-24T08:37:12Z",
  "version": 2,
  "changeset": 40254119,
  "user": "bleumeltha",
  "uid": 3873217,
  "tags": {
    "addr:city": "South Jakarta",
    "addr:housenumber": "Kav. C 20-21",
    "addr:postcode": "12920",
    "addr:street": "Jl. HR Rasuna Said, Karet Kuningan, Setiabudi",
    "amenity": "hospital",
    "name": "RS MMC",
    "phone": "(021) 5203435"
  }
},
{
  "type": "node",
  "id": 4146530776,
  "lat": -6.1928554,
  "lon": 106.8054781,
  "timestamp": "2016-06-24T08:35:43Z",
  "version": 2,
  "changeset": 40254089,
  "user": "bleumeltha",
  "uid": 3873217,
  "tags": {
    "addr:city": "West Jakarta",
    "addr:housenumber": "No. 92 - 94",
    "addr:postcode": "11410",
    "addr:street": "Jalan Aipda KS. Tubun",
    "amenity": "hospital",
    "name": "RS Pelni Petamburan",
    "phone": "(021) 5306901"
  }
},
{
  "type": "node",
  "id": 4146557843,
  "lat": -6.2042927,
  "lon": 106.8854064,
  "timestamp": "2016-06-16T06:23:53Z",
  "version": 2,
  "changeset": 40053456,
  "user": "bleutaxi",
  "uid": 3873184,
  "tags": {
    "addr:city": "East Jakarta",
    "addr:housenumber": "Nomor 1",
    "addr:postcode": "13230",
    "addr:street": "Jl. Persahabatan Raya",
    "amenity": "hospital",
    "name": "RS Persahabatan",
    "phone": "(021) 4891708"
  }
},
{
  "type": "node",
  "id": 4146570220,
  "lat": -6.2761624,
  "lon": 106.7235996,
  "timestamp": "2016-06-24T08:31:18Z",
  "version": 2,
  "changeset": 40254001,
  "user": "bleumeltha",
  "uid": 3873217,
  "tags": {
    "addr:city": "Banten",
    "addr:housenumber": "Nomor 1, Sektor 7",
    "addr:postcode": "15224",
    "addr:street": "Jalan M.H. Thamrin",
    "amenity": "hospital",
    "name": "RS Premier Bintaro",
    "phone": "(021) 27625500"
  }
},
{
  "type": "node",
  "id": 4146924689,
  "lat": -6.2948380,
  "lon": 106.7952772,
  "timestamp": "2016-06-16T02:48:52Z",
  "version": 2,
  "changeset": 40051319,
  "user": "bleutaxi",
  "uid": 3873184,
  "tags": {
    "addr:city": "RT 04/RW 09, Cilandak Barat, South Jakarta",
    "addr:postcode": "12430",
    "addr:street": "Jl. RS Fatmawati",
    "amenity": "hospital",
    "name": "Fatmawati General Hospital"
  }
},
{
  "type": "node",
  "id": 4148109636,
  "lat": -6.2214334,
  "lon": 106.8692786,
  "timestamp": "2017-03-31T07:59:32Z",
  "version": 3,
  "changeset": 47316551,
  "user": "Febrina Dewi",
  "uid": 617262,
  "tags": {
    "addr:city": "East Jakarta",
    "addr:housenumber": "Nomor 85-87",
    "addr:postcode": "13310",
    "addr:street": "Jalan Raya Jatinegara Timur, Jatinegara",
    "amenity": "hospital",
    "name": "RS Premier Jatinegara"
  }
},
{
  "type": "node",
  "id": 4148131861,
  "lat": -6.1388800,
  "lon": 106.8653794,
  "timestamp": "2016-04-26T02:33:02Z",
  "version": 1,
  "changeset": 38873706,
  "user": "bleutaxi",
  "uid": 3873184,
  "tags": {
    "addr:city": "North Jakarta",
    "addr:housenumber": "Nomor 1-5",
    "addr:postcode": "14350",
    "addr:street": "Jl. Danau Sunter Utara, Sunter Paradise",
    "amenity": "hospital",
    "name": "RS Royal Progress"
  }
},
{
  "type": "node",
  "id": 4148175934,
  "lat": -6.2278340,
  "lon": 106.7182954,
  "timestamp": "2016-04-26T02:50:47Z",
  "version": 1,
  "changeset": 38873961,
  "user": "bleutaxi",
  "uid": 3873184,
  "tags": {
    "addr:city": "Banten",
    "addr:housenumber": "No. 38",
    "addr:postcode": "15154",
    "addr:street": "Jalan HOS. Cokroaminoto",
    "amenity": "hospital",
    "name": "RS Sari Asih Ciledug"
  }
},
{
  "type": "node",
  "id": 4148203030,
  "lat": -6.2727275,
  "lon": 106.8392603,
  "timestamp": "2016-06-24T08:12:41Z",
  "version": 2,
  "changeset": 40253744,
  "user": "bleumeltha",
  "uid": 3873217,
  "tags": {
    "addr:city": "South Jakarta",
    "addr:housenumber": "Kav.4 - 8",
    "addr:postcode": "12510",
    "addr:street": "Jl. Kalibata Tengah XVI, Pejaten Bar., Ps. Minggu",
    "amenity": "hospital",
    "name": "RS Siaga Raya"
  }
},
{
  "type": "node",
  "id": 4148204983,
  "lat": -6.1962055,
  "lon": 106.8509191,
  "timestamp": "2016-06-16T03:21:50Z",
  "version": 2,
  "changeset": 40051577,
  "user": "bleutaxi",
  "uid": 3873184,
  "tags": {
    "addr:city": "Central Jakarta",
    "addr:housenumber": "No.41, RT.3/RW.5",
    "addr:postcode": "10430",
    "addr:street": "Jl. Salemba Raya, Paseban, Senen",
    "amenity": "hospital",
    "name": "RS St Carolus"
  }
},
{
  "type": "node",
  "id": 4148212917,
  "lat": -6.2935243,
  "lon": 106.7962621,
  "timestamp": "2016-06-24T08:09:15Z",
  "version": 2,
  "changeset": 40253705,
  "user": "bleumeltha",
  "uid": 3873217,
  "tags": {
    "addr:city": "South Jakarta",
    "addr:housenumber": "RT.4/RW.9",
    "addr:postcode": "12420",
    "addr:street": "Jl. RS Fatmawati",
    "amenity": "hospital",
    "name": "RS Umum Pusat Fatmawati"
  }
},
{
  "type": "node",
  "id": 4148218197,
  "lat": -6.2901376,
  "lon": 106.8895499,
  "timestamp": "2016-06-15T10:49:05Z",
  "version": 2,
  "changeset": 40035982,
  "user": "bleutaxi",
  "uid": 3873184,
  "tags": {
    "addr:city": "East Jakarta",
    "addr:housenumber": "Nomor 4",
    "addr:postcode": "13560",
    "addr:street": "Jl. Raya Pondok Gede",
    "amenity": "hospital",
    "name": "RS Haji Pondok Gede"
  }
},
{
  "type": "node",
  "id": 4148231128,
  "lat": -6.1523310,
  "lon": 106.8581951,
  "timestamp": "2016-06-15T11:19:35Z",
  "version": 2,
  "changeset": 40036473,
  "user": "bleutaxi",
  "uid": 3873184,
  "tags": {
    "addr:city": "North Jakarta",
    "addr:postcode": "10630",
    "addr:street": "Jalan HBR Motik, Landas Pacu Timur, Kemayoran",
    "amenity": "hospital",
    "name": "RS Mitra Kemayoran"
  }
},
{
  "type": "node",
  "id": 4148235426,
  "lat": -6.1959177,
  "lon": 106.8463761,
  "timestamp": "2016-04-26T04:01:33Z",
  "version": 1,
  "changeset": 38874707,
  "user": "bleutaxi",
  "uid": 3873184,
  "tags": {
    "addr:city": "Central Jakarta",
    "addr:housenumber": "No. 71",
    "addr:postcode": "10310",
    "addr:street": "Jl. Diponegoro",
    "amenity": "hospital",
    "name": "Gedung A RSCM"
  }
},
{
  "type": "node",
  "id": 4148235637,
  "lat": -6.2510633,
  "lon": 106.8425043,
  "timestamp": "2016-04-26T03:58:43Z",
  "version": 1,
  "changeset": 38874693,
  "user": "bleutaxi",
  "uid": 3873184,
  "tags": {
    "addr:city": "South Jakarta",
    "addr:housenumber": "Nomor 3A",
    "addr:postcode": "12780",
    "addr:street": "Jl. Raya Pasar Minggu",
    "amenity": "hospital",
    "name": "RS Tria Dipa"
  }
},
{
  "type": "node",
  "id": 4148240353,
  "lat": -6.1964250,
  "lon": 106.8483947,
  "timestamp": "2016-04-26T04:09:15Z",
  "version": 1,
  "changeset": 38874758,
  "user": "bleutaxi",
  "uid": 3873184,
  "tags": {
    "addr:city": "Central Jakarta",
    "addr:housenumber": "Nomor 71",
    "addr:postcode": "10320",
    "addr:street": "Jalan Diponegoro",
    "amenity": "hospital",
    "name": "RSCM Kiara"
  }
},
{
  "type": "node",
  "id": 4148242989,
  "lat": -6.1969767,
  "lon": 106.8443097,
  "timestamp": "2016-06-24T08:04:35Z",
  "version": 2,
  "changeset": 40253644,
  "user": "bleumeltha",
  "uid": 3873217,
  "tags": {
    "addr:city": "Central Jakarta",
    "addr:housenumber": "No.8, RT.10/RW.1",
    "addr:postcode": "10320",
    "addr:street": "Jl. Kimia, Pegangsaan, Menteng",
    "amenity": "hospital",
    "name": "RSCM Kirana"
  }
},
{
  "type": "node",
  "id": 4148245144,
  "lat": -6.3068941,
  "lon": 106.7592638,
  "timestamp": "2016-04-26T04:38:39Z",
  "version": 2,
  "changeset": 38874975,
  "user": "bleutaxi",
  "uid": 3873184,
  "tags": {
    "addr:city": "Banten",
    "addr:housenumber": "No. 2",
    "addr:postcode": "12310",
    "addr:street": "Jl. Ciputat Raya, Kertamukti, Ciputat",
    "amenity": "hospital",
    "name": "RSIA Hermina Ciputat"
  }
},
{
  "type": "node",
  "id": 4148255390,
  "lat": -6.1455293,
  "lon": 106.8612066,
  "timestamp": "2016-06-24T07:57:02Z",
  "version": 3,
  "changeset": 40253502,
  "user": "bleumeltha",
  "uid": 3873217,
  "tags": {
    "addr:city": "North Jakarta",
    "addr:housenumber": "Blok E3 No. 28-30",
    "addr:postcode": "14350",
    "addr:street": "Jl. Danau Agung 2",
    "amenity": "hospital",
    "name": "RSIA Hermina Podomoro"
  }
},
{
  "type": "node",
  "id": 4148258291,
  "lat": -6.2415287,
  "lon": 106.7875715,
  "timestamp": "2016-04-26T04:42:20Z",
  "version": 1,
  "changeset": 38875025,
  "user": "bleutaxi",
  "uid": 3873184,
  "tags": {
    "addr:city": "South Jakarta",
    "addr:housenumber": "No.20, RT.7/RW.2",
    "addr:postcode": "12130",
    "addr:street": "Jl. Gandaria I, Kramat Pela",
    "amenity": "hospital",
    "name": "RSIA Muhammadiyah Taman Puring"
  }
},
{
  "type": "node",
  "id": 4148259194,
  "lat": -6.1911273,
  "lon": 106.8281303,
  "timestamp": "2017-04-03T13:09:44Z",
  "version": 3,
  "changeset": 47411693,
  "user": "Masyfuati_Masrapah",
  "uid": 5601760,
  "tags": {
    "addr:city": "Central Jakarta",
    "addr:housenumber": "Nomor 22",
    "addr:postcode": "10350",
    "addr:street": "Jalan Gereja Theresia, Menteng, Daerah Khusus Ibukota Jakarta",
    "amenity": "hospital",
    "name": "RSIA YPK Mandiri",
    "operator": "Putri"
  }
},
{
  "type": "node",
  "id": 4148263063,
  "lat": -6.1771105,
  "lon": 106.8382138,
  "timestamp": "2016-06-15T11:32:57Z",
  "version": 2,
  "changeset": 40036713,
  "user": "bleutaxi",
  "uid": 3873184,
  "tags": {
    "addr:city": "Central Jakarta",
    "addr:housenumber": "Nomor 24",
    "addr:postcode": "10410",
    "addr:street": "Jl. Dr. Abdul Rahman Saleh",
    "amenity": "hospital",
    "name": "RSPAD Gatot Soebroto"
  }
},
{
  "type": "node",
  "id": 4148264570,
  "lat": -6.1765207,
  "lon": 106.8387947,
  "timestamp": "2016-06-24T07:50:35Z",
  "version": 2,
  "changeset": 40253388,
  "user": "bleumeltha",
  "uid": 3873217,
  "tags": {
    "addr:city": "Central Jakarta",
    "addr:housenumber": "No.24, RT.6/RW.1",
    "addr:postcode": "10410",
    "addr:street": "Jalan DR. Abdul Rachman Saleh",
    "amenity": "hospital",
    "name": "RSPAD Gatot Soebroto / Paviliun Kartika"
  }
},
{
  "type": "node",
  "id": 4148265829,
  "lat": -6.1424712,
  "lon": 106.7344856,
  "timestamp": "2016-06-24T07:48:03Z",
  "version": 2,
  "changeset": 40253334,
  "user": "bleumeltha",
  "uid": 3873217,
  "tags": {
    "addr:city": "West Jakarta",
    "addr:postcode": "11730",
    "addr:street": "Jl. Kamal Raya Bumi Cengkareng Indah, Cengkareng, Daerah Khusus Ibukota Jakarta",
    "amenity": "hospital",
    "name": "RSUD Cengkareng"
  }
},
{
  "type": "node",
  "id": 4148371594,
  "lat": -6.2938063,
  "lon": 106.8208147,
  "timestamp": "2016-04-26T06:08:11Z",
  "version": 1,
  "changeset": 38876608,
  "user": "bleutaxi",
  "uid": 3873184,
  "tags": {
    "addr:city": "South Jakarta",
    "addr:housenumber": "Nomor 1",
    "addr:postcode": "12550",
    "addr:street": "Jl. TB. Simatupang, Kelurahan Ragunan, Kecamatan Pasar Minggu",
    "amenity": "hospital",
    "name": "RSUD Pasar Minggu"
  }
},
{
  "type": "node",
  "id": 4148382540,
  "lat": -6.3041587,
  "lon": 106.8619235,
  "timestamp": "2016-06-16T02:46:12Z",
  "version": 2,
  "changeset": 40051304,
  "user": "bleutaxi",
  "uid": 3873184,
  "tags": {
    "addr:city": "South Jakarta",
    "addr:housenumber": "No.30",
    "addr:postcode": "13760",
    "addr:street": "Jalan Let. Jend. T.B. Simatupang",
    "amenity": "hospital",
    "name": "RSUD Pasar Rebo"
  }
},
{
  "type": "node",
  "id": 4148447969,
  "lat": -6.2671921,
  "lon": 106.7661521,
  "timestamp": "2016-06-24T07:12:50Z",
  "version": 2,
  "changeset": 40252418,
  "user": "bleumeltha",
  "uid": 3873217,
  "tags": {
    "addr:city": "South Jakarta",
    "addr:housenumber": "No.178, RT.9/RW.3",
    "addr:postcode": "12330",
    "addr:street": "Jl. RC. Veteran, Bintaro, Pesanggrahan",
    "amenity": "hospital",
    "name": "Rumah Sakit Dr. Suyoto"
  }
},
{
  "type": "node",
  "id": 4148454989,
  "lat": -6.1663640,
  "lon": 106.9157878,
  "timestamp": "2016-06-16T03:03:26Z",
  "version": 3,
  "changeset": 40051426,
  "user": "bleutaxi",
  "uid": 3873184,
  "tags": {
    "addr:city": "North Jakarta",
    "addr:postcode": "14250",
    "addr:street": "Jalan Boulevard Timur Raya, Kelapa Gading, Daerah Khusus Ibukota Jakarta",
    "amenity": "hospital",
    "name": "Rumah Sakit Gading Pluit"
  }
},
{
  "type": "node",
  "id": 4148458034,
  "lat": -6.1684291,
  "lon": 106.7645546,
  "timestamp": "2016-06-15T10:43:24Z",
  "version": 2,
  "changeset": 40035895,
  "user": "bleutaxi",
  "uid": 3873184,
  "tags": {
    "addr:city": "West Jakarta",
    "addr:housenumber": "No.26, RT.15/RW.7",
    "addr:postcode": "11520",
    "addr:street": "Jl. Panjang Arteri, Kedoya Utara, Kb. Jeruk",
    "amenity": "hospital",
    "name": "Rumah Sakit Grha Kedoya"
  }
},
{
  "type": "node",
  "id": 4148472695,
  "lat": -6.3028077,
  "lon": 106.8676836,
  "timestamp": "2016-06-15T10:50:17Z",
  "version": 2,
  "changeset": 40036002,
  "user": "bleutaxi",
  "uid": 3873184,
  "tags": {
    "addr:city": "East Jakarta",
    "addr:housenumber": "KM. 22 No. 44",
    "addr:postcode": "13750",
    "addr:street": "Jalan Raya Bogor, Ciracas",
    "amenity": "hospital",
    "name": "Rumah Sakit Harapan Bunda"
  }
},
{
  "type": "node",
  "id": 4148480403,
  "lat": -6.2479377,
  "lon": 106.9095988,
  "timestamp": "2016-06-24T07:09:27Z",
  "version": 2,
  "changeset": 40252307,
  "user": "bleumeltha",
  "uid": 3873217,
  "tags": {
    "addr:city": "East Jakarta",
    "addr:housenumber": "RT.1/RW.13",
    "addr:postcode": "13620",
    "addr:street": "Tarum Barat, Cipinang Melayu",
    "amenity": "hospital",
    "name": "Rumah Sakit Harum Sisma Medika"
  }
},
{
  "type": "node",
  "id": 4148490661,
  "lat": -6.1478842,
  "lon": 106.8294304,
  "timestamp": "2017-04-03T13:06:39Z",
  "version": 3,
  "changeset": 47411578,
  "user": "Masyfuati_Masrapah",
  "uid": 5601760,
  "tags": {
    "addr:city": "Central Jakarta",
    "addr:housenumber": "No.137-139, RW.1",
    "addr:postcode": "10730",
    "addr:street": "Jl. Mangga Besar Raya",
    "amenity": "hospital",
    "name": "Rumah Sakit Husada",
    "operator": "Yunita"
  }
},
{
  "type": "node",
  "id": 4148494187,
  "lat": -6.2062573,
  "lon": 106.8487310,
  "timestamp": "2016-06-24T07:07:06Z",
  "version": 2,
  "changeset": 40252239,
  "user": "bleumeltha",
  "uid": 3873217,
  "tags": {
    "addr:city": "Central Jakarta",
    "addr:housenumber": "No 18",
    "addr:postcode": "10320",
    "addr:street": "Jl. Tambak, Menteng, Daerah Khusus Ibukota Jakarta",
    "amenity": "hospital",
    "name": "Rumah Sakit Ibu Dan Anak Tambak"
  }
},
{
  "type": "node",
  "id": 4148502391,
  "lat": -6.2181037,
  "lon": 106.8165568,
  "timestamp": "2017-04-03T12:26:51Z",
  "version": 4,
  "changeset": 47410308,
  "user": "Masyfuati_Masrapah",
  "uid": 5601760,
  "tags": {
    "addr:city": "South Jakarta",
    "addr:housenumber": "Kav. 49",
    "addr:postcode": "12930",
    "addr:street": "Jl. Jend. Sudriman, Setiabudi, Daerah Khusus Ibukota Jakarta",
    "amenity": "hospital",
    "description": "  Tempat Orang Berobat",
    "name": "Rumah Sakit Jakarta"
  }
},
{
  "type": "node",
  "id": 4148507338,
  "lat": -6.2712488,
  "lon": 106.8305027,
  "timestamp": "2016-06-24T07:05:06Z",
  "version": 2,
  "changeset": 40252176,
  "user": "bleumeltha",
  "uid": 3873217,
  "tags": {
    "addr:city": "South Jakarta",
    "addr:housenumber": "No.15",
    "addr:postcode": "12740",
    "addr:street": "Jl. Warung Buncit Raya",
    "amenity": "hospital",
    "name": "Rumah Sakit Jakarta Medical Center"
  }
},
{
  "type": "node",
  "id": 4148514189,
  "lat": -6.3048811,
  "lon": 106.8107933,
  "timestamp": "2016-04-26T07:26:11Z",
  "version": 1,
  "changeset": 38878031,
  "user": "bleutaxi",
  "uid": 3873184,
  "tags": {
    "addr:city": "South Jakarta",
    "addr:postcode": "12560",
    "addr:street": "Jl. Raya Cilandak KKO, Pasar Minggu, Daerah Khusus Ibukota Jakarta",
    "amenity": "hospital",
    "name": "Rumah Sakit Marinir Cilandak"
  }
},
{
  "type": "node",
  "id": 4148521937,
  "lat": -6.2147478,
  "lon": 106.8286279,
  "timestamp": "2016-06-15T11:11:24Z",
  "version": 2,
  "changeset": 40036335,
  "user": "bleutaxi",
  "uid": 3873184,
  "tags": {
    "addr:city": "South Jakarta",
    "addr:postcode": "12920",
    "addr:street": "Jl. RS Mata Aini, HR Rasuna Said, Kuningan",
    "amenity": "hospital",
    "name": "Rumah Sakit Mata Prof. Dr. Isak Salim Aini"
  }
},
{
  "type": "node",
  "id": 4148542049,
  "lat": -6.1911547,
  "lon": 106.8473829,
  "timestamp": "2016-06-24T07:00:18Z",
  "version": 2,
  "changeset": 40252046,
  "user": "bleumeltha",
  "uid": 3873217,
  "tags": {
    "addr:city": "Central Jakarta",
    "addr:housenumber": "No.174, RT.6/RW.2",
    "addr:postcode": "14030",
    "addr:street": "Jl. Kramat Raya, Kenari, Senen",
    "amenity": "hospital",
    "name": "Rumah Sakit Mohammad Ridwan Meuraksa"
  }
},
{
  "type": "node",
  "id": 4148551541,
  "lat": -6.1799660,
  "lon": 106.8837834,
  "timestamp": "2016-06-24T06:58:37Z",
  "version": 2,
  "changeset": 40252002,
  "user": "bleumeltha",
  "uid": 3873217,
  "tags": {
    "addr:city": "East Jakarta",
    "addr:housenumber": "VI No.20",
    "addr:postcode": "13210",
    "addr:street": "Jl. Pulo Mas Barat, Daerah Khusus Ibukota Jakarta",
    "amenity": "hospital",
    "name": "Rumah Sakit Omni Pulomas"
  }
},
{
  "type": "node",
  "id": 4148568150,
  "lat": -6.2838297,
  "lon": 106.7813491,
  "timestamp": "2016-06-15T11:31:31Z",
  "version": 2,
  "changeset": 40036685,
  "user": "bleutaxi",
  "uid": 3873184,
  "tags": {
    "addr:city": "South Jakarta",
    "addr:housenumber": "Kav. UE",
    "addr:postcode": "12310",
    "addr:street": "Jl. Metro Duta, Pondok Indah, Daerah Khusus Ibukota Jakarta",
    "amenity": "hospital",
    "name": "Rumah Sakit Pondok Indah"
  }
},
{
  "type": "node",
  "id": 4148581277,
  "lat": -6.3143647,
  "lon": 106.7941640,
  "timestamp": "2016-06-24T06:55:13Z",
  "version": 2,
  "changeset": 40251927,
  "user": "bleumeltha",
  "uid": 3873217,
  "tags": {
    "addr:city": "East Jakarta",
    "addr:housenumber": "No.74",
    "addr:postcode": "12450",
    "addr:street": "Jl. RS Fatmawati, Pd. Labu, Cilandak",
    "amenity": "hospital",
    "name": "Rumah Sakit Prikasih"
  }
},
{
  "type": "node",
  "id": 4148584943,
  "lat": -6.3220384,
  "lon": 106.7826315,
  "timestamp": "2016-06-15T09:11:01Z",
  "version": 2,
  "changeset": 40034388,
  "user": "blueueto",
  "uid": 3873099,
  "tags": {
    "addr:city": "West Java",
    "addr:housenumber": "Nomor 1",
    "addr:postcode": "16514",
    "addr:street": "JL. Maribaya, Puri Cinere",
    "amenity": "hospital",
    "name": "Rumah Sakit Puri Cinere"
  }
},
{
  "type": "node",
  "id": 4148604442,
  "lat": -6.1907890,
  "lon": 106.7637973,
  "timestamp": "2016-04-26T08:24:29Z",
  "version": 1,
  "changeset": 38879307,
  "user": "bleutaxi",
  "uid": 3873184,
  "tags": {
    "addr:city": "West Jakarta",
    "addr:housenumber": "Kav. 8",
    "addr:postcode": "11530",
    "addr:street": "Jl. Raya Perjuangan, Kebon Jeruk, Daerah Khusus Ibukota Jakarta",
    "amenity": "hospital",
    "name": "Rumah Sakit Siloam Kebon Jeruk"
  }
},
{
  "type": "node",
  "id": 4148610328,
  "lat": -6.1934257,
  "lon": 106.8519311,
  "timestamp": "2016-04-26T08:25:20Z",
  "version": 1,
  "changeset": 38879334,
  "user": "bleutan",
  "uid": 3873179,
  "tags": {
    "addr:city": "Central Jakarta",
    "addr:housenumber": "No.24-28, RT.1/RW.4",
    "addr:postcode": "10440",
    "addr:street": "Jl. Salemba Tengah",
    "amenity": "hospital",
    "name": "M.H. Thamrin Hospital"
  }
},
{
  "type": "node",
  "id": 4148612913,
  "lat": -6.1664155,
  "lon": 106.7978221,
  "timestamp": "2016-06-16T03:23:05Z",
  "version": 2,
  "changeset": 40051590,
  "user": "bleutaxi",
  "uid": 3873184,
  "tags": {
    "addr:city": "West Jakarta",
    "addr:housenumber": "Nomor 1",
    "addr:postcode": "11440",
    "addr:street": "Jalan Kyai Tapa, omang, Grogol petamburan",
    "amenity": "hospital",
    "name": "Rumah Sakit Sumber Waras"
  }
},
{
  "type": "node",
  "id": 4148637050,
  "lat": -6.2428610,
  "lon": 106.8506698,
  "timestamp": "2016-06-15T08:24:24Z",
  "version": 2,
  "changeset": 40033707,
  "user": "blueueto",
  "uid": 3873099,
  "tags": {
    "addr:city": "South Jakarta",
    "addr:housenumber": "Kav. 13 No. 8",
    "addr:postcode": "12810",
    "addr:street": "Jl. Letjen M.T. Haryono, ebet Barat, Tebet, Daerah Khusus Ibukota Jakarta",
    "amenity": "hospital",
    "name": "Rumah Sakit Tebet"
  }
},
{
  "type": "node",
  "id": 4148642109,
  "lat": -6.1087305,
  "lon": 106.8994977,
  "timestamp": "2016-06-16T03:07:18Z",
  "version": 2,
  "changeset": 40051462,
  "user": "bleutaxi",
  "uid": 3873184,
  "tags": {
    "addr:city": "North Jakarta",
    "addr:housenumber": "No. 4, RT. 11/RW. 7",
    "addr:postcode": "14220",
    "addr:street": "Jalan Deli",
    "amenity": "hospital",
    "name": "Rumah Sakit Umum Daerah Koja"
  }
},
{
  "type": "node",
  "id": 4148649701,
  "lat": -6.2023990,
  "lon": 106.8847227,
  "timestamp": "2016-04-26T08:55:13Z",
  "version": 1,
  "changeset": 38879970,
  "user": "bleutaxi",
  "uid": 3873184,
  "tags": {
    "addr:city": "East Jakarta",
    "addr:housenumber": "No.1",
    "addr:postcode": "13230",
    "addr:street": "Jl. Persahabatan Raya",
    "amenity": "hospital",
    "name": "Rumah Sakit Umum Persahabatan - IGD"
  }
},
{
  "type": "node",
  "id": 4148655309,
  "lat": -6.1520702,
  "lon": 106.8974680,
  "timestamp": "2016-04-26T08:57:03Z",
  "version": 1,
  "changeset": 38880008,
  "user": "bleutan",
  "uid": 3873179,
  "tags": {
    "addr:city": "North Jakarta",
    "addr:housenumber": "Kav.2",
    "addr:postcode": "14240",
    "addr:street": "Jl. Bukit Gading Raya, Kelapa GAding",
    "amenity": "hospital",
    "name": "R.S. Mitra Keluarga Kelapa Gading"
  }
},
{
  "type": "node",
  "id": 4148725414,
  "lat": -6.2094003,
  "lon": 106.8194622,
  "timestamp": "2016-04-26T09:39:00Z",
  "version": 1,
  "changeset": 38881024,
  "user": "bleutaxi",
  "uid": 3873184,
  "tags": {
    "addr:city": "Central Jakarta",
    "addr:housenumber": "Nomor 86",
    "addr:postcode": "10220",
    "addr:street": "Jalan Jenderal Sudirman",
    "amenity": "hospital",
    "name": "Sahid Sahirman Memorial Hospital"
  }
},
{
  "type": "node",
  "id": 4148777653,
  "lat": -6.1391150,
  "lon": 106.8614466,
  "timestamp": "2016-06-16T02:39:05Z",
  "version": 2,
  "changeset": 40051261,
  "user": "bleutaxi",
  "uid": 3873184,
  "tags": {
    "addr:city": "North Jakarta",
    "addr:housenumber": "Nomor 1",
    "addr:postcode": "14350",
    "addr:street": "Jl. Agung Utara Raya Blok A, Sunter",
    "amenity": "hospital",
    "name": "Satya Negara"
  }
},
{
  "type": "node",
  "id": 4148806483,
  "lat": -6.1928627,
  "lon": 106.8409187,
  "timestamp": "2016-04-26T10:26:50Z",
  "version": 1,
  "changeset": 38882337,
  "user": "bleutaxi",
  "uid": 3873184,
  "tags": {
    "addr:city": "Central Jakarta",
    "addr:housenumber": "No.40, RT.12/RW.2",
    "addr:postcode": "10430",
    "addr:street": "Jalan Raden Saleh Raya, Menteng, Cikini",
    "amenity": "hospital",
    "name": "RS PGI Cikini"
  }
},
{
  "type": "node",
  "id": 4150308489,
  "lat": -6.2919967,
  "lon": 106.7843406,
  "timestamp": "2016-06-24T04:41:23Z",
  "version": 2,
  "changeset": 40250026,
  "user": "bleumeltha",
  "uid": 3873217,
  "tags": {
    "addr:city": "South Jakarta",
    "addr:housenumber": "No. 8",
    "addr:postcode": "12440",
    "addr:street": "Jl. RA. Kartini",
    "amenity": "hospital",
    "name": "Siloam Hospital"
  }
},
{
  "type": "node",
  "id": 4150549447,
  "lat": -6.1899231,
  "lon": 106.7610598,
  "timestamp": "2016-06-23T03:23:20Z",
  "version": 2,
  "changeset": 40218202,
  "user": "bleutaxi",
  "uid": 3873184,
  "tags": {
    "addr:city": "Kb. Jeruk, Central Jakarta",
    "addr:housenumber": "No.1",
    "addr:postcode": "11420",
    "addr:street": "Jl. Terusan Arjuna Utara",
    "amenity": "hospital",
    "name": "Jakarta Eye Center"
  }
},
{
  "type": "node",
  "id": 4150777342,
  "lat": -6.2405057,
  "lon": 106.7933105,
  "timestamp": "2016-06-23T11:00:30Z",
  "version": 2,
  "changeset": 40228199,
  "user": "bleutaxi",
  "uid": 3873184,
  "tags": {
    "addr:city": "South Jakarta",
    "addr:housenumber": "No.43, RT.4/RW.8",
    "addr:postcode": "12120",
    "addr:street": "Jalan Kyai Maja",
    "amenity": "hospital",
    "name": "Pertamina Central Hospital"
  }
},
{
  "type": "node",
  "id": 4152477517,
  "lat": -6.2218122,
  "lon": 106.8684352,
  "timestamp": "2016-04-28T03:01:55Z",
  "version": 1,
  "changeset": 38940286,
  "user": "blueueto",
  "uid": 3873099,
  "tags": {
    "addr:city": "East Jakarta",
    "addr:postcode": "13310",
    "addr:street": "Jalan Raya Jatinegara Timur",
    "amenity": "hospital",
    "name": "RS Premier Jatinegara"
  }
},
{
  "type": "node",
  "id": 4153009395,
  "lat": -6.2331493,
  "lon": 106.8968323,
  "timestamp": "2016-06-24T08:02:17Z",
  "version": 2,
  "changeset": 40253595,
  "user": "bleumeltha",
  "uid": 3873217,
  "tags": {
    "addr:city": "East Jakarta",
    "addr:housenumber": "RT.4/RW.3",
    "addr:postcode": "13430",
    "addr:street": "Jl. Pahlawan Revolusi",
    "amenity": "hospital",
    "name": "RSIA Bunda Alliyah"
  }
},
{
  "type": "node",
  "id": 4160694211,
  "lat": -6.2542469,
  "lon": 106.8322192,
  "timestamp": "2016-06-16T06:28:57Z",
  "version": 2,
  "changeset": 40053520,
  "user": "bleutaxi",
  "uid": 3873184,
  "tags": {
    "addr:city": "South Jakarta",
    "addr:postcode": "12430",
    "addr:street": "Jl. Duren Tiga No.20 ,Mampang",
    "amenity": "hospital",
    "name": "Rumah Sakit Asri (Mampang)"
  }
},
{
  "type": "node",
  "id": 4240856082,
  "lat": -6.2751011,
  "lon": 106.8082935,
  "timestamp": "2016-06-13T06:58:56Z",
  "version": 1,
  "changeset": 39985365,
  "user": "Tan William",
  "uid": 3944348,
  "tags": {
    "addr:city": "South Jakarta",
    "addr:housenumber": "10",
    "addr:postcode": "12410",
    "addr:street": "Jalan Puri Sakti",
    "amenity": "hospital",
    "name": "International SOS Cipete"
  }
},
{
  "type": "node",
  "id": 4242433219,
  "lat": -6.1576130,
  "lon": 106.8414350,
  "timestamp": "2016-06-14T06:57:59Z",
  "version": 1,
  "changeset": 40010546,
  "user": "blueueto",
  "uid": 3873099,
  "tags": {
    "addr:city": "Kemayoran, Gn. Sahari, Central Jakarta",
    "addr:housenumber": "No. 1",
    "addr:postcode": "10610",
    "addr:street": "Jl. Angkasa Blok B15",
    "amenity": "hospital",
    "name": "Garuda Sentra Medika"
  }
},
{
  "type": "node",
  "id": 4242691424,
  "lat": -6.1849684,
  "lon": 106.8445519,
  "timestamp": "2016-06-14T10:30:48Z",
  "version": 1,
  "changeset": 40014434,
  "user": "bleutaxi",
  "uid": 3873184,
  "tags": {
    "addr:city": "Central Jakarta",
    "addr:housenumber": "47",
    "addr:postcode": "10450",
    "addr:street": "Jl. Kramat Raya , RT.3/RW.4, Kramat, Senen",
    "amenity": "hospital",
    "name": "PMI DKI Jakarta"
  }
},
{
  "type": "node",
  "id": 4242702971,
  "lat": -6.2859444,
  "lon": 106.8189008,
  "timestamp": "2016-06-16T03:43:03Z",
  "version": 2,
  "changeset": 40051716,
  "user": "bleutaxi",
  "uid": 3873184,
  "tags": {
    "addr:city": "South Jakarta",
    "addr:housenumber": "34",
    "addr:postcode": "12560",
    "addr:street": "Jalan Ampera Raya , Cilandak Timur, Pasar Minggu",
    "amenity": "hospital",
    "name": "RSIA Kemang Medical Care Women and Children"
  }
},
{
  "type": "node",
  "id": 4243845096,
  "lat": -6.1671315,
  "lon": 106.7853535,
  "timestamp": "2016-06-15T04:43:54Z",
  "version": 1,
  "changeset": 40030856,
  "user": "blueueto",
  "uid": 3873099,
  "tags": {
    "addr:city": "West Jakarta",
    "addr:housenumber": "No.34",
    "addr:postcode": "11440",
    "addr:street": "Jalan Daan Mogot",
    "amenity": "hospital",
    "name": "Rumah Sakit Royal Taruma"
  }
},
{
  "type": "node",
  "id": 4243850657,
  "lat": -6.2878065,
  "lon": 106.8747680,
  "timestamp": "2016-12-10T17:11:27Z",
  "version": 3,
  "changeset": 44307610,
  "user": "yakali ga kuy",
  "uid": 4697982,
  "tags": {
    "addr:city": "East Jakarta",
    "addr:housenumber": "No.23, RT.3/RW.1",
    "addr:postcode": "13510",
    "addr:street": "Jl. Pondok Gede",
    "amenity": "hospital",
    "name": "Rumah Sakit MH. Thamrin"
  }
},
{
  "type": "node",
  "id": 4243947173,
  "lat": -6.2185832,
  "lon": 106.7781696,
  "timestamp": "2016-06-16T03:08:17Z",
  "version": 2,
  "changeset": 40051472,
  "user": "bleutaxi",
  "uid": 3873184,
  "tags": {
    "addr:city": "West Jakarta",
    "addr:postcode": "12180",
    "addr:street": "Jl. Raya Kebayoran Lama No. 64",
    "amenity": "hospital",
    "name": "Rumah Sakit Medika Permata Hijau"
  }
},
{
  "type": "node",
  "id": 4243961867,
  "lat": -6.1873253,
  "lon": 106.7610748,
  "timestamp": "2016-06-15T07:29:05Z",
  "version": 1,
  "changeset": 40032871,
  "user": "blueueto",
  "uid": 3873099,
  "tags": {
    "addr:city": "West Jakarta",
    "addr:housenumber": "No.2, RT.7/RW.3",
    "addr:postcode": "11520",
    "addr:street": "Jl. Raya Kedoya",
    "amenity": "hospital",
    "name": "Rumah Sakit Puri Mandiri Kedoya"
  }
},
{
  "type": "node",
  "id": 4243970276,
  "lat": -6.1737520,
  "lon": 106.8760240,
  "timestamp": "2016-06-15T07:49:05Z",
  "version": 1,
  "changeset": 40033176,
  "user": "blueueto",
  "uid": 3873099,
  "tags": {
    "addr:city": "Central Jakarta",
    "addr:housenumber": "No.2",
    "addr:postcode": "13210",
    "addr:street": "Jalan Ahmad Yani",
    "amenity": "hospital",
    "name": "Klinik Kantor Pusat Pertamina"
  }
},
{
  "type": "node",
  "id": 4243991854,
  "lat": -6.1898215,
  "lon": 106.8290384,
  "timestamp": "2016-06-15T08:04:29Z",
  "version": 1,
  "changeset": 40033425,
  "user": "blueueto",
  "uid": 3873099,
  "tags": {
    "addr:city": "Central Jakarta",
    "addr:housenumber": "No. 31-33",
    "addr:postcode": "10350",
    "addr:street": "Jalan HOS. Cokroaminoto",
    "amenity": "hospital",
    "name": "Rumah Sakit Abdi Waluyo"
  }
},
{
  "type": "node",
  "id": 4243993609,
  "lat": -6.1712717,
  "lon": 106.8151689,
  "timestamp": "2016-06-15T08:07:47Z",
  "version": 1,
  "changeset": 40033470,
  "user": "blueueto",
  "uid": 3873099,
  "tags": {
    "addr:city": "Central Jakarta",
    "addr:housenumber": "No. 09,",
    "addr:postcode": "10160",
    "addr:street": "Jl. Kesehatan,",
    "amenity": "hospital",
    "name": "Rumah Sakit THT. Bedah Prof. Nizar"
  }
},
{
  "type": "node",
  "id": 4244002690,
  "lat": -6.2071716,
  "lon": 106.7665024,
  "timestamp": "2016-06-15T08:11:13Z",
  "version": 1,
  "changeset": 40033513,
  "user": "bleutaxi",
  "uid": 3873184,
  "tags": {
    "addr:city": "West Jakarta",
    "addr:housenumber": "2",
    "addr:postcode": "11550",
    "addr:street": "Jalan Raya Kebon Jeruk, Klp. Dua, Kb. Jeruk",
    "amenity": "hospital",
    "name": "Puskesmas Kebon Jeruk"
  }
},
{
  "type": "node",
  "id": 4244006528,
  "lat": -6.1853827,
  "lon": 106.8442391,
  "timestamp": "2016-06-15T08:12:14Z",
  "version": 1,
  "changeset": 40033524,
  "user": "blueueto",
  "uid": 3873099,
  "tags": {
    "addr:city": "Central Jakarta",
    "addr:housenumber": "No.128, RT.1/RW.8",
    "addr:postcode": "10410",
    "addr:street": "Jl. Kramat Raya",
    "amenity": "hospital",
    "name": "Rumah Sakit Kramat 128"
  }
},
{
  "type": "node",
  "id": 4244008555,
  "lat": -6.1871091,
  "lon": 106.8383824,
  "timestamp": "2016-06-15T11:13:43Z",
  "version": 2,
  "changeset": 40036377,
  "user": "bleutaxi",
  "uid": 3873184,
  "tags": {
    "addr:city": "Central Jakarta",
    "addr:housenumber": "RT.14/RW.10",
    "addr:postcode": "10330",
    "addr:street": "Jl. Kali Pasir",
    "amenity": "hospital",
    "name": "Rumah Sakit Menteng Mitra Afia"
  }
},
{
  "type": "node",
  "id": 4244018642,
  "lat": -6.2189213,
  "lon": 106.8451356,
  "timestamp": "2016-06-15T08:27:25Z",
  "version": 1,
  "changeset": 40033758,
  "user": "blueueto",
  "uid": 3873099,
  "tags": {
    "addr:city": "South Jakarta",
    "addr:postcode": "12860",
    "addr:street": "Jl. Dr. Sahardjo No.120",
    "amenity": "hospital",
    "name": "RS Budhi Jaya"
  }
},
{
  "type": "node",
  "id": 4244030331,
  "lat": -6.2477668,
  "lon": 106.8010362,
  "timestamp": "2016-06-15T08:37:11Z",
  "version": 1,
  "changeset": 40033896,
  "user": "blueueto",
  "uid": 3873099,
  "tags": {
    "addr:city": "South Jakarta",
    "addr:postcode": "12240",
    "addr:street": "Jl. Panglima Polim 1 No. 34",
    "amenity": "hospital",
    "name": "Rumah Sakit Ibu dan Anak ASIH"
  }
},
{
  "type": "node",
  "id": 4244053954,
  "lat": -6.2552414,
  "lon": 106.7776236,
  "timestamp": "2016-06-15T09:03:59Z",
  "version": 1,
  "changeset": 40034282,
  "user": "blueueto",
  "uid": 3873099,
  "tags": {
    "addr:city": "South Jakarta",
    "addr:housenumber": "No.5, RT.13/RW.1",
    "addr:postcode": "12240",
    "addr:street": "Jl. Ciputat Raya",
    "amenity": "hospital",
    "name": "Rumah Sakit Yadika Kebayoran Lama"
  }
},
{
  "type": "node",
  "id": 4244062098,
  "lat": -6.2367278,
  "lon": 106.8111591,
  "timestamp": "2016-06-15T09:14:44Z",
  "version": 1,
  "changeset": 40034463,
  "user": "blueueto",
  "uid": 3873099,
  "tags": {
    "addr:city": "South Jakarta",
    "addr:postcode": "12240",
    "addr:street": "Jalan Ciranjang No. 20-22",
    "amenity": "hospital",
    "name": "RS THT Bedah Ciranjang"
  }
},
{
  "type": "node",
  "id": 4244074809,
  "lat": -6.1796668,
  "lon": 106.9038299,
  "timestamp": "2016-06-15T09:32:19Z",
  "version": 1,
  "changeset": 40034747,
  "user": "blueueto",
  "uid": 3873099,
  "tags": {
    "addr:city": "East Jakarta",
    "addr:housenumber": "No.149",
    "addr:postcode": "13250",
    "addr:street": "Jl. Perintis Kemerdekaan",
    "amenity": "hospital",
    "name": "RS Mediros"
  }
},
{
  "type": "node",
  "id": 4244088008,
  "lat": -6.1950377,
  "lon": 106.9059511,
  "timestamp": "2016-06-15T09:36:51Z",
  "version": 1,
  "changeset": 40034818,
  "user": "blueueto",
  "uid": 3873099,
  "tags": {
    "addr:city": "East Jakarta",
    "addr:postcode": "13910",
    "addr:street": "Jl. Bekasi Timur Km 18 No. 6,",
    "amenity": "hospital",
    "name": "RS Harapan Jayakarta"
  }
},
{
  "type": "node",
  "id": 4244090214,
  "lat": -6.1758246,
  "lon": 106.8849862,
  "timestamp": "2016-06-15T09:38:51Z",
  "version": 1,
  "changeset": 40034856,
  "user": "blueueto",
  "uid": 3873099,
  "tags": {
    "addr:city": "East Jakarta",
    "addr:housenumber": "No.2, RT.4/RW.14",
    "addr:postcode": "13210",
    "addr:street": "Jl. Pulo Mas Timur K",
    "amenity": "hospital",
    "name": "Rumah Sakit Kartika Pulomas"
  }
},
{
  "type": "node",
  "id": 4244092221,
  "lat": -6.1959647,
  "lon": 106.8861843,
  "timestamp": "2016-06-15T09:41:20Z",
  "version": 1,
  "changeset": 40034892,
  "user": "blueueto",
  "uid": 3873099,
  "tags": {
    "addr:city": "East Jakarta",
    "addr:postcode": "13220",
    "addr:street": "Jl. Balai Pustaka Baru I",
    "amenity": "hospital",
    "name": "Ambulance Rs.Dharma Nugraha"
  }
},
{
  "type": "node",
  "id": 4244101184,
  "lat": -6.3079556,
  "lon": 106.8710653,
  "timestamp": "2016-06-15T09:55:47Z",
  "version": 1,
  "changeset": 40035122,
  "user": "blueueto",
  "uid": 3873099,
  "tags": {
    "addr:city": "South Jakarta",
    "addr:postcode": "13830",
    "addr:street": "Jl. T.B. Simatupang No.71",
    "amenity": "hospital",
    "name": "RS BINA WALUYA"
  }
},
{
  "type": "node",
  "id": 4244119028,
  "lat": -6.1123667,
  "lon": 106.8821783,
  "timestamp": "2016-06-15T10:10:22Z",
  "version": 1,
  "changeset": 40035350,
  "user": "blueueto",
  "uid": 3873099,
  "tags": {
    "addr:city": "North Jakarta",
    "addr:postcode": "14350",
    "addr:street": "Jl. Tawes No.18-20, RT.4/RW.8",
    "amenity": "hospital",
    "name": "RS. Sukmul"
  }
},
{
  "type": "node",
  "id": 4244119641,
  "lat": -6.1102248,
  "lon": 106.8893765,
  "timestamp": "2016-06-15T10:12:01Z",
  "version": 1,
  "changeset": 40035382,
  "user": "blueueto",
  "uid": 3873099,
  "tags": {
    "addr:city": "North Jakarta",
    "addr:postcode": "14310",
    "addr:street": "Jalan Enggano No.10",
    "amenity": "hospital",
    "name": "RS. Port Medical Center-Poli Bedah Umum"
  }
},
{
  "type": "node",
  "id": 4244121043,
  "lat": -6.1334584,
  "lon": 106.7904436,
  "timestamp": "2016-06-15T10:13:56Z",
  "version": 1,
  "changeset": 40035422,
  "user": "blueueto",
  "uid": 3873099,
  "tags": {
    "addr:city": "North Jakarta",
    "addr:postcode": "14440",
    "addr:street": "Jl. Raya Mas Pluit 1 Blok A. 2A-5A",
    "amenity": "hospital",
    "name": "Rumah Sakit Ibu dan Anak Family"
  }
},
{
  "type": "node",
  "id": 4244136741,
  "lat": -6.1999019,
  "lon": 106.8007721,
  "timestamp": "2016-06-15T10:30:45Z",
  "version": 1,
  "changeset": 40035681,
  "user": "bleutaxi",
  "uid": 3873184,
  "tags": {
    "addr:city": "West Jakarta",
    "addr:housenumber": "79",
    "addr:postcode": "11410",
    "addr:street": "Jl. Aipda K.S. Tubun, Slipi",
    "amenity": "hospital",
    "name": "Rumah Sakit Bhakti Mulia"
  }
},
{
  "type": "node",
  "id": 4244149563,
  "lat": -6.2318807,
  "lon": 106.9100111,
  "timestamp": "2016-06-15T10:40:12Z",
  "version": 1,
  "changeset": 40035853,
  "user": "bleutaxi",
  "uid": 3873184,
  "tags": {
    "addr:city": "East Jakarta",
    "addr:housenumber": "2",
    "addr:postcode": "13430",
    "addr:street": "Jl. Duren Sawit Baru, Pd. Bambu, Duren Sawit",
    "amenity": "hospital",
    "name": "Poli Psikiatri & NAPZA Rumah Sakit Duren Sawit"
  }
},
{
  "type": "node",
  "id": 4244169524,
  "lat": -6.1401106,
  "lon": 106.9212562,
  "timestamp": "2016-06-15T11:06:44Z",
  "version": 1,
  "changeset": 40036248,
  "user": "bleutaxi",
  "uid": 3873184,
  "tags": {
    "addr:city": "North Jakarta",
    "addr:housenumber": "5",
    "addr:postcode": "14140",
    "addr:street": "Jl. Tipar Cakung, Sukapura, Cilincing",
    "amenity": "hospital",
    "name": "RS Islam Jakarta Sukapura"
  }
},
{
  "type": "node",
  "id": 4244181889,
  "lat": -6.1495852,
  "lon": 106.7021926,
  "timestamp": "2016-06-15T11:17:18Z",
  "version": 1,
  "changeset": 40036434,
  "user": "bleutaxi",
  "uid": 3873184,
  "tags": {
    "addr:city": "West Jakarta",
    "addr:housenumber": "1",
    "addr:postcode": "11840",
    "addr:street": "Jl. Peta Selatan, RT.7/RW.11, Kalideres",
    "amenity": "hospital",
    "name": "RS Mitra Keluarga Kalideres"
  }
},
{
  "type": "node",
  "id": 4245411264,
  "lat": -6.3079026,
  "lon": 106.7563193,
  "timestamp": "2016-06-16T02:42:49Z",
  "version": 1,
  "changeset": 40051285,
  "user": "bleutaxi",
  "uid": 3873184,
  "tags": {
    "addr:city": "South Tangerang",
    "addr:housenumber": "95",
    "addr:postcode": "15412",
    "addr:street": "Jalan Ir.Haji Juanda, Ciputat",
    "amenity": "hospital",
    "name": "Rumah Sakit Syarif Hidayatullah"
  }
},
{
  "type": "node",
  "id": 4245429920,
  "lat": -6.1559377,
  "lon": 106.9232448,
  "timestamp": "2016-06-16T03:01:26Z",
  "version": 1,
  "changeset": 40051408,
  "user": "bleutaxi",
  "uid": 3873184,
  "tags": {
    "addr:city": "North Jakarta",
    "addr:housenumber": "14",
    "addr:postcode": "14140",
    "addr:street": "Jalan Siak J 5, Sukapura, Cilincing",
    "amenity": "hospital",
    "name": "RS. Firdaus RSP Firdaus"
  }
},
{
  "type": "node",
  "id": 4245442945,
  "lat": -6.3129482,
  "lon": 106.7327262,
  "timestamp": "2016-06-16T03:33:10Z",
  "version": 2,
  "changeset": 40051659,
  "user": "bleutaxi",
  "uid": 3873184,
  "tags": {
    "addr:city": "South Tangerang",
    "addr:housenumber": "399",
    "addr:postcode": "15414",
    "addr:street": "Jl. Aria Putra Gg. Sukma , Serua Indah, Ciputat",
    "amenity": "hospital",
    "name": "Rumah Sakit Ibu dan Anak Buah Hati Ciputat"
  }
},
{
  "type": "node",
  "id": 4245445125,
  "lat": -6.2993414,
  "lon": 106.7394695,
  "timestamp": "2016-06-16T03:38:57Z",
  "version": 1,
  "changeset": 40051699,
  "user": "bleutaxi",
  "uid": 3873184,
  "tags": {
    "addr:city": "South Tangerang",
    "addr:housenumber": "10",
    "addr:postcode": "15413",
    "addr:street": "Jalan Ciputat Baru Raya",
    "amenity": "hospital",
    "name": "RSIA Cinta Kasih"
  }
},
{
  "type": "node",
  "id": 4245445192,
  "lat": -6.2534164,
  "lon": 106.8412200,
  "timestamp": "2016-06-16T03:41:26Z",
  "version": 1,
  "changeset": 40051711,
  "user": "bleutaxi",
  "uid": 3873184,
  "tags": {
    "addr:city": "South Jakarta",
    "addr:housenumber": "5",
    "addr:postcode": "12780",
    "addr:street": "Jalan Duren Tiga Raya, RT.1/RW.1, Pancoran",
    "amenity": "hospital",
    "name": "Rumah Sakit Bersalin Duren Tiga"
  }
},
{
  "type": "node",
  "id": 4245461418,
  "lat": -6.3071991,
  "lon": 106.8931850,
  "timestamp": "2016-06-16T03:54:33Z",
  "version": 1,
  "changeset": 40051792,
  "user": "bleutaxi",
  "uid": 3873184,
  "tags": {
    "addr:city": "East Jakarta",
    "addr:housenumber": "60",
    "addr:postcode": "13820",
    "addr:street": "Jl. Hankam Raya , Ceger, Cipayung, Ceger, Cipayung",
    "amenity": "hospital",
    "name": "RSU Adhyaksa"
  }
},
{
  "type": "node",
  "id": 4245482508,
  "lat": -6.2213618,
  "lon": 106.7057326,
  "timestamp": "2016-06-16T04:02:12Z",
  "version": 1,
  "changeset": 40051849,
  "user": "bleutaxi",
  "uid": 3873184,
  "tags": {
    "addr:city": "Tangerang",
    "addr:housenumber": "10",
    "addr:postcode": "15157",
    "addr:street": "Jl. Raden Salen, Karang Tengah, Ciledug, Karang Tengah",
    "amenity": "hospital",
    "name": "RSU Bhakti Asih"
  }
},
{
  "type": "node",
  "id": 4245512182,
  "lat": -6.2866269,
  "lon": 106.7709189,
  "timestamp": "2016-06-16T04:54:05Z",
  "version": 1,
  "changeset": 40052344,
  "user": "bleutaxi",
  "uid": 3873184,
  "tags": {
    "addr:city": "South Jakarta",
    "addr:housenumber": "40",
    "addr:postcode": "12310",
    "addr:street": "Jl. Melati Jl. Ciputat Raya, RT.1/RW.9, Pd. Pinang, Kby. Lama,",
    "amenity": "hospital",
    "name": "Rumah Sakit Bhayangkara Sespimma Polri"
  }
},
{
  "type": "node",
  "id": 4245601864,
  "lat": -6.1268477,
  "lon": 106.7931387,
  "timestamp": "2016-06-16T04:51:25Z",
  "version": 1,
  "changeset": 40052321,
  "user": "bleutaxi",
  "uid": 3873184,
  "tags": {
    "addr:city": "North Jakarta",
    "addr:housenumber": "2",
    "addr:postcode": "14430",
    "addr:street": "Jl. Pluit Raya, RT.21/RW.8, Penjaringan",
    "amenity": "hospital",
    "name": "Rumah Sakit Atma Jaya"
  }
},
{
  "type": "node",
  "id": 4245795140,
  "lat": -6.2686369,
  "lon": 106.9720040,
  "timestamp": "2016-06-16T05:54:17Z",
  "version": 1,
  "changeset": 40053080,
  "user": "bleutaxi",
  "uid": 3873184,
  "tags": {
    "addr:city": "Bekasi",
    "addr:housenumber": "11",
    "addr:postcode": "17147",
    "addr:street": "Jl. Gardenia Raya Blok BA-1",
    "amenity": "hospital",
    "name": "Rumah Sakit Hermina Galaxy"
  }
},
{
  "type": "node",
  "id": 4245805121,
  "lat": -6.1233053,
  "lon": 106.7387315,
  "timestamp": "2016-06-16T05:59:07Z",
  "version": 2,
  "changeset": 40053138,
  "user": "bleutaxi",
  "uid": 3873184,
  "tags": {
    "addr:city": "North Jakarta",
    "addr:postcode": "14470",
    "addr:street": "Jl. Pantai Indah Selatan I, RT.3/RW.3, Kamal Muara, Penjaringan,",
    "amenity": "hospital",
    "name": "Grand Family Rumah Sakit Ibu dan Anak"
  }
},
{
  "type": "node",
  "id": 4245817818,
  "lat": -6.2023381,
  "lon": 106.8469041,
  "timestamp": "2016-06-16T06:03:07Z",
  "version": 1,
  "changeset": 40053187,
  "user": "bleutaxi",
  "uid": 3873184,
  "tags": {
    "addr:city": "Central Jakarta",
    "addr:housenumber": "43",
    "addr:postcode": "10320",
    "addr:street": "Jalan Proklamasi, Menteng",
    "amenity": "hospital",
    "name": "Rumah Sakit Khusus THT-Bedah KL Proklamasi"
  }
},
{
  "type": "node",
  "id": 4245842268,
  "lat": -6.2249767,
  "lon": 106.7113969,
  "timestamp": "2016-06-16T06:09:34Z",
  "version": 1,
  "changeset": 40053272,
  "user": "bleutaxi",
  "uid": 3873184,
  "tags": {
    "addr:city": "Tangerang",
    "addr:postcode": "15157",
    "addr:street": "Jl. Hos Cokroaminoto, Karang Tim., Karang Tengah",
    "amenity": "hospital",
    "name": "Rumah Sakit Medika Lestari"
  }
},
{
  "type": "node",
  "id": 4245867792,
  "lat": -6.1732534,
  "lon": 106.8763375,
  "timestamp": "2016-06-16T06:26:04Z",
  "version": 1,
  "changeset": 40053487,
  "user": "bleutaxi",
  "uid": 3873184,
  "tags": {
    "addr:city": "Central Jakarta",
    "addr:housenumber": "2",
    "addr:postcode": "10510",
    "addr:street": "Jalan Jenderal Ahmad Yani, Cempaka Putih",
    "amenity": "hospital",
    "name": "Rumah Sakit Pertamina Jaya (RSPJ)"
  }
},
{
  "type": "node",
  "id": 4245869742,
  "lat": -6.2218595,
  "lon": 106.6889891,
  "timestamp": "2016-06-16T06:29:24Z",
  "version": 1,
  "changeset": 40053527,
  "user": "blueueto",
  "uid": 3873099,
  "tags": {
    "addr:city": "Banten",
    "addr:postcode": "15144",
    "addr:street": "Jl. Kh.hasyim Ashari No.18",
    "amenity": "hospital",
    "name": "RS Mulya"
  }
},
{
  "type": "node",
  "id": 4245875117,
  "lat": -6.3054479,
  "lon": 106.6931195,
  "timestamp": "2016-06-16T06:34:48Z",
  "version": 1,
  "changeset": 40053601,
  "user": "blueueto",
  "uid": 3873099,
  "tags": {
    "addr:city": "Banten",
    "addr:postcode": "15520",
    "addr:street": "Jl. Batam",
    "amenity": "hospital",
    "name": "RSIA Putra Dalima"
  }
},
{
  "type": "node",
  "id": 4245878900,
  "lat": -6.2378469,
  "lon": 106.7453394,
  "timestamp": "2016-06-16T06:36:27Z",
  "version": 1,
  "changeset": 40053623,
  "user": "blueueto",
  "uid": 3873099,
  "tags": {
    "addr:city": "Banten",
    "addr:postcode": "15000",
    "addr:street": "Jalan HOS. Cokro Aminoto No. 4",
    "amenity": "hospital",
    "name": "Rumah Sakit Aminah"
  }
},
{
  "type": "node",
  "id": 4245882810,
  "lat": -6.2301344,
  "lon": 106.7213032,
  "timestamp": "2016-06-16T06:39:39Z",
  "version": 1,
  "changeset": 40053672,
  "user": "blueueto",
  "uid": 3873099,
  "tags": {
    "addr:city": "Banten",
    "addr:housenumber": "Gg. H. Mencong No. 3",
    "addr:postcode": "15151",
    "addr:street": "Jalan Cipto Mangunkusumo",
    "amenity": "hospital",
    "name": "RS Mutiara Bunda Ciledug"
  }
},
{
  "type": "node",
  "id": 4245884768,
  "lat": -6.2920269,
  "lon": 106.7053102,
  "timestamp": "2016-06-16T06:43:44Z",
  "version": 1,
  "changeset": 40053721,
  "user": "blueueto",
  "uid": 3873099,
  "tags": {
    "addr:city": "Banten",
    "addr:postcode": "15412",
    "addr:street": "Jalan Raya Jombang No. 56",
    "amenity": "hospital",
    "name": "Rumah Sakit Ichsan Medical Centre Bintaro"
  }
},
{
  "type": "node",
  "id": 4253851059,
  "lat": -6.3009346,
  "lon": 106.6819356,
  "timestamp": "2016-06-20T06:22:18Z",
  "version": 1,
  "changeset": 40149474,
  "user": "blueueto",
  "uid": 3873099,
  "tags": {
    "amenity": "hospital",
    "name": "Rumah Sakit Trijata"
  }
},
{
  "type": "node",
  "id": 4383772380,
  "lat": -6.2717562,
  "lon": 106.7476277,
  "timestamp": "2016-09-04T15:29:29Z",
  "version": 5,
  "changeset": 41910311,
  "user": "Hudyana",
  "uid": 4212184,
  "tags": {
    "addr:city": "Tangerang Selatan",
    "addr:housenumber": "Blok AC No.1",
    "addr:postcode": "12330",
    "addr:street": "Bintaro Utama 3",
    "amenity": "hospital",
    "name": "Aesthetic & Family Dentistry",
    "opening_hours": "10-19",
    "operator": "Dentistry"
  }
},
{
  "type": "node",
  "id": 4441778292,
  "lat": -6.1366001,
  "lon": 106.9547090,
  "timestamp": "2016-10-11T09:52:50Z",
  "version": 1,
  "changeset": 42797820,
  "user": "Katon S",
  "uid": 4707641,
  "tags": {
    "addr:street": "Rorotan 5",
    "amenity": "hospital",
    "name:en": "Gerau Sehat Rorotan"
  }
},
{
  "type": "way",
  "id": 402025659,
  "timestamp": "2016-03-06T19:51:44Z",
  "version": 1,
  "changeset": 37652436,
  "user": "Farras",
  "uid": 136807,
  "center": {
    "lat": -6.3055398,
    "lon": 106.6929470
  },
  "nodes": [
    4044527822,
    4044527828,
    4044527830,
    4044527824,
    4044527822
  ],
  "tags": {
    "amenity": "hospital",
    "building": "yes"
  }
},
{
  "type": "way",
  "id": 225103500,
  "timestamp": "2013-06-10T13:50:37Z",
  "version": 1,
  "changeset": 16496353,
  "user": "DaudHW",
  "uid": 1533352,
  "center": {
    "lat": -6.3215145,
    "lon": 106.7828172
  },
  "nodes": [
    2339266082,
    2339266083,
    2339266084,
    2339266085,
    2339266086,
    2339266087,
    2339266088,
    2339266089,
    2339266082
  ],
  "tags": {
    "amenity": "hospital",
    "building": "yes",
    "name": "RS Puri Cinere"
  }
},
{
  "type": "way",
  "id": 314070585,
  "timestamp": "2014-11-23T07:39:27Z",
  "version": 1,
  "changeset": 26966927,
  "user": "Mas Ben",
  "uid": 617239,
  "center": {
    "lat": -6.3146012,
    "lon": 106.7941405
  },
  "nodes": [
    3201111488,
    3201111484,
    3201111485,
    3201111505,
    3201111506,
    3201111502,
    3201111501,
    3201111494,
    3201111489,
    3201111488
  ],
  "tags": {
    "amenity": "hospital",
    "building": "yes",
    "flood_prone": "no",
    "name": "RS Prikasih"
  }
},
{
  "type": "way",
  "id": 373166946,
  "timestamp": "2015-10-01T04:45:03Z",
  "version": 1,
  "changeset": 34360233,
  "user": "cah_bagus",
  "uid": 3178926,
  "center": {
    "lat": -6.2782637,
    "lon": 106.7511736
  },
  "nodes": [
    3766721943,
    3766721944,
    3766721945,
    3766721946,
    3766721943
  ],
  "tags": {
    "amenity": "hospital",
    "name": "Puskesmas Rengas"
  }
},
{
  "type": "way",
  "id": 351209453,
  "timestamp": "2015-06-03T15:45:53Z",
  "version": 1,
  "changeset": 31696128,
  "user": "Firman Hadi",
  "uid": 76518,
  "center": {
    "lat": -6.2922891,
    "lon": 106.7844968
  },
  "nodes": [
    3569515703,
    3569515700,
    3569515702,
    3569515701,
    3569515703
  ],
  "tags": {
    "amenity": "hospital",
    "building": "yes",
    "emergency": "yes",
    "name": "Siloam Hospitals Simatupang"
  }
},
{
  "type": "way",
  "id": 351280939,
  "timestamp": "2015-06-04T00:45:50Z",
  "version": 1,
  "changeset": 31705911,
  "user": "Firman Hadi",
  "uid": 76518,
  "center": {
    "lat": -6.2987202,
    "lon": 106.7861764
  },
  "nodes": [
    3570532009,
    3570532004,
    3570532002,
    3570532012,
    3570532010,
    3570532006,
    3570532009
  ],
  "tags": {
    "amenity": "hospital",
    "emergency": "yes",
    "name": "Mayapada Hospital"
  }
},
{
  "type": "way",
  "id": 121370625,
  "timestamp": "2013-07-11T10:26:02Z",
  "version": 2,
  "changeset": 16911313,
  "user": "Firman Hadi",
  "uid": 76518,
  "center": {
    "lat": -6.2934650,
    "lon": 106.7965578
  },
  "nodes": [
    1359114472,
    1359114634,
    1359114549,
    1359114544,
    1359114748,
    1359114472
  ],
  "tags": {
    "amenity": "hospital",
    "building": "yes",
    "building:levels": "4",
    "building:roof": "tile",
    "building:structure": "reinforced_masonry",
    "building:use": "medical",
    "building:walls": "brick",
    "name": "RS Fatmawati"
  }
},
{
  "type": "way",
  "id": 121370629,
  "timestamp": "2014-11-07T16:12:47Z",
  "version": 2,
  "changeset": 26618152,
  "user": "Dody Suria Wijaya",
  "uid": 229861,
  "center": {
    "lat": -6.2836574,
    "lon": 106.7816426
  },
  "nodes": [
    1359114663,
    3172459473,
    3172459472,
    3172459471,
    3172459470,
    3172459469,
    3172459468,
    1359114716,
    1359114623,
    3172459467,
    3172459466,
    3172459465,
    1359114528,
    3172459464,
    3172459463,
    1359114735,
    1359114643,
    1359114560,
    1359114558,
    1359114758,
    1359114661,
    1359114663
  ],
  "tags": {
    "amenity": "hospital",
    "building": "yes",
    "building:levels": "6",
    "building:roof": "concrete",
    "building:structure": "confined_masonry",
    "building:use": "medical",
    "building:walls": "brick",
    "name": "Rumah Sakit Pondok Indah"
  }
},
{
  "type": "way",
  "id": 157353873,
  "timestamp": "2012-04-11T09:11:09Z",
  "version": 2,
  "changeset": 11262415,
  "user": "emirhartato",
  "uid": 452826,
  "center": {
    "lat": -6.2747544,
    "lon": 106.8080071
  },
  "nodes": [
    1695715778,
    1695715797,
    1695715798,
    1695715800,
    1695715809,
    1695715807,
    1695715802,
    1695715801,
    1695715811,
    1695715821,
    1695715820,
    1695715822,
    1695715823,
    1695715812,
    1695715819,
    1695715803,
    1695715805,
    1695715799,
    1695715796,
    1695715795,
    1695715794,
    1695715792,
    1695715788,
    1695715783,
    1695715778
  ],
  "tags": {
    "access:roof": "yes",
    "addr:full": "Jl. Pangeran Antasari RT 003/RW 06",
    "amenity": "hospital",
    "building": "yes",
    "building:levels": "3",
    "building:roof": "tile",
    "building:structure": "reinforced_masonry",
    "building:walls": "brick",
    "capacity:persons": "200",
    "name": "Klinik SOS Medika",
    "operator:type": "private",
    "rooms": "125"
  }
},
{
  "type": "way",
  "id": 173958680,
  "timestamp": "2012-08-01T16:38:53Z",
  "version": 1,
  "changeset": 12576402,
  "user": "Dyota",
  "uid": 675980,
  "center": {
    "lat": -6.2777431,
    "lon": 106.8037861
  },
  "nodes": [
    1847071380,
    1847071411,
    1847071414,
    1847071383,
    1847071380
  ],
  "tags": {
    "amenity": "hospital",
    "name": "Klinik Cipete"
  }
},
{
  "type": "way",
  "id": 119913162,
  "timestamp": "2011-07-01T13:27:05Z",
  "version": 1,
  "changeset": 8599530,
  "user": "dimdim02",
  "uid": 477569,
  "center": {
    "lat": -6.3075407,
    "lon": 106.8588889
  },
  "nodes": [
    1345755977,
    1345755987,
    1345755961,
    1345755985,
    1345755965,
    1345755953,
    1345755951,
    1345755975,
    1345755955,
    1345755981,
    1345755979,
    1345755958,
    1345755983,
    1345755963,
    1345755977
  ],
  "tags": {
    "amenity": "hospital",
    "building": "yes",
    "building:levels": "1",
    "building:roof": "tile",
    "building:structure": "plastered",
    "building:use": "medical",
    "building:walls": "brick",
    "name": "Rumah Sakit Cijantung"
  }
},
{
  "type": "way",
  "id": 153303478,
  "timestamp": "2014-11-09T16:54:59Z",
  "version": 3,
  "changeset": 26667589,
  "user": "Oberpfälzer",
  "uid": 1244807,
  "center": {
    "lat": -6.3036258,
    "lon": 106.8620978
  },
  "nodes": [
    1660084070,
    1660084062,
    1660084066,
    1660084068,
    1660084072,
    1684181054,
    1342028427,
    1684181060,
    1684181061,
    1342028430,
    1342028426,
    1684181069,
    1660084108,
    1684181068,
    1342028428,
    1342028423,
    1342028424,
    1684181066,
    1660084094,
    1684181065,
    1342028429,
    1342028420,
    1684181051,
    1660084070
  ],
  "tags": {
    "access:roof": "yes",
    "amenity": "hospital",
    "building": "yes",
    "building:levels": "6",
    "building:roof": "concrete",
    "building:structure": "reinforced_masonry",
    "building:use": "medical",
    "building:walls": "brick",
    "name": "Pasar Rebo;Rumah Sakit Pasar Rebo",
    "operator:type": "government"
  }
},
{
  "type": "way",
  "id": 155954263,
  "timestamp": "2012-04-11T09:19:06Z",
  "version": 2,
  "changeset": 11262415,
  "user": "emirhartato",
  "uid": 452826,
  "center": {
    "lat": -6.3077165,
    "lon": 106.8711303
  },
  "nodes": [
    1682882947,
    1682882949,
    1682882952,
    1682882951,
    1682882947
  ],
  "tags": {
    "access:roof": "yes",
    "addr:full": "Jl. Supriyadi",
    "amenity": "hospital",
    "building": "yes",
    "building:levels": "4-7",
    "building:roof": "tile",
    "building:structure": "reinforced_masonry",
    "building:walls": "brick",
    "capacity:persons": "1500",
    "name": "RS Binawaluya",
    "operator:type": "private"
  }
},
{
  "type": "way",
  "id": 119427746,
  "timestamp": "2012-03-20T06:25:38Z",
  "version": 2,
  "changeset": 11037928,
  "user": "pademangan02",
  "uid": 626766,
  "center": {
    "lat": -6.3029998,
    "lon": 106.8680049
  },
  "nodes": [
    1342030430,
    1342030427,
    1342030428,
    1342030435,
    1342030438,
    1342030429,
    1342030430
  ],
  "tags": {
    "access:roof": "yes",
    "addr:full": "Jl. Raya Bogor Rt 008/02",
    "amenity": "hospital",
    "building": "yes",
    "building:levels": "4",
    "building:roof": "concrete",
    "building:structure": "reinforced_masonry",
    "building:use": "medical",
    "building:walls": "brick",
    "name": "Rumah Sakit Harapan Bunda",
    "operator:type": "private"
  }
},
{
  "type": "way",
  "id": 155936716,
  "timestamp": "2012-03-27T09:26:53Z",
  "version": 3,
  "changeset": 11114336,
  "user": "bowie",
  "uid": 617284,
  "center": {
    "lat": -6.3106790,
    "lon": 106.8914324
  },
  "nodes": [
    1682764771,
    1682764772,
    1682764774,
    1682764776,
    1682764777,
    1682764778,
    1682764775,
    1682764773,
    1682764771
  ],
  "tags": {
    "access:roof": "yes",
    "addr:full": "Jl. Raya Ceger RT 010/02",
    "amenity": "hospital",
    "building:levels": "4-7",
    "building:roof": "concrete",
    "building:structure": "reinforced_masonry",
    "building:walls": "brick",
    "name": "RS. Kejaksaan"
  }
},
{
  "type": "way",
  "id": 155936712,
  "timestamp": "2012-03-27T09:26:52Z",
  "version": 2,
  "changeset": 11114336,
  "user": "bowie",
  "uid": 617284,
  "center": {
    "lat": -6.3078332,
    "lon": 106.8927278
  },
  "nodes": [
    1682764744,
    1682764746,
    1682764751,
    1682764745,
    1682764744
  ],
  "tags": {
    "access:roof": "yes",
    "addr:full": "Jl. RT 007/02",
    "amenity": "hospital",
    "building:levels": "4-7",
    "building:roof": "concrete",
    "building:structure": "reinforced_masonry",
    "building:walls": "brick",
    "name": "RS. Kejaksaan"
  }
},
{
  "type": "way",
  "id": 120161341,
  "timestamp": "2011-07-03T13:53:02Z",
  "version": 1,
  "changeset": 8619157,
  "user": "dimdim02",
  "uid": 477569,
  "center": {
    "lat": -6.2764987,
    "lon": 106.8689130
  },
  "nodes": [
    1347935966,
    1347935547,
    1347935840,
    1347935436,
    1347935966
  ],
  "tags": {
    "amenity": "hospital",
    "building": "yes",
    "building:levels": "2",
    "building:roof": "tile",
    "building:structure": "plastered",
    "building:use": "medical",
    "building:walls": "brick",
    "name": "Rumah Sakit Pusdikes"
  }
},
{
  "type": "way",
  "id": 155930180,
  "timestamp": "2012-03-20T04:34:26Z",
  "version": 1,
  "changeset": 11037336,
  "user": "pinangranti",
  "uid": 633589,
  "center": {
    "lat": -6.2898736,
    "lon": 106.8892551
  },
  "nodes": [
    1682733580,
    1682733622,
    1682733629,
    1682733616,
    1682733586,
    1682733572,
    1682733580
  ],
  "tags": {
    "amenity": "hospital",
    "name": "RS HAJI JAKARTA"
  }
},
{
  "type": "way",
  "id": 274193872,
  "timestamp": "2014-04-14T00:44:57Z",
  "version": 1,
  "changeset": 21676783,
  "user": "ZF AUTOMEGA",
  "uid": 2030877,
  "center": {
    "lat": -6.2826984,
    "lon": 106.8779697
  },
  "nodes": [
    2789552418,
    2789552420,
    2789552424,
    2789552426,
    2789552418
  ],
  "tags": {
    "amenity": "hospital",
    "name": "apotek medi Z"
  }
},
{
  "type": "way",
  "id": 274194557,
  "timestamp": "2014-04-14T00:53:12Z",
  "version": 1,
  "changeset": 21676846,
  "user": "ZF AUTOMEGA",
  "uid": 2030877,
  "center": {
    "lat": -6.2837289,
    "lon": 106.8778717
  },
  "nodes": [
    2789558409,
    2789558410,
    2789558411,
    2789558412,
    2789558409
  ],
  "tags": {
    "amenity": "hospital",
    "name": "Bidan Titin"
  }
},
{
  "type": "way",
  "id": 274194243,
  "timestamp": "2014-04-14T00:47:49Z",
  "version": 1,
  "changeset": 21676804,
  "user": "ZF AUTOMEGA",
  "uid": 2030877,
  "center": {
    "lat": -6.2780557,
    "lon": 106.8786181
  },
  "nodes": [
    2789555917,
    2789555918,
    2789555919,
    2789555920,
    2789555917
  ],
  "tags": {
    "amenity": "hospital",
    "name": "slb suprapto"
  }
},
{
  "type": "way",
  "id": 174000152,
  "timestamp": "2012-08-01T21:31:35Z",
  "version": 1,
  "changeset": 12579278,
  "user": "Ratry Chairunnisa",
  "uid": 617241,
  "center": {
    "lat": -6.2828642,
    "lon": 106.9135377
  },
  "nodes": [
    1847426476,
    1847426474,
    1847426480,
    1847426496,
    1847426476
  ],
  "tags": {
    "amenity": "hospital",
    "name": "Puskesmas Pondok Gede"
  }
},
{
  "type": "way",
  "id": 301869610,
  "timestamp": "2014-09-05T08:08:50Z",
  "version": 3,
  "changeset": 25242854,
  "user": "DarkRider910",
  "uid": 2303045,
  "center": {
    "lat": -6.2645043,
    "lon": 106.7305909
  },
  "nodes": [
    1709606786,
    3060361795,
    3060361793,
    1709520531,
    3060361806,
    3060525509,
    3060361807,
    3060361804,
    1709606786
  ],
  "tags": {
    "amenity": "hospital",
    "area": "yes",
    "emergency": "yes",
    "name": "Puskesmas Jurangmangu TImur"
  }
},
{
  "type": "way",
  "id": 153751731,
  "timestamp": "2012-03-07T08:17:06Z",
  "version": 1,
  "changeset": 10897416,
  "user": "dewanto edi",
  "uid": 604623,
  "center": {
    "lat": -6.1861605,
    "lon": 106.7353532
  },
  "nodes": [
    1663996146,
    1663996145,
    1663996138,
    1663996114,
    1663996106,
    1663996105,
    1663996102,
    1663996100,
    1663996081,
    1663996107,
    1663996116,
    1663996132,
    1663996140,
    1663996147,
    1663996146
  ],
  "tags": {
    "access:roof": "yes",
    "amenity": "hospital",
    "building:levels": ">7",
    "building:roof": "concrete",
    "building:structure": "reinforced_masonry",
    "building:walls": "brick",
    "name": "RS Puri Indah",
    "operator:type": "private"
  }
},
{
  "type": "way",
  "id": 192006387,
  "timestamp": "2012-11-22T00:07:23Z",
  "version": 1,
  "changeset": 13977418,
  "user": "Melgo",
  "uid": 1054929,
  "center": {
    "lat": -6.1861369,
    "lon": 106.7353554
  },
  "nodes": [
    2025724707,
    2025724709,
    2025724705,
    2025724714,
    2025724706,
    2025724710,
    2025724708,
    2025724703,
    2025724702,
    2025724701,
    2025724698,
    2025724707
  ],
  "tags": {
    "amenity": "hospital",
    "emergency": "yes"
  }
},
{
  "type": "way",
  "id": 344086020,
  "timestamp": "2015-05-10T12:25:30Z",
  "version": 1,
  "changeset": 30962492,
  "user": "Dony Lay",
  "uid": 2861572,
  "center": {
    "lat": -6.1529030,
    "lon": 106.7123471
  },
  "nodes": [
    3508441175,
    3508441176,
    3508441177,
    3508441178,
    3508441179,
    3508441175
  ],
  "tags": {
    "amenity": "hospital"
  }
},
{
  "type": "way",
  "id": 249665587,
  "timestamp": "2017-03-19T10:04:43Z",
  "version": 7,
  "changeset": 46976008,
  "user": "Asrul Sani",
  "uid": 1385805,
  "center": {
    "lat": -6.1320125,
    "lon": 106.7371163
  },
  "nodes": [
    2562457927,
    2562457928,
    2562457925,
    2562457929,
    2562457932,
    2562457931,
    2562457933,
    2562457930,
    3541142038,
    3541142037,
    2562457926,
    2562457927
  ],
  "tags": {
    "addr:city": "RW 17",
    "addr:postcode": "11730",
    "addr:street": "Kamal Raya Outer Ring Road (Kamal - Kapuk)",
    "amenity": "hospital",
    "building": "yes",
    "emergency": "yes",
    "evacuation_center": "no",
    "flood_prone": "yes",
    "level": "3",
    "name": "RS Cinta Kasih Tzu Chi",
    "operator": "Yayasan Budha Tzu Chi Medika"
  }
},
{
  "type": "way",
  "id": 314067037,
  "timestamp": "2014-11-23T06:19:24Z",
  "version": 1,
  "changeset": 26966206,
  "user": "della ananto",
  "uid": 2334957,
  "center": {
    "lat": -6.1231654,
    "lon": 106.7388225
  },
  "nodes": [
    3201064244,
    3201064243,
    3201064246,
    3201064253,
    3201064247,
    3201064251,
    3201064248,
    3201064245,
    3201064244
  ],
  "tags": {
    "amenity": "hospital",
    "building": "yes",
    "evacuation_center": "no",
    "flood_prone": "no",
    "name": "Rumah Sakit Grand Family"
  }
},
{
  "type": "way",
  "id": 157360934,
  "timestamp": "2015-07-14T08:25:35Z",
  "version": 3,
  "changeset": 32621364,
  "user": "TangSentinel",
  "uid": 2965717,
  "center": {
    "lat": -6.2679193,
    "lon": 106.7666351
  },
  "nodes": [
    1695798683,
    1695798688,
    1695798677,
    1709665505,
    1695798664,
    1695798657,
    1695798654,
    1695798652,
    1695798661,
    1695798669,
    1695798683
  ],
  "tags": {
    "access:roof": "no",
    "addr:full": "Jl. RC Veteran",
    "amenity": "hospital",
    "building": "hospital",
    "building:levels": "3",
    "building:roof": "tile",
    "building:structure": "reinforced_masonry",
    "building:walls": "brick",
    "name": "Rumah Sakit Dr. Suyoto",
    "operator:type": "private",
    "short_name": "RS Dr. Suyoto"
  }
},
{
  "type": "way",
  "id": 157359443,
  "timestamp": "2014-11-09T16:55:36Z",
  "version": 3,
  "changeset": 26667589,
  "user": "Oberpfälzer",
  "uid": 1244807,
  "center": {
    "lat": -6.2584460,
    "lon": 106.7560476
  },
  "nodes": [
    1695779364,
    1695779366,
    1695779358,
    1695779357,
    1695779364
  ],
  "tags": {
    "access:roof": "no",
    "addr:full": "Jalan Pesangrahan Raya",
    "amenity": "hospital",
    "building": "yes",
    "building:levels": "1",
    "building:roof": "tile",
    "building:structure": "reinforced_masonry",
    "building:walls": "brick",
    "capacity:persons": "100",
    "name": "Rumah Sakit kesdam",
    "operator:type": "government"
  }
},
{
  "type": "way",
  "id": 250183795,
  "timestamp": "2013-12-05T18:07:46Z",
  "version": 1,
  "changeset": 19293620,
  "user": "Nanda Bachtiar",
  "uid": 999731,
  "center": {
    "lat": -6.2497415,
    "lon": 106.7783944
  },
  "nodes": [
    2566773300,
    2566773297,
    2566773294,
    2566773304,
    2566773307,
    2566773300
  ],
  "tags": {
    "addr:city": "Jakarta Selatan",
    "addr:postcode": "12240",
    "addr:street": "Ciputat Raya",
    "amenity": "hospital",
    "building": "yes",
    "emergency": "yes",
    "name": "Puskesmas Kebayoran Lama"
  }
},
{
  "type": "way",
  "id": 157366793,
  "timestamp": "2012-04-11T09:19:05Z",
  "version": 2,
  "changeset": 11262415,
  "user": "emirhartato",
  "uid": 452826,
  "center": {
    "lat": -6.2382392,
    "lon": 106.7701243
  },
  "nodes": [
    1695853415,
    1695853417,
    1695853434,
    1695853433,
    1695853421,
    1695853419,
    1695853427,
    1695853428,
    1695853432,
    1695853431,
    1695853437,
    1695853435,
    1695853415
  ],
  "tags": {
    "addr:full": "Jl. Ciledur Raya 94-96",
    "amenity": "hospital",
    "building": "yes",
    "building:levels": "2",
    "building:roof": "tile",
    "building:structure": "reinforced_masonry",
    "building:walls": "brick",
    "capacity:persons": "200",
    "name": "RS Bersalin Kartini",
    "operator:type": "private"
  }
},
{
  "type": "way",
  "id": 334958356,
  "timestamp": "2015-03-27T02:11:12Z",
  "version": 1,
  "changeset": 29768423,
  "user": "asti_shinoda",
  "uid": 524997,
  "center": {
    "lat": -6.2323797,
    "lon": 106.7625482
  },
  "nodes": [
    3420796652,
    3420796651,
    3420796653,
    3420796654,
    3419481682,
    3420796655,
    3420796652
  ],
  "tags": {
    "amenity": "hospital",
    "building": "yes",
    "evacuation_center": "no",
    "flood_prone": "no",
    "name": "RSB Afisena"
  }
},
{
  "type": "way",
  "id": 157367793,
  "timestamp": "2014-11-09T16:54:52Z",
  "version": 4,
  "changeset": 26667589,
  "user": "Oberpfälzer",
  "uid": 1244807,
  "center": {
    "lat": -6.2403182,
    "lon": 106.7837750
  },
  "nodes": [
    1695868340,
    1695868345,
    1695868350,
    1695868347,
    1695868340
  ],
  "tags": {
    "access:roof": "yes",
    "addr:full": "Jl. Sultan Iskandar Muda",
    "amenity": "hospital",
    "building": "yes",
    "building:levels": "4-7",
    "building:roof": "tile",
    "building:structure": "reinforced_masonry",
    "building:walls": "brick",
    "capacity:persons": "500",
    "operator:type": "government"
  }
},
{
  "type": "way",
  "id": 157359661,
  "timestamp": "2012-04-11T09:28:47Z",
  "version": 3,
  "changeset": 11262415,
  "user": "emirhartato",
  "uid": 452826,
  "center": {
    "lat": -6.2398928,
    "lon": 106.7858200
  },
  "nodes": [
    1695782296,
    1695782299,
    1695782300,
    1695782298,
    1695782297,
    1695782296
  ],
  "tags": {
    "access:roof": "no",
    "addr:full": "Jln. Gandaria Tengah I",
    "amenity": "hospital",
    "building": "yes",
    "building:levels": "2",
    "building:roof": "tile",
    "building:structure": "reinforced_masonry",
    "building:walls": "brick",
    "capacity:persons": "Fix me",
    "operator:type": "private",
    "rooms": "Fix Me"
  }
},
{
  "type": "way",
  "id": 157367038,
  "timestamp": "2012-03-29T08:42:17Z",
  "version": 1,
  "changeset": 11134901,
  "user": "kelurahan cipete utara",
  "uid": 642252,
  "center": {
    "lat": -6.2574502,
    "lon": 106.8075243
  },
  "nodes": [
    1695861825,
    1695861823,
    1695861832,
    1695861834,
    1695861825
  ],
  "tags": {
    "access:roof": "yes",
    "addr:full": "JL. TAMAN BRAWIJAYA NO.1",
    "amenity": "hospital",
    "building": "hospital",
    "building:levels": "4-7",
    "building:roof": "tile",
    "building:structure": "reinforced_masonry",
    "building:walls": "brick",
    "name": "RS. WOMEN CHILDREEN",
    "operator:type": "private"
  }
},
{
  "type": "way",
  "id": 482191824,
  "timestamp": "2017-03-23T07:56:27Z",
  "version": 1,
  "changeset": 47088427,
  "user": "martinmbaihaqi",
  "uid": 1840603,
  "center": {
    "lat": -6.2712151,
    "lon": 106.8303429
  },
  "nodes": [
    4750430766,
    4750430765,
    4750430764,
    4750430763,
    4750430766
  ],
  "tags": {
    "access:roof": "no",
    "addr:full": "jl kalibata pulo rt0w 5",
    "amenity": "hospital",
    "building": "yes",
    "building:levels": ">7",
    "building:roof": "tile",
    "building:structure": "reinforced_masonry",
    "building:walls": "brick",
    "capacity:persons": "500",
    "name": "rumah sakit JMC",
    "operator:type": "private",
    "rooms": "200"
  }
},
{
  "type": "way",
  "id": 157363185,
  "timestamp": "2012-03-29T07:44:31Z",
  "version": 1,
  "changeset": 11134557,
  "user": "pejaten barat",
  "uid": 642182,
  "center": {
    "lat": -6.2728810,
    "lon": 106.8392338
  },
  "nodes": [
    1695822022,
    1695822025,
    1695822030,
    1695822029,
    1695822028,
    1695822026,
    1695822027,
    1695822023,
    1695822024,
    1695822021,
    1695822022
  ],
  "tags": {
    "access:roof": "yes",
    "amenity": "hospital",
    "building": "hospital",
    "building:levels": "2",
    "building:roof": "tile",
    "building:structure": "reinforced_masonry",
    "building:walls": "brick",
    "name": "RS SIAGA",
    "operator:type": "private"
  }
},
{
  "type": "way",
  "id": 157397564,
  "timestamp": "2012-04-11T09:08:55Z",
  "version": 2,
  "changeset": 11262415,
  "user": "emirhartato",
  "uid": 452826,
  "center": {
    "lat": -6.2493577,
    "lon": 106.8268072
  },
  "nodes": [
    1696183336,
    1696183362,
    1696183355,
    1696183335,
    1696183336
  ],
  "tags": {
    "access:roof": "yes",
    "amenity": "hospital",
    "building": "yes",
    "building:levels": "3",
    "building:roof": "concrete",
    "building:structure": "confined_masonry",
    "building:walls": "brick",
    "capacity:persons": "100",
    "name": "JMC",
    "operator:type": "private",
    "rooms": "20"
  }
},
{
  "type": "way",
  "id": 157364894,
  "timestamp": "2012-03-29T08:15:57Z",
  "version": 1,
  "changeset": 11134732,
  "user": "cahya",
  "uid": 631127,
  "center": {
    "lat": -6.2545464,
    "lon": 106.8323680
  },
  "nodes": [
    1695837052,
    1695837041,
    1695837055,
    1695837058,
    1695837059,
    1695837064,
    1695837070,
    1695837081,
    1695837082,
    1695837051,
    1695837052
  ],
  "tags": {
    "access:roof": "yes",
    "addr:full": "jl.raya duren tiga",
    "amenity": "hospital",
    "building": "hospital",
    "building:levels": "4-7",
    "building:roof": "tile",
    "building:structure": "reinforced_masonry",
    "building:walls": "brick",
    "name": "Rs.Asri",
    "operator:type": "private"
  }
},
{
  "type": "way",
  "id": 157354417,
  "timestamp": "2012-04-11T09:19:29Z",
  "version": 2,
  "changeset": 11262415,
  "user": "emirhartato",
  "uid": 452826,
  "center": {
    "lat": -6.2479968,
    "lon": 106.8010512
  },
  "nodes": [
    1695722543,
    1695722544,
    1695722553,
    1695722555,
    1695722543
  ],
  "tags": {
    "access:roof": "yes",
    "addr:full": "Jalan Panglima Polim 1",
    "amenity": "hospital",
    "building": "yes",
    "building:levels": "2",
    "building:roof": "tile",
    "building:structure": "reinforced_masonry",
    "building:walls": "brick",
    "capacity:persons": "100-200",
    "name": "Rumah Sakit Bersalin Asih",
    "operator:type": "private",
    "rooms": "30-40"
  }
},
{
  "type": "way",
  "id": 484480409,
  "timestamp": "2017-04-04T09:48:19Z",
  "version": 2,
  "changeset": 47436980,
  "user": "Yeni Primasari",
  "uid": 5539627,
  "center": {
    "lat": -6.2398820,
    "lon": 106.8337156
  },
  "nodes": [
    4772312772,
    4772312771,
    4772312775,
    4772312777,
    4772312776,
    4772312774,
    4772312773,
    4772312772
  ],
  "tags": {
    "access:roof": "no",
    "addr:full": "Jalan Gatot Subroto",
    "amenity": "hospital",
    "backup_generator": "no",
    "building": "hospital",
    "building:condition": "good",
    "building:levels": "8",
    "building:roof": "concrete",
    "building:structure": "confined_masonry",
    "building:walls": "concrete",
    "buildings:floor": "ceramics",
    "capacity": "250-500",
    "name": "Rumah Sakit Medistra",
    "operator:type": "private"
  }
},
{
  "type": "way",
  "id": 156931595,
  "timestamp": "2012-04-11T09:19:10Z",
  "version": 2,
  "changeset": 11262415,
  "user": "emirhartato",
  "uid": 452826,
  "center": {
    "lat": -6.2191080,
    "lon": 106.7777566
  },
  "nodes": [
    1691714174,
    1691714176,
    1691714178,
    1691714183,
    1691714184,
    1691714185,
    1691714188,
    1691714189,
    1691714196,
    1691714194,
    1691714193,
    1691714187,
    1691714186,
    1691714182,
    1691714179,
    1691714177,
    1691714175,
    1691714172,
    1691714173,
    1691714174
  ],
  "tags": {
    "access:roof": "yes",
    "addr:full": "Jl. Kebayoran Lama",
    "amenity": "hospital",
    "building": "yes",
    "building:levels": "3",
    "building:roof": "asbestos",
    "building:structure": "reinforced_masonry",
    "building:walls": "brick",
    "capacity:persons": "Besar",
    "name": "RS Medika Permata Hijau",
    "operator:type": "private"
  }
},
{
  "type": "way",
  "id": 157204608,
  "timestamp": "2012-04-11T09:19:29Z",
  "version": 2,
  "changeset": 11262415,
  "user": "emirhartato",
  "uid": 452826,
  "center": {
    "lat": -6.2030134,
    "lon": 106.7731436
  },
  "nodes": [
    1694234389,
    1694234390,
    1694234388,
    1694234387,
    1694234389
  ],
  "tags": {
    "access:roof": "yes",
    "addr:full": "Jalan Anggrek RW. 02 Kelurahan Kelapa Dua",
    "amenity": "hospital",
    "building": "yes",
    "building:levels": "2",
    "building:roof": "tile",
    "building:structure": "reinforced_masonry",
    "building:walls": "brick",
    "capacity:persons": "300",
    "name": "Rumah Sakit Bersalin Dokter Sanusi",
    "operator:type": "private",
    "rooms": "10"
  }
},
{
  "type": "way",
  "id": 156919180,
  "timestamp": "2012-04-11T09:30:16Z",
  "version": 2,
  "changeset": 11262415,
  "user": "emirhartato",
  "uid": 452826,
  "center": {
    "lat": -6.1973010,
    "lon": 106.7926186
  },
  "nodes": [
    1691616680,
    1691616678,
    1691616679,
    1691616681,
    1691616683,
    1691616685,
    1691616682,
    1691616680
  ],
  "tags": {
    "access:roof": "yes",
    "addr:full": "komplek hankam rt 5/02",
    "amenity": "hospital",
    "building": "yes",
    "building:levels": "3",
    "building:roof": "tile",
    "building:structure": "reinforced_masonry",
    "building:walls": "brick",
    "capacity:persons": "200",
    "name": "patria IKKT",
    "operator:type": "private"
  }
},
{
  "type": "way",
  "id": 225098529,
  "timestamp": "2016-11-14T01:48:01Z",
  "version": 2,
  "changeset": 43623327,
  "user": "Dhean Thama",
  "uid": 4803301,
  "center": {
    "lat": -6.1907845,
    "lon": 106.7637486
  },
  "nodes": [
    2339217597,
    2339217601,
    2339217602,
    2339217603,
    2339217597
  ],
  "tags": {
    "amenity": "hospital",
    "building": "yes",
    "name": "RS Siloam",
    "name:en": "Kebun Jeruk"
  }
},
{
  "type": "way",
  "id": 156923931,
  "timestamp": "2012-04-11T09:19:32Z",
  "version": 2,
  "changeset": 11262415,
  "user": "emirhartato",
  "uid": 452826,
  "center": {
    "lat": -6.1856659,
    "lon": 106.7614435
  },
  "nodes": [
    1691650457,
    1691650408,
    1691650433,
    1691650459,
    1691650457
  ],
  "tags": {
    "access:roof": "no",
    "addr:full": "Jl. Kedoya Al-Kamal RT 07 RW 03",
    "amenity": "hospital",
    "building": "yes",
    "building:levels": "2",
    "building:roof": "tile",
    "building:walls": "brick",
    "capacity:persons": "200",
    "name": "Rumah Sakit Puri Mandiri",
    "operator:type": "private"
  }
},
{
  "type": "way",
  "id": 156923934,
  "timestamp": "2012-04-11T09:19:30Z",
  "version": 3,
  "changeset": 11262415,
  "user": "emirhartato",
  "uid": 452826,
  "center": {
    "lat": -6.1894940,
    "lon": 106.7613993
  },
  "nodes": [
    1691650399,
    1691650476,
    1691650381,
    1691650402,
    1691650430,
    1691650396,
    1691650427,
    1691650450,
    1691650399
  ],
  "tags": {
    "access:roof": "no",
    "addr:full": "Jl. Arjuna Selatan RW 03",
    "amenity": "hospital",
    "building": "yes",
    "building:levels": "4-7",
    "building:roof": "tile",
    "building:walls": "brick",
    "capacity:persons": "500",
    "name": "Rumah Sakit Mata Internasional",
    "operator:type": "private"
  }
},
{
  "type": "way",
  "id": 157205903,
  "timestamp": "2012-04-11T09:27:46Z",
  "version": 2,
  "changeset": 11262415,
  "user": "emirhartato",
  "uid": 452826,
  "center": {
    "lat": -6.1856596,
    "lon": 106.7716601
  },
  "nodes": [
    1694259165,
    1694259173,
    1694259174,
    1694259168,
    1694259164,
    1694259165
  ],
  "tags": {
    "access:roof": "no",
    "addr:full": "jl duri raya no 22",
    "amenity": "hospital",
    "building": "yes",
    "building:levels": "2",
    "building:roof": "concrete",
    "building:structure": "reinforced_masonry",
    "building:walls": "brick",
    "capacity:persons": ">100",
    "name": "bina sehat mandiri",
    "operator:type": "private",
    "rooms": "10"
  }
},
{
  "type": "way",
  "id": 120912164,
  "timestamp": "2011-07-09T06:58:43Z",
  "version": 1,
  "changeset": 8671897,
  "user": "tika yulianidar",
  "uid": 477302,
  "center": {
    "lat": -6.1867766,
    "lon": 106.7980423
  },
  "nodes": [
    1354559404,
    1354559413,
    1354559401,
    1354559392,
    1354559409,
    1354559398,
    1354559414,
    1354559403,
    1354559395,
    1354559411,
    1354559404
  ],
  "tags": {
    "amenity": "hospital",
    "building": "yes",
    "building:roof": "tile",
    "building:structure": "reinforced_masonry",
    "building:use": "medical",
    "building:walls": "brick",
    "name": "RS Kanker Dharmais"
  }
},
{
  "type": "way",
  "id": 156919209,
  "timestamp": "2014-11-09T16:54:55Z",
  "version": 2,
  "changeset": 26667589,
  "user": "Oberpfälzer",
  "uid": 1244807,
  "center": {
    "lat": -6.1844775,
    "lon": 106.7991746
  },
  "nodes": [
    1691616847,
    1691616864,
    1691616862,
    1691616849,
    1691616852,
    1691616828,
    1691616840,
    1691616846,
    1691616847
  ],
  "tags": {
    "addr:full": "Jl. Letjend. S. Parman Kav. 87 RT.010/08 Tlp. 0215668284",
    "amenity": "hospital",
    "name": "Komplek RS. Harapan Kita (R.S Anak dan Bunda)",
    "operator:type": "government"
  }
},
{
  "type": "way",
  "id": 156919210,
  "timestamp": "2014-11-09T16:54:55Z",
  "version": 2,
  "changeset": 26667589,
  "user": "Oberpfälzer",
  "uid": 1244807,
  "center": {
    "lat": -6.1854803,
    "lon": 106.7993032
  },
  "nodes": [
    1357834060,
    1357834061,
    1691616875,
    1691616863,
    1357834060
  ],
  "tags": {
    "addr:full": "Jl. Letjend. S. Parman Kav. 87 RT.010/08 Tlp. 0215684085 - 93",
    "amenity": "hospital",
    "name": "Komplek RS. Harapan Kita Khusus Jantung & Pembuluh Darah",
    "operator:type": "government"
  }
},
{
  "type": "way",
  "id": 155115832,
  "timestamp": "2012-03-15T08:33:00Z",
  "version": 1,
  "changeset": 10986005,
  "user": "Kelurahan Benhil",
  "uid": 629284,
  "center": {
    "lat": -6.2110032,
    "lon": 106.8111642
  },
  "nodes": [
    1675498318,
    1675498338,
    1675498339,
    1675498319,
    1675498318
  ],
  "tags": {
    "amenity": "hospital",
    "name": "Rumah Sakit AL Mintohardjo"
  }
},
{
  "type": "way",
  "id": 155115812,
  "timestamp": "2015-11-13T14:37:17Z",
  "version": 3,
  "changeset": 35285511,
  "user": "everyone_sinks_starco",
  "uid": 165040,
  "center": {
    "lat": -6.2114801,
    "lon": 106.8087510
  },
  "nodes": [
    1675498322,
    1675498320,
    1675498341,
    1675498342,
    1675498349,
    1675498362,
    1675498364,
    1675498363,
    1675498358,
    1675498356,
    1675498353,
    1675498352,
    1675498351,
    1675498322
  ],
  "tags": {
    "amenity": "hospital",
    "name": "Laboratorium Kedokteran Gigi (LADOKGI)",
    "opening_hours": "Tu-Su 08:00-15:00;Sa 08:00-12:00"
  }
},
{
  "type": "way",
  "id": 124163125,
  "timestamp": "2011-08-02T07:22:14Z",
  "version": 1,
  "changeset": 8897996,
  "user": "gnemok",
  "uid": 138225,
  "center": {
    "lat": -6.2186521,
    "lon": 106.8163036
  },
  "nodes": [
    1382701405,
    1382701410,
    1382701420,
    1382701412,
    1382701408,
    1382701425,
    1382701423,
    1382701421,
    1382701422,
    1382701414,
    1382701413,
    1382701406,
    1382701411,
    1382701418,
    1382701415,
    1382701416,
    1382701405
  ],
  "tags": {
    "amenity": "hospital",
    "building": "yes",
    "emergency": "yes",
    "name": "RS Jakarta"
  }
},
{
  "type": "way",
  "id": 157347116,
  "timestamp": "2013-06-14T07:20:47Z",
  "version": 3,
  "changeset": 16546518,
  "user": "anang prasetyo",
  "uid": 1546751,
  "center": {
    "lat": -6.2190487,
    "lon": 106.8172493
  },
  "nodes": [
    1365699567,
    1365699161,
    1365700228,
    1365699449,
    1365699567
  ],
  "tags": {
    "access:roof": "yes",
    "addr:full": "Jl. Garnisun Dalam RT 003 RW 04",
    "amenity": "hospital",
    "building": "yes",
    "building:levels": ">7",
    "building:roof": "concrete",
    "building:walls": "brick",
    "capacity:persons": "1000",
    "name": "MRCC Siloam Hospital",
    "operator:type": "private"
  }
},
{
  "type": "way",
  "id": 156928913,
  "timestamp": "2014-11-09T16:55:34Z",
  "version": 3,
  "changeset": 26667589,
  "user": "Oberpfälzer",
  "uid": 1244807,
  "center": {
    "lat": -6.1995699,
    "lon": 106.8006181
  },
  "nodes": [
    1691691322,
    1691691341,
    1691691356,
    1691691358,
    1691691361,
    1691691365,
    1691691372,
    1691691371,
    1691691368,
    1691691363,
    1691691359,
    1691691343,
    1691691338,
    1691691299,
    1691691301,
    1691691314,
    1691691322
  ],
  "tags": {
    "access:roof": "no",
    "addr:full": "AIPDA K S TUBUN",
    "amenity": "hospital",
    "building": "yes",
    "building:levels": "2",
    "building:roof": "tile",
    "building:structure": "reinforced_masonry",
    "building:walls": "brick",
    "capacity:persons": "90",
    "name": "RUMAH SAKIT BHAKTI MULIA",
    "operator:type": "government",
    "rooms": "30"
  }
},
{
  "type": "way",
  "id": 122152269,
  "timestamp": "2012-03-15T04:51:08Z",
  "version": 2,
  "changeset": 10984872,
  "user": "KELAPA GADING TIMUR",
  "uid": 626712,
  "center": {
    "lat": -6.2094004,
    "lon": 106.8194805
  },
  "nodes": [
    1365700067,
    1365699672,
    1365700778,
    1365699955,
    1365700067
  ],
  "tags": {
    "access:roof": "yes",
    "addr:full": "jalan jenderal sudirman kav.86",
    "amenity": "hospital",
    "building": "yes",
    "building:levels": "10+",
    "building:roof": "concrete",
    "building:structure": "confined_masonry",
    "building:use": "commercial",
    "building:walls": "brick",
    "capacity:persons": "50",
    "name": "sahid sahirman memorial hospital",
    "operator:type": "private",
    "rooms": "50"
  }
},
{
  "type": "way",
  "id": 121129268,
  "timestamp": "2013-07-19T00:42:46Z",
  "version": 3,
  "changeset": 17006493,
  "user": "Firman Hadi",
  "uid": 76518,
  "center": {
    "lat": -6.2199152,
    "lon": 106.8324163
  },
  "nodes": [
    1356782935,
    1356782531,
    1356782681,
    1356782828,
    1356782935
  ],
  "tags": {
    "amenity": "hospital",
    "building": "yes",
    "building:levels": "4",
    "building:roof": "concrete",
    "building:structure": "confined_masonry",
    "building:use": "medical",
    "building:walls": "brick",
    "emergency": "yes",
    "name": "RS MMC"
  }
},
{
  "type": "way",
  "id": 121129241,
  "timestamp": "2012-05-05T14:41:45Z",
  "version": 2,
  "changeset": 11508433,
  "user": "Ian Granger",
  "uid": 575039,
  "center": {
    "lat": -6.2142643,
    "lon": 106.8285273
  },
  "nodes": [
    1356782414,
    1356782894,
    1356782165,
    1356782367,
    1356782414
  ],
  "tags": {
    "amenity": "hospital",
    "building": "yes",
    "building:levels": "4",
    "building:roof": "concrete",
    "building:structure": "confined_masonry",
    "building:use": "medical",
    "building:walls": "brick",
    "emergency": "yes",
    "name": "Rumah Sakit Mata Aini"
  }
},
{
  "type": "way",
  "id": 157360778,
  "timestamp": "2012-04-11T09:19:25Z",
  "version": 2,
  "changeset": 11262415,
  "user": "emirhartato",
  "uid": 452826,
  "center": {
    "lat": -6.2103302,
    "lon": 106.8351355
  },
  "nodes": [
    1695796835,
    1695796837,
    1695796834,
    1695796833,
    1695796835
  ],
  "tags": {
    "access:roof": "yes",
    "addr:full": "jalan Guntur rt 01 rw 01",
    "amenity": "hospital",
    "building": "yes",
    "building:levels": "2",
    "building:roof": "tile",
    "building:structure": "reinforced_masonry",
    "building:walls": "brick",
    "capacity:persons": "150",
    "name": "Rumah Bersalin Budi Kemuliaan",
    "operator:type": "private",
    "rooms": "30"
  }
},
{
  "type": "way",
  "id": 157357325,
  "timestamp": "2012-08-17T07:38:52Z",
  "version": 2,
  "changeset": 12758981,
  "user": "Ian Granger",
  "uid": 575039,
  "center": {
    "lat": -6.2189622,
    "lon": 106.8449990
  },
  "nodes": [
    1695765370,
    1695765390,
    1695765382,
    1695765362,
    1695765370
  ],
  "tags": {
    "access:roof": "yes",
    "addr:full": "Jalan Dr Saharjo RW 08",
    "amenity": "hospital",
    "building": "hospital",
    "building:levels": "4-7",
    "building:roof": "tile",
    "building:structure": "reinforced_masonry",
    "building:walls": "brick",
    "emergency": "yes",
    "name": "RSIA Budhi Jaya",
    "operator:type": "private"
  }
},
{
  "type": "way",
  "id": 449624401,
  "timestamp": "2016-10-27T03:20:06Z",
  "version": 1,
  "changeset": 43207553,
  "user": "sumberarum",
  "uid": 1806900,
  "center": {
    "lat": -6.2010686,
    "lon": 106.8318719
  },
  "nodes": [
    4465701020,
    4465701021,
    4465701022,
    4465701023,
    4465701020
  ],
  "tags": {
    "amenity": "hospital",
    "emergency": "yes",
    "name": "Rumah Sehat Masjid Agung Sunda Kelapa",
    "operator": "BAZNAS"
  }
},
{
  "type": "way",
  "id": 157354596,
  "timestamp": "2016-11-29T03:20:25Z",
  "version": 3,
  "changeset": 44023931,
  "user": "harrymahar",
  "uid": 617226,
  "center": {
    "lat": -6.2091581,
    "lon": 106.8464245
  },
  "nodes": [
    1695724347,
    4527523593,
    4527523592,
    1695724353,
    4527523595,
    4527523594,
    1695724358,
    1695724356,
    1695724347
  ],
  "tags": {
    "access:roof": "no",
    "addr:city": "South Jakarta",
    "addr:full": "Jl. Sultan Agung",
    "addr:housenumber": "67",
    "addr:postcode": "12970",
    "addr:street": "Jl. Sultan Agung, Ps. Manggis, Setia Budi,",
    "amenity": "hospital",
    "building": "yes",
    "building:levels": "4",
    "building:roof": "tile",
    "building:structure": "reinforced_masonry",
    "building:walls": "brick",
    "capacity:persons": "500",
    "name": "RS Agung",
    "operator:type": "private"
  }
},
{
  "type": "way",
  "id": 235435171,
  "timestamp": "2013-08-28T08:46:16Z",
  "version": 1,
  "changeset": 17550523,
  "user": "soraya bunga larasati",
  "uid": 1727324,
  "center": {
    "lat": -6.2020323,
    "lon": 106.8489119
  },
  "nodes": [
    2434958477,
    2434958478,
    2434958479,
    2434958480,
    2434958481,
    2434958482,
    2434958477
  ],
  "tags": {
    "amenity": "hospital",
    "building": "yes",
    "name": "Klinik Mata Talang"
  }
},
{
  "type": "way",
  "id": 155098189,
  "timestamp": "2014-11-17T18:08:35Z",
  "version": 3,
  "changeset": 26848972,
  "user": "Little Brother",
  "uid": 1694420,
  "center": {
    "lat": -6.2018127,
    "lon": 106.8473262
  },
  "nodes": [
    1675330602,
    1675330636,
    1675330617,
    2434963807,
    2434963809,
    1675330597,
    1675330602
  ],
  "tags": {
    "addr:full": "Jl. Proklamsi No. 43",
    "amenity": "hospital",
    "building": "hospital",
    "building:levels": "3",
    "building:roof": "tile",
    "building:walls": "brick",
    "name": "RS Khusus THT dan Bedah",
    "operator:type": "private",
    "rooms": "50"
  }
},
{
  "type": "way",
  "id": 119783801,
  "timestamp": "2017-03-29T08:59:08Z",
  "version": 4,
  "changeset": 47253072,
  "user": "adam maulana",
  "uid": 5506020,
  "center": {
    "lat": -6.1985268,
    "lon": 106.8456386
  },
  "nodes": [
    1344914316,
    4761474374,
    4761474375,
    4761476021,
    4761476022,
    1344914327,
    1344914325,
    1344914315,
    4761476023,
    1344914313,
    4761475106,
    1344914311,
    4761475107,
    4761475108,
    4761475947,
    4761475948,
    4761475949,
    1344914316
  ],
  "tags": {
    "amenity": "hospital",
    "building": "yes",
    "building:roof": "concrete",
    "building:structure": "reinforced_masonry",
    "building:use": "commercial",
    "building:walls": "brick",
    "emergency": "yes",
    "name": "RSCM - Kencana (Hospital)"
  }
},
{
  "type": "way",
  "id": 156928888,
  "timestamp": "2014-11-24T08:54:32Z",
  "version": 6,
  "changeset": 26990059,
  "user": "Ezagren",
  "uid": 1801604,
  "center": {
    "lat": -6.1932161,
    "lon": 106.8037202
  },
  "nodes": [
    1691691064,
    1691691066,
    1691691074,
    1691691096,
    1691691093,
    1691691100,
    1691691028,
    1691690963,
    1691690925,
    1691690910,
    1691690929,
    1691690886,
    1691690878,
    1691690848,
    1691690851,
    1691690810,
    1691690816,
    1691690773,
    1691690775,
    1691690797,
    1691690804,
    1691690854,
    1691690890,
    1691690894,
    1691690972,
    1691691018,
    1691691033,
    1691691064
  ],
  "tags": {
    "access:roof": "no",
    "addr:full": "AIPDA K S TUBUN",
    "amenity": "hospital",
    "building": "yes",
    "building:levels": "4-7",
    "building:roof": "tile",
    "building:structure": "reinforced_masonry",
    "building:walls": "brick",
    "capacity:persons": "900",
    "name": "RS Pelni Petamburan",
    "operator:type": "government",
    "rooms": "331"
  }
},
{
  "type": "way",
  "id": 155110911,
  "timestamp": "2012-03-15T07:21:41Z",
  "version": 1,
  "changeset": 10985434,
  "user": "Kelurahan Gambir",
  "uid": 629256,
  "center": {
    "lat": -6.1805391,
    "lon": 106.8181946
  },
  "nodes": [
    1675462223,
    1675462214,
    1675462258,
    1675462278,
    1675462223
  ],
  "tags": {
    "access:roof": "yes",
    "addr:full": "Jalan Budi Kemuliaan",
    "amenity": "hospital",
    "building:levels": "1",
    "building:roof": "tile",
    "building:structure": "reinforced_masonry",
    "building:walls": "brick",
    "name": "RS Budi Kemuliaan",
    "operator:type": "private"
  }
},
{
  "type": "way",
  "id": 155112769,
  "timestamp": "2017-03-21T05:21:26Z",
  "version": 3,
  "changeset": 47030306,
  "user": "Yudha Sidhikoro",
  "uid": 4706322,
  "center": {
    "lat": -6.1913083,
    "lon": 106.8279290
  },
  "nodes": [
    1675476842,
    1675476846,
    1675476847,
    1675476845,
    1675476842
  ],
  "tags": {
    "access:roof": "yes",
    "addr:full": "Jl. Gereja Theresia No.22",
    "amenity": "hospital",
    "building": "yes",
    "building:levels": "3",
    "building:roof": "tile",
    "building:structure": "reinforced_masonry",
    "building:walls": "brick",
    "capacity:persons": "150",
    "name": "YPK. MANDIRI",
    "operator:type": "private",
    "rooms": "75"
  }
},
{
  "type": "way",
  "id": 155112757,
  "timestamp": "2017-03-21T06:21:28Z",
  "version": 3,
  "changeset": 47031009,
  "user": "Yudha Sidhikoro",
  "uid": 4706322,
  "center": {
    "lat": -6.1909546,
    "lon": 106.8291651
  },
  "nodes": [
    1675476840,
    1675476841,
    1675476844,
    4746335848,
    1675476843,
    1675476840
  ],
  "tags": {
    "access:roof": "yes",
    "addr:full": "Jl. Hos Cokroaminoto No. 31-33",
    "amenity": "hospital",
    "building": "yes",
    "building:levels": "1",
    "building:roof": "tile",
    "building:structure": "reinforced_masonry",
    "building:walls": "brick",
    "capacity:persons": "150",
    "name": "RS. ABDI WALUYO",
    "operator:type": "private",
    "rooms": "75"
  }
},
{
  "type": "way",
  "id": 155112765,
  "timestamp": "2017-03-29T02:32:11Z",
  "version": 3,
  "changeset": 47246660,
  "user": "adam maulana",
  "uid": 5506020,
  "center": {
    "lat": -6.1961608,
    "lon": 106.8363135
  },
  "nodes": [
    1675476895,
    1675476894,
    1675476893,
    1675476892,
    1675476903,
    1675476913,
    4760981407,
    4760981406,
    1675476931,
    1675476945,
    1675476895
  ],
  "tags": {
    "access:roof": "yes",
    "addr:full": "Jl. Cik Ditiro RW.02",
    "amenity": "hospital",
    "building": "yes",
    "building:levels": "3",
    "building:roof": "tile",
    "building:structure": "reinforced_masonry",
    "building:walls": "brick",
    "capacity:persons": "200",
    "name": "RS. Bunda",
    "operator:type": "private",
    "rooms": "100"
  }
},
{
  "type": "way",
  "id": 155110123,
  "timestamp": "2012-04-11T09:19:11Z",
  "version": 2,
  "changeset": 11262415,
  "user": "emirhartato",
  "uid": 452826,
  "center": {
    "lat": -6.1914811,
    "lon": 106.8418962
  },
  "nodes": [
    1675452641,
    1675452643,
    1675452642,
    1675452646,
    1675452649,
    1675452651,
    1675452653,
    1675452650,
    1675452647,
    1675452641
  ],
  "tags": {
    "access:roof": "no",
    "addr:full": "Jl Raden Saleh Raya",
    "amenity": "hospital",
    "building": "yes",
    "building:levels": "3",
    "building:roof": "tile",
    "building:structure": "reinforced_masonry",
    "building:walls": "brick",
    "capacity:persons": "1000",
    "name": "RS PGI Cikini",
    "operator:type": "private"
  }
},
{
  "type": "way",
  "id": 155112451,
  "timestamp": "2014-11-09T16:55:32Z",
  "version": 2,
  "changeset": 26667589,
  "user": "Oberpfälzer",
  "uid": 1244807,
  "center": {
    "lat": -6.1918315,
    "lon": 106.8466188
  },
  "nodes": [
    1675474879,
    1675474883,
    1675474889,
    1675474859,
    1675474848,
    1675474874,
    1675474879
  ],
  "tags": {
    "access:roof": "yes",
    "addr:full": "KramaT Raya no.178",
    "amenity": "hospital",
    "building": "yes",
    "building:levels": "2",
    "building:roof": "tile",
    "building:structure": "reinforced_masonry",
    "building:walls": "brick",
    "name": "RS Ridwan Maureksa",
    "operator:type": "government",
    "rooms": ">100"
  }
},
{
  "type": "way",
  "id": 121523126,
  "timestamp": "2011-07-13T09:55:44Z",
  "version": 1,
  "changeset": 8710899,
  "user": "dimdim02",
  "uid": 477569,
  "center": {
    "lat": -6.1892719,
    "lon": 106.8453365
  },
  "nodes": [
    1360215203,
    1360215299,
    1360215213,
    1360215280,
    1360215203
  ],
  "tags": {
    "amenity": "hospital",
    "building": "yes",
    "building:levels": "4",
    "building:roof": "concrete",
    "building:structure": "confined_masonry",
    "building:use": "medical",
    "building:walls": "brick",
    "name": "Raden Saleh Medical Center"
  }
},
{
  "type": "way",
  "id": 155951290,
  "timestamp": "2014-11-09T16:55:32Z",
  "version": 2,
  "changeset": 26667589,
  "user": "Oberpfälzer",
  "uid": 1244807,
  "center": {
    "lat": -6.2699051,
    "lon": 106.8708776
  },
  "nodes": [
    1682868068,
    1682868073,
    1682868070,
    1682868065,
    1682868063,
    1682868060,
    1682868059,
    1682868058,
    1682868061,
    1682868068
  ],
  "tags": {
    "access:roof": "yes",
    "addr:full": "Jl. Raya Bogor",
    "amenity": "hospital",
    "building": "yes",
    "building:levels": "3",
    "building:roof": "tile",
    "building:structure": "reinforced_masonry",
    "building:walls": "brick",
    "name": "RS Soekanto",
    "operator:type": "government"
  }
},
{
  "type": "way",
  "id": 155951286,
  "timestamp": "2017-04-04T09:58:36Z",
  "version": 2,
  "changeset": 47437541,
  "user": "Hajid Naufal",
  "uid": 5520507,
  "center": {
    "lat": -6.2650897,
    "lon": 106.8664706
  },
  "nodes": [
    1682868037,
    1682868038,
    1682868039,
    1682868036,
    1682868037
  ],
  "tags": {
    "access:roof": "no",
    "addr:full": "Jl. Raya Bogor",
    "amenity": "hospital",
    "building": "yes",
    "building:levels": "1",
    "building:roof": "tile",
    "building:structure": "unreinforced_masonry",
    "building:walls": "brick",
    "name": "RS Restu",
    "operator:type": "private"
  }
},
{
  "type": "way",
  "id": 155950400,
  "timestamp": "2012-04-11T09:28:04Z",
  "version": 3,
  "changeset": 11262415,
  "user": "emirhartato",
  "uid": 452826,
  "center": {
    "lat": -6.2653961,
    "lon": 106.8758412
  },
  "nodes": [
    1682851461,
    1682851467,
    1682851465,
    1682851459,
    1682851461
  ],
  "tags": {
    "access:roof": "no",
    "addr:full": "RT.012 RW.01 Kelurahan Makasar",
    "amenity": "hospital",
    "building": "yes",
    "building:levels": "1",
    "building:roof": "tile",
    "building:structure": "reinforced_masonry",
    "building:walls": "brick",
    "capacity:persons": "100",
    "operator:type": "private",
    "rooms": "FIXME"
  }
},
{
  "type": "way",
  "id": 119452235,
  "timestamp": "2017-04-04T09:17:41Z",
  "version": 6,
  "changeset": 47436250,
  "user": "irwan hidayatullah",
  "uid": 5520510,
  "center": {
    "lat": -6.2558719,
    "lon": 106.8631015
  },
  "nodes": [
    1342229921,
    1342229918,
    1342229913,
    4763888505,
    4763888506,
    4763888507,
    4763888508,
    3219896319,
    3219896320,
    1342229921
  ],
  "tags": {
    "addr:full": "Jalan Dewi Sartika No.200",
    "amenity": "hospital",
    "backup_generator": "yes",
    "capacity": ">500",
    "evacuation_center": "no",
    "flood_prone": "no",
    "name": "Rumah Sakit Umum Daerah Budhi Asih",
    "operator:type": "government",
    "rooms": "58"
  }
},
{
  "type": "way",
  "id": 120383353,
  "timestamp": "2017-04-04T10:12:34Z",
  "version": 2,
  "changeset": 47437915,
  "user": "irwan hidayatullah",
  "uid": 5520510,
  "center": {
    "lat": -6.2614598,
    "lon": 106.8643719
  },
  "nodes": [
    1349943139,
    1349943140,
    4774467495,
    4774467496,
    1349943133,
    4774467497,
    1349943130,
    1349943139
  ],
  "tags": {
    "amenity": "hospital",
    "building": "yes",
    "building:levels": "1",
    "building:roof": "tile",
    "building:structure": "plastered",
    "building:use": "medical",
    "building:walls": "brick",
    "name": "Klinik Bulan Sabit Merah Indonesia"
  }
},
{
  "type": "way",
  "id": 121195900,
  "timestamp": "2017-04-04T06:46:03Z",
  "version": 7,
  "changeset": 47432944,
  "user": "Hajid Naufal",
  "uid": 5520507,
  "center": {
    "lat": -6.2508155,
    "lon": 106.8719136
  },
  "nodes": [
    1357366983,
    1357367187,
    1357367150,
    4761421195,
    4761421194,
    4761421193,
    3218507075,
    4761421765,
    4761421192,
    4761421766,
    3218507085,
    3218507086,
    3218507073,
    3218507071,
    4761421770,
    4761421769,
    4761421196,
    1357366983
  ],
  "tags": {
    "addr:full": "Jalan Mayjen Soetoyo",
    "amenity": "hospital",
    "name": "Rumah Sakit UKI",
    "operator:type": "private"
  }
},
{
  "type": "way",
  "id": 483400969,
  "timestamp": "2017-04-04T06:46:12Z",
  "version": 2,
  "changeset": 47432944,
  "user": "Hajid Naufal",
  "uid": 5520507,
  "center": {
    "lat": -6.2506729,
    "lon": 106.8719477
  },
  "nodes": [
    4761421785,
    4761421784,
    4761421739,
    4761421743,
    4761421742,
    4761421738,
    4761421783,
    4761421782,
    4761421785
  ],
  "tags": {
    "access:roof": "yes",
    "addr:full": "Jalan Mayjen Soetoyo",
    "amenity": "hospital",
    "backup_generator": "yes",
    "building": "hospital",
    "building:condition": "good",
    "building:floor": "ceramics",
    "building:levels": "4",
    "building:roof": "concrete",
    "building:structure": "confined_masonry",
    "building:walls": "concrete",
    "capacity:persons": ">500",
    "name": "Rumah Sakit UKI",
    "operator:type": "private"
  }
},
{
  "type": "way",
  "id": 483414456,
  "timestamp": "2017-04-04T06:46:14Z",
  "version": 2,
  "changeset": 47432944,
  "user": "Hajid Naufal",
  "uid": 5520507,
  "center": {
    "lat": -6.2511047,
    "lon": 106.8723117
  },
  "nodes": [
    4761524394,
    4761524393,
    4761524392,
    4761524391,
    4761524394
  ],
  "tags": {
    "access:roof": "yes",
    "addr:full": "Jalan Mayjen Soetoyo",
    "amenity": "hospital",
    "backup_generator": "yes",
    "building": "hospital",
    "building:condition": "good",
    "building:floor": "ceramics",
    "building:levels": "4",
    "building:roof": "concrete",
    "building:structure": "confined_masonry",
    "building:walls": "concrete",
    "capacity:persons": "100-250",
    "name": "Rumah Sakit UKI",
    "operator:type": "private"
  }
},
{
  "type": "way",
  "id": 155962912,
  "timestamp": "2014-11-09T16:55:33Z",
  "version": 2,
  "changeset": 26667589,
  "user": "Oberpfälzer",
  "uid": 1244807,
  "center": {
    "lat": -6.2566969,
    "lon": 106.8918747
  },
  "nodes": [
    1682968852,
    1682968862,
    1682968855,
    1682968860,
    1682968858,
    1682968812,
    1682968813,
    1682968814,
    1682968852
  ],
  "tags": {
    "access:roof": "yes",
    "addr:full": "Jl. Rajawali Raya",
    "amenity": "hospital",
    "building": "yes",
    "building:levels": "3",
    "building:roof": "concrete",
    "name": "RS. Antariksa Esnawan",
    "operator:type": "government"
  }
},
{
  "type": "way",
  "id": 120390221,
  "timestamp": "2012-03-21T04:58:00Z",
  "version": 2,
  "changeset": 11048258,
  "user": "chinciaw",
  "uid": 617231,
  "center": {
    "lat": -6.2425755,
    "lon": 106.8501841
  },
  "nodes": [
    1350009866,
    1350009905,
    1350009977,
    1684207999,
    1354435871,
    1354435891,
    1684207998,
    1350009866
  ],
  "tags": {
    "amenity": "hospital",
    "building": "yes",
    "building:levels": "5;8",
    "building:roof": "concrete",
    "building:structure": "confined_masonry;reinforced_masonry",
    "building:use": "medical",
    "building:walls": "brick",
    "name": "Rumah Sakit Umum Tebet"
  }
},
{
  "type": "way",
  "id": 315857307,
  "timestamp": "2017-03-22T03:37:04Z",
  "version": 2,
  "changeset": 47057266,
  "user": "Randy Febri Nanda",
  "uid": 4472999,
  "center": {
    "lat": -6.2465892,
    "lon": 106.8703954
  },
  "nodes": [
    4748072683,
    3219895977,
    3219895962,
    3219895966,
    3219895979,
    4748072682,
    4748072691,
    4748072690,
    4748072689,
    4748072688,
    4748072687,
    4748072686,
    4748072685,
    4748072684,
    4748072697,
    4748072696,
    4748072695,
    4748072694,
    4748072693,
    4748072692,
    4748072683
  ],
  "tags": {
    "amenity": "hospital",
    "building": "yes",
    "evacuation_center": "no",
    "flood_prone": "yes",
    "name": "Rumah Sakit Pusat Otak dan Stroke"
  }
},
{
  "type": "way",
  "id": 481918111,
  "timestamp": "2017-03-22T03:37:02Z",
  "version": 1,
  "changeset": 47057266,
  "user": "Randy Febri Nanda",
  "uid": 4472999,
  "center": {
    "lat": -6.2468508,
    "lon": 106.8708431
  },
  "nodes": [
    4748072705,
    4748072702,
    4748072703,
    4748072704,
    4748072705
  ],
  "tags": {
    "amenity": "hospital",
    "building": "yes",
    "evacuation_center": "no",
    "flood_prone": "yes",
    "name": "Rumah Sakit Pusat Otak dan Stroke"
  }
},
{
  "type": "way",
  "id": 250089371,
  "timestamp": "2013-12-05T09:33:59Z",
  "version": 2,
  "changeset": 19285691,
  "user": "Fadlia Hana",
  "uid": 1830413,
  "center": {
    "lat": -6.2266354,
    "lon": 106.8550530
  },
  "nodes": [
    2566002960,
    2566002961,
    2566002962,
    2566002963,
    2566002960
  ],
  "tags": {
    "amenity": "hospital",
    "building": "yes",
    "name": "Dokter Gigi Kusumastuty"
  }
},
{
  "type": "way",
  "id": 120495770,
  "timestamp": "2014-11-27T08:07:55Z",
  "version": 2,
  "changeset": 27062408,
  "user": "Mia Renauly",
  "uid": 756040,
  "center": {
    "lat": -6.2306521,
    "lon": 106.8669761
  },
  "nodes": [
    1351036063,
    1351036085,
    1351035994,
    1351036071,
    1351036063
  ],
  "tags": {
    "amenity": "hospital",
    "building": "yes",
    "building:levels": "2",
    "building:roof": "tile",
    "building:structure": "plastered",
    "building:use": "medical",
    "building:walls": "brick",
    "evacuation_center": "no",
    "flood_prone": "no",
    "name": "Rumah Sakit Bersalin Bidara Mulia"
  }
},
{
  "type": "way",
  "id": 120494412,
  "timestamp": "2012-03-20T07:56:51Z",
  "version": 2,
  "changeset": 11038549,
  "user": "Cipinang Cempedak",
  "uid": 633620,
  "center": {
    "lat": -6.2319453,
    "lon": 106.8703537
  },
  "nodes": [
    1351016059,
    1351016065,
    1351016049,
    1351016060,
    1351016059
  ],
  "tags": {
    "access:roof": "no",
    "addr:full": "Jalan Otista III RT 01/08",
    "amenity": "hospital",
    "building": "yes",
    "building:levels": "2",
    "building:roof": "tile",
    "building:structure": "reinforced_masonry",
    "building:use": "medical",
    "building:walls": "brick",
    "capacity:persons": "30",
    "name": "Klinik Juni Tjahyawati",
    "operator:type": "private",
    "rooms": "5"
  }
},
{
  "type": "way",
  "id": 155955678,
  "timestamp": "2012-03-20T07:48:23Z",
  "version": 1,
  "changeset": 11038490,
  "user": "Dewi Sulistioningrum",
  "uid": 615320,
  "center": {
    "lat": -6.2372348,
    "lon": 106.8989778
  },
  "nodes": [
    1682897755,
    1682897996,
    1682898527,
    1682897669,
    1682897755
  ],
  "tags": {
    "access:roof": "yes",
    "addr:full": "Jalan Pahlawan Revolusi Rt 04/Rw 005",
    "amenity": "hospital",
    "building:levels": "4-7",
    "building:roof": "tile",
    "building:structure": "reinforced_masonry",
    "building:walls": "brick",
    "name": "Rumah Sakit Iyadika",
    "operator:type": "private"
  }
},
{
  "type": "way",
  "id": 155955622,
  "timestamp": "2012-03-20T07:48:12Z",
  "version": 1,
  "changeset": 11038490,
  "user": "Dewi Sulistioningrum",
  "uid": 615320,
  "center": {
    "lat": -6.2332798,
    "lon": 106.8970845
  },
  "nodes": [
    1682898038,
    1682897942,
    1682898456,
    1682898723,
    1682898692,
    1682897779,
    1682898154,
    1682898420,
    1682898416,
    1682898038
  ],
  "tags": {
    "access:roof": "yes",
    "addr:full": "Jalan Pahlawan Revolusi",
    "amenity": "hospital",
    "building:levels": "3",
    "building:roof": "tile",
    "building:structure": "reinforced_masonry",
    "building:walls": "brick",
    "name": "Rumah Sakit Bunda Alliyah",
    "operator:type": "private"
  }
},
{
  "type": "way",
  "id": 120184483,
  "timestamp": "2015-03-30T08:43:03Z",
  "version": 4,
  "changeset": 29844413,
  "user": "Mia Renauly",
  "uid": 756040,
  "center": {
    "lat": -6.2481583,
    "lon": 106.9097069
  },
  "nodes": [
    1348177439,
    1348177182,
    1348177285,
    1348177271,
    1348177381,
    1348176857,
    1348177007,
    1348177178,
    1348177267,
    1348177373,
    1348176851,
    1348177454,
    1348176933,
    1348177014,
    1348177439
  ],
  "tags": {
    "access:roof": "yes",
    "addr:full": "Jl. Inspeksi Tarum Barat Rw 13",
    "amenity": "hospital",
    "building": "yes",
    "building:levels": "4-7",
    "building:roof": "concrete",
    "building:structure": "confined_masonry",
    "building:use": "medical",
    "building:walls": "brick",
    "capacity:persons": "1000",
    "evacuation_center": "no",
    "flood_prone": "no",
    "name": "Rumah Sakit Harum",
    "operator:type": "private",
    "rooms": "> 100"
  }
},
{
  "type": "way",
  "id": 155955548,
  "timestamp": "2014-11-09T16:55:37Z",
  "version": 2,
  "changeset": 26667589,
  "user": "Oberpfälzer",
  "uid": 1244807,
  "center": {
    "lat": -6.2311586,
    "lon": 106.9085203
  },
  "nodes": [
    1682898393,
    1682897671,
    1682898018,
    1682898251,
    1682898393
  ],
  "tags": {
    "access:roof": "yes",
    "addr:full": "Jalan Bulu Perindu",
    "amenity": "hospital",
    "building": "yes",
    "building:levels": "2",
    "building:roof": "tile",
    "building:structure": "reinforced_masonry",
    "building:walls": "brick",
    "name": "UGD",
    "operator:type": "government"
  }
},
{
  "type": "way",
  "id": 155954215,
  "timestamp": "2014-11-09T16:55:31Z",
  "version": 4,
  "changeset": 26667589,
  "user": "Oberpfälzer",
  "uid": 1244807,
  "center": {
    "lat": -6.2318965,
    "lon": 106.9095651
  },
  "nodes": [
    1682882196,
    1682882198,
    1682882197,
    1682882199,
    1682882201,
    1682882203,
    1682882202,
    1682882216,
    1682882220,
    1682882218,
    1682882214,
    1682882200,
    1682882196
  ],
  "tags": {
    "access:roof": "yes",
    "addr:full": "Jalan sawah barat",
    "addr:housenumber": "13440",
    "addr:street": "Jalan Duren Sawit Baru",
    "amenity": "hospital",
    "building": "yes",
    "building:levels": "4-7",
    "building:roof": "asbestos",
    "building:structure": "reinforced_masonry",
    "building:walls": "brick",
    "capacity:persons": "190",
    "name": "RS Duren Sawit",
    "operator:type": "government",
    "rooms": "55"
  }
},
{
  "type": "way",
  "id": 155954217,
  "timestamp": "2012-03-20T07:37:17Z",
  "version": 1,
  "changeset": 11038434,
  "user": "del tyoro",
  "uid": 617249,
  "center": {
    "lat": -6.2300761,
    "lon": 106.9199873
  },
  "nodes": [
    1682882092,
    1682882101,
    1682882103,
    1682882096,
    1682882092
  ],
  "tags": {
    "access:roof": "yes",
    "addr:full": "Jalan Pendidikan Raya",
    "amenity": "hospital",
    "building:levels": "2",
    "building:roof": "tile",
    "building:structure": "reinforced_masonry",
    "building:walls": "brick",
    "name": "Rumah Sakit Ibnu Sina",
    "operator:type": "private"
  }
},
{
  "type": "way",
  "id": 155952189,
  "timestamp": "2012-04-11T09:25:53Z",
  "version": 2,
  "changeset": 11262415,
  "user": "emirhartato",
  "uid": 452826,
  "center": {
    "lat": -6.2302998,
    "lon": 106.9255421
  },
  "nodes": [
    1682871277,
    1682871283,
    1682871281,
    1682871275,
    1682871269,
    1682871266,
    1682871267,
    1682871277
  ],
  "tags": {
    "access:roof": "no",
    "addr:full": "Jalan Taman Malaka Utara",
    "amenity": "hospital",
    "building": "yes",
    "building:levels": "3",
    "building:roof": "tile",
    "building:structure": "reinforced_masonry",
    "building:walls": "brick",
    "capacity:persons": "300",
    "name": "Sayidah",
    "operator:type": "private"
  }
},
{
  "type": "way",
  "id": 304604828,
  "timestamp": "2014-09-22T23:02:46Z",
  "version": 1,
  "changeset": 25614770,
  "user": "errybest",
  "uid": 2351890,
  "center": {
    "lat": -6.2344470,
    "lon": 106.9231307
  },
  "nodes": [
    3091701459,
    3091701460,
    3091701461,
    3091701462,
    3091701459
  ],
  "tags": {
    "amenity": "hospital",
    "name": "RSIA SEKAR"
  }
},
{
  "type": "way",
  "id": 120982154,
  "timestamp": "2012-03-20T04:43:25Z",
  "version": 2,
  "changeset": 11037374,
  "user": "kelbalimester",
  "uid": 633694,
  "center": {
    "lat": -6.2216703,
    "lon": 106.8688232
  },
  "nodes": [
    1355280258,
    1355280249,
    1355280246,
    1355280253,
    1355280254,
    1355280256,
    1682746846,
    1355280258
  ],
  "tags": {
    "amenity": "hospital",
    "building": "yes",
    "building:levels": "8",
    "building:roof": "concrete",
    "building:structure": "confined_masonry",
    "building:use": "medical",
    "building:walls": "brick",
    "name": "Rumah Sakit Mitra International"
  }
},
{
  "type": "way",
  "id": 155931564,
  "timestamp": "2012-03-20T04:44:19Z",
  "version": 2,
  "changeset": 11037377,
  "user": "kelbalimester",
  "uid": 633694,
  "center": {
    "lat": -6.2216946,
    "lon": 106.8688776
  },
  "nodes": [
    1682746827,
    1682746830,
    1682746846,
    1355280256,
    1355280254,
    1682746851,
    1682746848,
    1682748181,
    1682746824,
    1682746827
  ],
  "tags": {
    "amenity": "hospital",
    "name": "RS Primer Jatinegara",
    "operator:type": "private"
  }
},
{
  "type": "way",
  "id": 454014924,
  "timestamp": "2016-11-17T15:46:43Z",
  "version": 1,
  "changeset": 43733520,
  "user": "harrymahar",
  "uid": 617226,
  "center": {
    "lat": -6.2002213,
    "lon": 106.8553730
  },
  "nodes": [
    4506584236,
    4506584239,
    4506584238,
    4506584240,
    4506584241,
    4506584242,
    4506584243,
    4506584237,
    4506584236
  ],
  "tags": {
    "access:roof": "yes",
    "addr:full": "Jalan Matraman Raya",
    "amenity": "hospital",
    "building": "hospital",
    "building:levels": "9",
    "building:roof": "concrete",
    "building:structure": "confined_masonry",
    "building:walls": "brick",
    "capacity": "1000",
    "name": "Rumah Sakit Jantung Jakarta",
    "operator:type": "private"
  }
},
{
  "type": "way",
  "id": 191511789,
  "timestamp": "2012-11-19T03:03:04Z",
  "version": 1,
  "changeset": 13927138,
  "user": "Aman_28",
  "uid": 1061933,
  "center": {
    "lat": -6.2077851,
    "lon": 106.8720059
  },
  "nodes": [
    2021064170,
    2021064179,
    2021064115,
    2021064175,
    2021064170
  ],
  "tags": {
    "amenity": "hospital",
    "emergency": "no",
    "name": "Puskesmas Utan Kayu Selatan"
  }
},
{
  "type": "way",
  "id": 274482666,
  "timestamp": "2014-04-15T07:29:28Z",
  "version": 1,
  "changeset": 21703735,
  "user": "Irandi Pratomo",
  "uid": 2032685,
  "center": {
    "lat": -6.2034450,
    "lon": 106.8833154
  },
  "nodes": [
    2791964483,
    2791964484,
    2791964485,
    2791964486,
    2791964483
  ],
  "tags": {
    "addr:city": "Jakarta Timur",
    "addr:housenumber": "No. 1",
    "addr:postcode": "13230",
    "addr:street": "Jalan Persahabatan",
    "amenity": "hospital",
    "emergency": "yes",
    "name": "Gedung Asma RS Persahabatan Jakarta"
  }
},
{
  "type": "way",
  "id": 174132866,
  "timestamp": "2012-08-02T15:04:49Z",
  "version": 1,
  "changeset": 12586999,
  "user": "fariszulkarnain",
  "uid": 617263,
  "center": {
    "lat": -6.1963628,
    "lon": 106.8854405
  },
  "nodes": [
    1848546457,
    1848546458,
    1848546459,
    1848546460,
    1848546461,
    1848546456,
    1848546457
  ],
  "tags": {
    "amenity": "hospital",
    "building": "hospital",
    "name": "Rumah Sakit Rawamangun"
  }
},
{
  "type": "way",
  "id": 230174470,
  "timestamp": "2013-07-17T03:56:26Z",
  "version": 1,
  "changeset": 16982192,
  "user": "harrymahar",
  "uid": 617226,
  "center": {
    "lat": -6.1963674,
    "lon": 106.8851163
  },
  "nodes": [
    2387044173,
    2387044172,
    2387044174,
    2387044175,
    2387044173
  ],
  "tags": {
    "amenity": "hospital",
    "building": "hospital",
    "name": "Rumah Sakit Rawamangun"
  }
},
{
  "type": "way",
  "id": 153318583,
  "timestamp": "2014-11-09T16:55:36Z",
  "version": 4,
  "changeset": 26667589,
  "user": "Oberpfälzer",
  "uid": 1244807,
  "center": {
    "lat": -6.2046130,
    "lon": 106.8842965
  },
  "nodes": [
    1660282398,
    1696990081,
    1660282400,
    1696990080,
    1660282334,
    1660282335,
    1660282337,
    1660282346,
    1660282348,
    1660282349,
    1660282345,
    1660282344,
    1660282357,
    1696990078,
    1660282371,
    1660282385,
    1660282386,
    1660282387,
    1660282390,
    1660282391,
    1660282392,
    1696990079,
    1660282393,
    1660282398
  ],
  "tags": {
    "amenity": "hospital",
    "emergency": "yes",
    "name": "Rumah Sakit Persahabatan",
    "operator:type": "government"
  }
},
{
  "type": "way",
  "id": 120509601,
  "timestamp": "2011-07-06T08:09:12Z",
  "version": 1,
  "changeset": 8646036,
  "user": "dimdim02",
  "uid": 477569,
  "center": {
    "lat": -6.1956242,
    "lon": 106.8510029
  },
  "nodes": [
    1351109262,
    1351109267,
    1351109274,
    1351109264,
    1351109262
  ],
  "tags": {
    "amenity": "hospital",
    "building": "yes",
    "building:levels": "6",
    "building:roof": "concrete",
    "building:structure": "confined_masonry",
    "building:use": "medical",
    "building:walls": "brick",
    "name": "Rumah Sakit St Carolus"
  }
},
{
  "type": "way",
  "id": 155097709,
  "timestamp": "2015-11-30T02:34:10Z",
  "version": 2,
  "changeset": 35658350,
  "user": "harrymahar",
  "uid": 617226,
  "center": {
    "lat": -6.1936533,
    "lon": 106.8520953
  },
  "nodes": [
    1675309993,
    1675309989,
    1675310012,
    1675310013,
    1675309993
  ],
  "tags": {
    "access:roof": "yes",
    "addr:full": "Jl. Salemba Tengah",
    "amenity": "hospital",
    "building": "hospital",
    "building:levels": ">7",
    "building:roof": "concrete",
    "building:structure": "reinforced_masonry",
    "building:walls": "brick",
    "name": "Rumah Sakit MH Thamrin",
    "operator:type": "private",
    "rooms": "131"
  }
},
{
  "type": "way",
  "id": 155109641,
  "timestamp": "2017-04-04T09:37:11Z",
  "version": 3,
  "changeset": 47436981,
  "user": "alifatri",
  "uid": 4793967,
  "center": {
    "lat": -6.1935369,
    "lon": 106.8596123
  },
  "nodes": [
    1675451352,
    1675451360,
    1675451365,
    1675451369,
    1675451351,
    1675451356,
    1675451354,
    1675451352
  ],
  "tags": {
    "access:roof": "yes",
    "addr:full": "Jalan Rawamangun No 47 Pramuka Jakarta Pusat",
    "amenity": "hospital",
    "backup_generator": "yes",
    "building": "hospital",
    "building:condition": "good",
    "building:levels": "2",
    "building:roof": "concrete",
    "building:structure": "confined_masonry",
    "building:walls": "glass",
    "buildings:floor": "ceramics",
    "capacity": "250-500",
    "name": "Evasari Rumah Sakit Awal BROS Group",
    "operator:type": "private"
  }
},
{
  "type": "way",
  "id": 155110330,
  "timestamp": "2012-04-11T09:19:31Z",
  "version": 2,
  "changeset": 11262415,
  "user": "emirhartato",
  "uid": 452826,
  "center": {
    "lat": -6.1774390,
    "lon": 106.8512288
  },
  "nodes": [
    1675455133,
    1675455147,
    1675455148,
    1675455131,
    1675455133
  ],
  "tags": {
    "access:roof": "yes",
    "addr:full": "JL Baladewa RW 05",
    "amenity": "hospital",
    "building": "yes",
    "building:levels": "1",
    "building:roof": "tile",
    "building:structure": "reinforced_masonry",
    "building:walls": "brick",
    "capacity:persons": "200 orang",
    "name": "Rumah Sakit Paru-paru",
    "operator:type": "private",
    "rooms": "10 kamar"
  }
},
{
  "type": "way",
  "id": 153318582,
  "timestamp": "2012-03-05T09:08:19Z",
  "version": 1,
  "changeset": 10877282,
  "user": "fariszulkarnain",
  "uid": 617263,
  "center": {
    "lat": -6.1960046,
    "lon": 106.8864114
  },
  "nodes": [
    1660282135,
    1660282130,
    1660282128,
    1660282132,
    1660282137,
    1660282140,
    1660282146,
    1660282148,
    1660282152,
    1660282154,
    1660282158,
    1660282162,
    1660282187,
    1660282188,
    1660282189,
    1660282185,
    1660282186,
    1660282164,
    1660282150,
    1660282138,
    1660282135
  ],
  "tags": {
    "amenity": "hospital",
    "name": "Rumah Sakit Dharma Nugraha",
    "operator:type": "private"
  }
},
{
  "type": "way",
  "id": 155947535,
  "timestamp": "2012-04-11T09:19:11Z",
  "version": 2,
  "changeset": 11262415,
  "user": "emirhartato",
  "uid": 452826,
  "center": {
    "lat": -6.1803458,
    "lon": 106.8839231
  },
  "nodes": [
    1682834017,
    1682834018,
    1682834021,
    1682834025,
    1682834030,
    1682834034,
    1682834040,
    1682834046,
    1682834041,
    1682834039,
    1682834038,
    1682834029,
    1682834028,
    1682834027,
    1682834026,
    1682834024,
    1682834017
  ],
  "tags": {
    "access:roof": "yes",
    "addr:full": "Jalan Pulomas Barat VI No. 20",
    "amenity": "hospital",
    "building": "yes",
    "building:levels": "4-7",
    "building:roof": "concrete",
    "building:structure": "reinforced_masonry",
    "building:walls": "brick",
    "capacity:persons": "300 tempat tidur",
    "name": "RS Omni Internasional Pulomas",
    "operator:type": "private",
    "rooms": "180"
  }
},
{
  "type": "way",
  "id": 155947536,
  "timestamp": "2012-04-11T09:19:14Z",
  "version": 2,
  "changeset": 11262415,
  "user": "emirhartato",
  "uid": 452826,
  "center": {
    "lat": -6.1759647,
    "lon": 106.8849031
  },
  "nodes": [
    1682833903,
    1682833908,
    1682833911,
    1682833907,
    1682833903
  ],
  "tags": {
    "access:roof": "yes",
    "addr:full": "Jalan Pulo Mas Timur K No. 2",
    "amenity": "hospital",
    "building": "yes",
    "building:levels": "3",
    "building:roof": "tile",
    "building:structure": "reinforced_masonry",
    "building:walls": "brick",
    "capacity:persons": "100 tempat tidur",
    "name": "RS Umum Kartika Pulomas",
    "operator:type": "private",
    "rooms": "35"
  }
},
{
  "type": "way",
  "id": 155947694,
  "timestamp": "2012-04-11T09:19:34Z",
  "version": 2,
  "changeset": 11262415,
  "user": "emirhartato",
  "uid": 452826,
  "center": {
    "lat": -6.1822636,
    "lon": 106.8910988
  },
  "nodes": [
    1682834131,
    1682834133,
    1682834085,
    1682834080,
    1682834131
  ],
  "tags": {
    "access:roof": "yes",
    "addr:full": "Jalan Kayu Putih Raya",
    "amenity": "hospital",
    "building": "yes",
    "building:levels": "4-7",
    "building:roof": "concrete",
    "building:structure": "reinforced_masonry",
    "building:walls": "brick",
    "capacity:persons": "104 tempat tidur",
    "name": "Rumah Sakit Umum Admira",
    "operator:type": "private",
    "rooms": "52"
  }
},
{
  "type": "way",
  "id": 121802687,
  "timestamp": "2012-04-11T09:19:15Z",
  "version": 3,
  "changeset": 11262415,
  "user": "emirhartato",
  "uid": 452826,
  "center": {
    "lat": -6.2215324,
    "lon": 106.9148010
  },
  "nodes": [
    1362598271,
    1362598280,
    1362598287,
    1362598268,
    1362598271
  ],
  "tags": {
    "access:roof": "yes",
    "addr:full": "JL. DUREN SAWIT RAYA BLOK K3 NO. 1",
    "amenity": "hospital",
    "building": "yes",
    "building:levels": "2",
    "building:roof": "tile",
    "building:structure": "plastered",
    "building:walls": "brick",
    "capacity:persons": "25",
    "name": "RS. ASTA NUGRAHA",
    "operator:type": "private",
    "rooms": "15"
  }
},
{
  "type": "way",
  "id": 155948488,
  "timestamp": "2012-04-11T02:06:58Z",
  "version": 2,
  "changeset": 11260025,
  "user": "emirhartato",
  "uid": 452826,
  "center": {
    "lat": -6.2218948,
    "lon": 106.9330865
  },
  "nodes": [
    1682837414,
    1682837413,
    1682837427,
    1682837426,
    1682837437,
    1682837440,
    1682837435,
    1682837433,
    1682837429,
    1682837430,
    1682837432,
    1682837414
  ],
  "tags": {
    "amenity": "hospital",
    "operator:type": "private"
  }
},
{
  "type": "way",
  "id": 119890013,
  "timestamp": "2011-07-01T07:35:37Z",
  "version": 1,
  "changeset": 8596614,
  "user": "gnemok",
  "uid": 138225,
  "center": {
    "lat": -6.2199325,
    "lon": 106.9391974
  },
  "nodes": [
    1345548631,
    1345548635,
    1345548630,
    1345548629,
    1345548632,
    1345548633,
    1345548634,
    1345548628,
    1345548631
  ],
  "tags": {
    "amenity": "hospital",
    "building": "yes",
    "name": "Gedung Alfalah RSI Pondok Kopi"
  }
},
{
  "type": "way",
  "id": 119890193,
  "timestamp": "2011-07-01T07:37:55Z",
  "version": 1,
  "changeset": 8596614,
  "user": "gnemok",
  "uid": 138225,
  "center": {
    "lat": -6.2202204,
    "lon": 106.9397419
  },
  "nodes": [
    1345549263,
    1345549276,
    1345549266,
    1345549268,
    1345549270,
    1345549264,
    1345549275,
    1345549274,
    1345549278,
    1345549271,
    1345549272,
    1345549269,
    1345549263
  ],
  "tags": {
    "amenity": "hospital",
    "building": "yes",
    "emergency": "yes",
    "name": "RSI Pondok Kopi"
  }
},
{
  "type": "way",
  "id": 155957494,
  "timestamp": "2012-04-11T09:19:15Z",
  "version": 2,
  "changeset": 11262415,
  "user": "emirhartato",
  "uid": 452826,
  "center": {
    "lat": -6.2202211,
    "lon": 106.9397438
  },
  "nodes": [
    1682908031,
    1682908041,
    1682908039,
    1682908032,
    1682908028,
    1682908034,
    1682908033,
    1682908013,
    1682907988,
    1682908003,
    1682908006,
    1682908029,
    1682908025,
    1682908031
  ],
  "tags": {
    "access:roof": "yes",
    "addr:full": "Jalan Raya Pondok Kopi",
    "amenity": "hospital",
    "building": "yes",
    "building:levels": "4-7",
    "building:roof": "tile",
    "building:structure": "reinforced_masonry",
    "building:walls": "brick",
    "capacity:persons": "2000",
    "name": "RSI Pondok Kopi",
    "operator:type": "private",
    "rooms": "300"
  }
},
{
  "type": "way",
  "id": 155957498,
  "timestamp": "2012-04-11T09:19:16Z",
  "version": 2,
  "changeset": 11262415,
  "user": "emirhartato",
  "uid": 452826,
  "center": {
    "lat": -6.2198728,
    "lon": 106.9395620
  },
  "nodes": [
    1682907983,
    1682907980,
    1682907990,
    1682907971,
    1682907986,
    1682908009,
    1682908005,
    1682908011,
    1682907983
  ],
  "tags": {
    "access:roof": "yes",
    "addr:full": "Jalan Raya Pondok Kopi",
    "amenity": "hospital",
    "building": "yes",
    "building:levels": "4-7",
    "building:roof": "tile",
    "building:structure": "reinforced_masonry",
    "building:walls": "brick",
    "capacity:persons": "3000",
    "name": "RSI Pondok Kopi",
    "operator:type": "private",
    "rooms": "300"
  }
},
{
  "type": "way",
  "id": 157211723,
  "timestamp": "2012-04-11T09:19:12Z",
  "version": 2,
  "changeset": 11262415,
  "user": "emirhartato",
  "uid": 452826,
  "center": {
    "lat": -6.2087485,
    "lon": 106.9417689
  },
  "nodes": [
    1694293647,
    1694293665,
    1694293666,
    1694293667,
    1694293658,
    1694293649,
    1694293647
  ],
  "tags": {
    "access:roof": "yes",
    "addr:full": "Jalan Pahlawan Komarudin Raya No. 5",
    "amenity": "hospital",
    "building": "yes",
    "building:levels": "3",
    "building:roof": "concrete",
    "building:structure": "reinforced_masonry",
    "building:walls": "brick",
    "capacity:persons": "75",
    "name": "RS Resti Mulya",
    "operator:type": "private",
    "rooms": "20"
  }
},
{
  "type": "way",
  "id": 155949357,
  "timestamp": "2012-03-27T07:16:17Z",
  "version": 2,
  "changeset": 11113328,
  "user": "fariszulkarnain",
  "uid": 617263,
  "center": {
    "lat": -6.1960298,
    "lon": 106.9059176
  },
  "nodes": [
    1682844238,
    1682844247,
    1682844253,
    1682844245,
    1682844241,
    1682844238
  ],
  "tags": {
    "access:roof": "yes",
    "addr:full": "Jl. Raya Bekasi KM. 18",
    "amenity": "hospital",
    "building:levels": "2",
    "building:roof": "concrete",
    "building:structure": "reinforced_masonry",
    "building:walls": "brick",
    "name": "RS Harapan Jayakarta",
    "operator:type": "private"
  }
},
{
  "type": "way",
  "id": 155950969,
  "timestamp": "2014-11-09T16:54:51Z",
  "version": 2,
  "changeset": 26667589,
  "user": "Oberpfälzer",
  "uid": 1244807,
  "center": {
    "lat": -6.1925298,
    "lon": 106.9034777
  },
  "nodes": [
    1682863114,
    1682863117,
    1682863115,
    1682863106,
    1682863114
  ],
  "tags": {
    "amenity": "hospital",
    "name": "Antam Medika",
    "operator:type": "government"
  }
},
{
  "type": "way",
  "id": 154834893,
  "timestamp": "2012-03-13T08:11:29Z",
  "version": 1,
  "changeset": 10963913,
  "user": "KELAPA GADING TIMUR",
  "uid": 626712,
  "center": {
    "lat": -6.1771221,
    "lon": 106.9064521
  },
  "nodes": [
    1673050433,
    1673050432,
    1673050437,
    1673050438,
    1673050440,
    1673050433
  ],
  "tags": {
    "amenity": "hospital",
    "name": "puskesmas kelapa gading timur 1"
  }
},
{
  "type": "way",
  "id": 154834895,
  "timestamp": "2012-03-13T08:11:30Z",
  "version": 1,
  "changeset": 10963913,
  "user": "KELAPA GADING TIMUR",
  "uid": 626712,
  "center": {
    "lat": -6.1783825,
    "lon": 106.9061480
  },
  "nodes": [
    1673050450,
    1673050447,
    1673050449,
    1673050452,
    1673050450
  ],
  "tags": {
    "amenity": "hospital",
    "name": "puskesmas kelurahan"
  }
},
{
  "type": "way",
  "id": 155961378,
  "timestamp": "2012-04-11T09:19:26Z",
  "version": 2,
  "changeset": 11262415,
  "user": "emirhartato",
  "uid": 452826,
  "center": {
    "lat": -6.1825651,
    "lon": 106.9331181
  },
  "nodes": [
    1682942229,
    1682942227,
    1682942226,
    1682942228,
    1682942229
  ],
  "tags": {
    "access:roof": "no",
    "addr:full": "Jalan Raya Bekasi KM 22",
    "amenity": "hospital",
    "building": "yes",
    "building:levels": "1",
    "building:roof": "tile",
    "building:structure": "unreinforced_masonry",
    "building:walls": "brick",
    "capacity:persons": "20 ORang",
    "name": "Rumah Bersalin Nandra Tiara",
    "operator:type": "private",
    "rooms": "4"
  }
},
{
  "type": "way",
  "id": 156912846,
  "timestamp": "2014-02-03T08:14:47Z",
  "version": 3,
  "changeset": 20348243,
  "user": "Evgar Web",
  "uid": 1915626,
  "center": {
    "lat": -6.1682051,
    "lon": 106.7650488
  },
  "nodes": [
    1691581172,
    1691581195,
    1691581198,
    1691581161,
    1691581145,
    1691581175,
    1691581172
  ],
  "tags": {
    "access:roof": "no",
    "amenity": "hospital",
    "building:levels": ">7",
    "building:roof": "tile",
    "building:structure": "reinforced_masonry",
    "building:walls": "brick",
    "name": "Rumah Sakit Grha Kedoya",
    "operator:type": "private"
  }
},
{
  "type": "way",
  "id": 315413743,
  "timestamp": "2014-12-02T05:10:16Z",
  "version": 1,
  "changeset": 27171605,
  "user": "asti_shinoda",
  "uid": 524997,
  "center": {
    "lat": -6.1681589,
    "lon": 106.7650073
  },
  "nodes": [
    3215294464,
    3215294476,
    3215294474,
    3215294478,
    3215294482,
    3215294466,
    3215294464
  ],
  "tags": {
    "amenity": "hospital",
    "building": "yes",
    "evacuation_center": "no",
    "flood_prone": "no",
    "name": "RS Grha Kedoya"
  }
},
{
  "type": "way",
  "id": 156922057,
  "timestamp": "2012-04-11T09:19:33Z",
  "version": 2,
  "changeset": 11262415,
  "user": "emirhartato",
  "uid": 452826,
  "center": {
    "lat": -6.1666174,
    "lon": 106.7853932
  },
  "nodes": [
    1691636472,
    1691636477,
    1691636479,
    1691636480,
    1691636481,
    1691636478,
    1691636475,
    1691636474,
    1691636473,
    1691636472
  ],
  "tags": {
    "access:roof": "yes",
    "addr:full": "Jl. Daan Mogot",
    "amenity": "hospital",
    "building": "yes",
    "building:levels": "4-7",
    "building:roof": "tile",
    "building:structure": "reinforced_masonry",
    "building:walls": "brick",
    "capacity:persons": "500",
    "name": "Rumah Sakit Royal Taruma",
    "operator:type": "private"
  }
},
{
  "type": "way",
  "id": 121716531,
  "timestamp": "2011-07-19T11:42:21Z",
  "version": 2,
  "changeset": 8767149,
  "user": "xybot",
  "uid": 70696,
  "center": {
    "lat": -6.1686373,
    "lon": 106.7976762
  },
  "nodes": [
    1361569402,
    1361569341,
    1361569431,
    1361569178,
    1361569266,
    1361569129,
    1361569214,
    1361569502,
    1361569402
  ],
  "tags": {
    "amenity": "hospital",
    "building": "yes",
    "building:levels": "6",
    "building:roof": "concrete",
    "building:structure": "confined_masonry",
    "building:use": "medical",
    "building:walls": "brick",
    "name": "Rumah Sakit Umum Sumber Waras"
  }
},
{
  "type": "way",
  "id": 156923946,
  "timestamp": "2014-11-09T16:55:32Z",
  "version": 3,
  "changeset": 26667589,
  "user": "Oberpfälzer",
  "uid": 1244807,
  "center": {
    "lat": -6.1628067,
    "lon": 106.7882761
  },
  "nodes": [
    1691650498,
    1691650500,
    1691650501,
    1691650502,
    1691650504,
    1691650503,
    1691650505,
    1691650507,
    1691650508,
    1691650510,
    1691650511,
    1691650512,
    1691650509,
    1691650506,
    1691650499,
    1691650497,
    1691650496,
    1691650498
  ],
  "tags": {
    "access:roof": "no",
    "addr:full": "Jl. Prof.Dr. Latumenten 1",
    "amenity": "hospital",
    "building": "yes",
    "building:levels": "1",
    "building:roof": "tile",
    "building:structure": "unreinforced_masonry",
    "building:walls": "brick",
    "capacity:persons": "1000",
    "name": "RS Jiwa Soeharto Heerdjan",
    "operator:type": "government"
  }
},
{
  "type": "way",
  "id": 156909663,
  "timestamp": "2017-03-31T21:13:29Z",
  "version": 3,
  "changeset": 47340233,
  "user": "KingManjit",
  "uid": 5593043,
  "center": {
    "lat": -6.1604297,
    "lon": 106.7960526
  },
  "nodes": [
    1691550494,
    1691550491,
    1691550514,
    1691550518,
    1691550497,
    1691550500,
    4768372453,
    1691550494
  ],
  "tags": {
    "access:roof": "yes",
    "addr:full": "JL Dr Nurdin 4 RW 07 Kelurahan Grogol",
    "amenity": "hospital",
    "building": "yes",
    "building:levels": "1",
    "building:roof": "tile",
    "building:structure": "reinforced_masonry",
    "building:walls": "brick",
    "capacity:persons": "200 orang",
    "name": "Rumah Sakit Bersalin",
    "operator:type": "private",
    "rooms": "12"
  }
},
{
  "type": "way",
  "id": 154830127,
  "timestamp": "2012-03-13T06:34:05Z",
  "version": 1,
  "changeset": 10963355,
  "user": "kelurahan pejagalan",
  "uid": 626739,
  "center": {
    "lat": -6.1380059,
    "lon": 106.7809580
  },
  "nodes": [
    1672998951,
    1672998957,
    1672998956,
    1672998949,
    1672998951
  ],
  "tags": {
    "amenity": "hospital",
    "name": "Puskesmas Kecamatan Penjaringan"
  }
},
{
  "type": "way",
  "id": 173254155,
  "timestamp": "2017-03-31T20:58:57Z",
  "version": 2,
  "changeset": 47339856,
  "user": "Zhengyang Zhu",
  "uid": 5593041,
  "center": {
    "lat": -6.1431831,
    "lon": 106.7940085
  },
  "nodes": [
    1840974776,
    1840974775,
    4768343116,
    1840974777,
    1840974779,
    1840974776
  ],
  "tags": {
    "amenity": "hospital",
    "building": "hospital",
    "name": "Lab. Klinik Etika",
    "operator:type": "private"
  }
},
{
  "type": "way",
  "id": 154830128,
  "timestamp": "2014-12-05T09:53:30Z",
  "version": 4,
  "changeset": 27258186,
  "user": "Adi Maulana",
  "uid": 617230,
  "center": {
    "lat": -6.1334020,
    "lon": 106.7902972
  },
  "nodes": [
    1672998858,
    3219994611,
    1672998874,
    1672998873,
    1672998856,
    3219994610,
    1672998858
  ],
  "tags": {
    "access:roof": "-",
    "addr:full": "-",
    "amenity": "hospital",
    "building": "yes",
    "building:levels": "-",
    "building:roof": "-",
    "building:structure": "-",
    "building:walls": "-",
    "capacity:persons": "-",
    "evacuation_center": "no",
    "flood_prone": "no",
    "name": "RS Familly",
    "operator:type": "private",
    "rooms": "-"
  }
},
{
  "type": "way",
  "id": 314513966,
  "timestamp": "2014-11-26T04:20:40Z",
  "version": 1,
  "changeset": 27036578,
  "user": "Adi Maulana",
  "uid": 617230,
  "center": {
    "lat": -6.1200270,
    "lon": 106.7830934
  },
  "nodes": [
    3205634213,
    3205634214,
    3205634216,
    3205634215,
    3205634218,
    3205634217,
    3205634213
  ],
  "tags": {
    "amenity": "hospital",
    "building": "yes",
    "evacuation_center": "no",
    "flood_prone": "no",
    "name": "AMC (Advance Medical Center)"
  }
},
{
  "type": "way",
  "id": 154421165,
  "timestamp": "2014-12-18T03:00:44Z",
  "version": 5,
  "changeset": 27543126,
  "user": "Mas Ben",
  "uid": 617239,
  "center": {
    "lat": -6.1262040,
    "lon": 106.7930775
  },
  "nodes": [
    1669588667,
    1669588704,
    1669588808,
    1669588838,
    1669588401,
    1669588501,
    1669588619,
    1669588727,
    1669588827,
    2506856512,
    1669588395,
    1673001972,
    1669588495,
    1669588527,
    1669589794,
    1669588792,
    1676598958,
    2506856494,
    2506856481,
    2506856484,
    2506856486,
    1669588514,
    1669588632,
    1669588667
  ],
  "tags": {
    "amenity": "hospital",
    "building": "yes",
    "evacuation_center": "no",
    "flood_prone": "yes",
    "name": "RS Atmajaya"
  }
},
{
  "type": "way",
  "id": 156926471,
  "timestamp": "2012-04-11T09:19:13Z",
  "version": 3,
  "changeset": 11262415,
  "user": "emirhartato",
  "uid": 452826,
  "center": {
    "lat": -6.1670955,
    "lon": 106.7986437
  },
  "nodes": [
    1691671649,
    1691671653,
    1691671651,
    1691671652,
    1691671654,
    1691671643,
    1691671599,
    1691671598,
    1691671597,
    1691671604,
    1691671645,
    1691671649
  ],
  "tags": {
    "access:roof": "yes",
    "addr:full": "jl. kyai tapa",
    "amenity": "hospital",
    "building": "yes",
    "building:levels": "4-7",
    "building:roof": "tile",
    "building:structure": "reinforced_masonry",
    "building:walls": "brick",
    "capacity:persons": ">1000",
    "name": "RS Sumber Waras",
    "operator:type": "private"
  }
},
{
  "type": "way",
  "id": 156919546,
  "timestamp": "2012-04-11T09:07:05Z",
  "version": 3,
  "changeset": 11262415,
  "user": "emirhartato",
  "uid": 452826,
  "center": {
    "lat": -6.1576529,
    "lon": 106.8099764
  },
  "nodes": [
    1691618512,
    1691618509,
    1691618500,
    1691618493,
    1691618511,
    1691618512
  ],
  "tags": {
    "access:roof": "yes",
    "addr:full": "RW 012 Kelurahan Tanah Sereal",
    "amenity": "hospital",
    "building": "yes",
    "building:levels": "2",
    "building:roof": "tile",
    "building:structure": "reinforced_masonry",
    "building:walls": "brick",
    "capacity:persons": "50",
    "name": "Bidan Aries",
    "operator:type": "private"
  }
},
{
  "type": "way",
  "id": 156919548,
  "timestamp": "2012-04-11T09:11:06Z",
  "version": 3,
  "changeset": 11262415,
  "user": "emirhartato",
  "uid": 452826,
  "center": {
    "lat": -6.1580682,
    "lon": 106.8092706
  },
  "nodes": [
    1691618515,
    1691618516,
    1691618513,
    1691618514,
    1691618515
  ],
  "tags": {
    "access:roof": "no",
    "addr:full": "RW 013 Kelurahan Tanah Sereal",
    "amenity": "hospital",
    "building": "yes",
    "building:levels": "1",
    "building:roof": "concrete",
    "building:structure": "reinforced_masonry",
    "building:walls": "brick",
    "capacity:persons": "20",
    "name": "Klinik Cendana",
    "operator:type": "private"
  }
},
{
  "type": "way",
  "id": 156919549,
  "timestamp": "2012-04-11T09:11:08Z",
  "version": 3,
  "changeset": 11262415,
  "user": "emirhartato",
  "uid": 452826,
  "center": {
    "lat": -6.1576373,
    "lon": 106.8083926
  },
  "nodes": [
    1691618507,
    1691618506,
    1691618502,
    1691618504,
    1691618507
  ],
  "tags": {
    "access:roof": "yes",
    "addr:full": "RW 012 Kelurahan Tanah Sereal",
    "amenity": "hospital",
    "building": "yes",
    "building:levels": "2",
    "building:roof": "tile",
    "building:structure": "reinforced_masonry",
    "building:walls": "brick",
    "capacity:persons": "30",
    "name": "Klinik Lotus",
    "operator:type": "private"
  }
},
{
  "type": "way",
  "id": 121551464,
  "timestamp": "2011-07-13T16:26:50Z",
  "version": 1,
  "changeset": 8714177,
  "user": "dimdim02",
  "uid": 477569,
  "center": {
    "lat": -6.1597037,
    "lon": 106.8378334
  },
  "nodes": [
    1360507981,
    1360508266,
    1360508130,
    1360508224,
    1360508053,
    1360508169,
    1360507981
  ],
  "tags": {
    "amenity": "hospital",
    "building": "yes",
    "building:levels": "2",
    "building:roof": "asbestos",
    "building:structure": "reinforced_masonry",
    "building:use": "medical",
    "building:walls": "brick",
    "name": "Gunung Sahari Laboratorium Klinik"
  }
},
{
  "type": "way",
  "id": 155116034,
  "timestamp": "2012-03-15T08:35:52Z",
  "version": 1,
  "changeset": 10986024,
  "user": "irnawati",
  "uid": 617274,
  "center": {
    "lat": -6.1474799,
    "lon": 106.8294292
  },
  "nodes": [
    1675499873,
    1675499871,
    1675499869,
    1675499874,
    1675499875,
    1675499876,
    1675499873
  ],
  "tags": {
    "access:roof": "yes",
    "addr:full": "jl. mangga besar raya",
    "amenity": "hospital",
    "building:levels": ">7",
    "building:structure": "reinforced_masonry",
    "building:walls": "brick",
    "name": "RS Husada",
    "operator:type": "private"
  }
},
{
  "type": "way",
  "id": 156919730,
  "timestamp": "2012-03-26T07:17:12Z",
  "version": 1,
  "changeset": 11102741,
  "user": "aulia",
  "uid": 617227,
  "center": {
    "lat": -6.1392417,
    "lon": 106.8024062
  },
  "nodes": [
    1691619249,
    1691619248,
    1691619252,
    1691619255,
    1691619249
  ],
  "tags": {
    "addr:full": "Jln Mesjid Pekojan RT 2 RW 3",
    "amenity": "hospital",
    "building:levels": "1",
    "building:roof": "tile",
    "building:structure": "reinforced_masonry",
    "building:walls": "brick",
    "name": "RS Budi Kemuliaan"
  }
},
{
  "type": "way",
  "id": 154830418,
  "timestamp": "2014-12-18T02:29:19Z",
  "version": 3,
  "changeset": 27542936,
  "user": "Mas Ben",
  "uid": 617239,
  "center": {
    "lat": -6.1257543,
    "lon": 106.7994843
  },
  "nodes": [
    1673001974,
    1673001973,
    1673001963,
    1673001964,
    1673001974
  ],
  "tags": {
    "amenity": "hospital",
    "building": "yes",
    "building:levels": "4-7",
    "building:roof": "tile",
    "building:structure": "reinforced_masonry",
    "building:walls": "brick",
    "evacuation_center": "no",
    "flood_prone": "no",
    "name": "Rumah Sakit Pluit",
    "operator:type": "Rumah Sakit"
  }
},
{
  "type": "way",
  "id": 154830545,
  "timestamp": "2014-11-26T07:56:18Z",
  "version": 3,
  "changeset": 27038600,
  "user": "Ratry Chairunnisa",
  "uid": 617241,
  "center": {
    "lat": -6.1119025,
    "lon": 106.7527617
  },
  "nodes": [
    1673004000,
    1673004002,
    1673003996,
    1673003998,
    1673004004,
    1673004006,
    1673004010,
    1673004008,
    1673004000
  ],
  "tags": {
    "access:roof": "yes",
    "addr:full": "Jl. Pantai Indah Timur",
    "amenity": "hospital",
    "building": "yes",
    "building:levels": "4-7",
    "building:roof": "tile",
    "building:structure": "reinforced_masonry",
    "building:walls": "brick",
    "capacity:persons": "1500",
    "evacuation_center": "no",
    "flood_prone": "no",
    "name": "RS PIK",
    "operator:type": "private",
    "rooms": "200"
  }
},
{
  "type": "way",
  "id": 381675606,
  "timestamp": "2015-11-21T04:22:24Z",
  "version": 2,
  "changeset": 35479883,
  "user": "RezaJayadikara",
  "uid": 3403051,
  "center": {
    "lat": -6.1693811,
    "lon": 106.8667026
  },
  "nodes": [
    3848387017,
    3848387018,
    3848387019,
    3848387020,
    3848387017
  ],
  "tags": {
    "amenity": "hospital",
    "name": "Klinik Agape"
  }
},
{
  "type": "way",
  "id": 154831142,
  "timestamp": "2012-03-27T06:58:32Z",
  "version": 2,
  "changeset": 11113203,
  "user": "bowie",
  "uid": 617284,
  "center": {
    "lat": -6.1571004,
    "lon": 106.8667810
  },
  "nodes": [
    1673009462,
    1673009471,
    1673009477,
    1673009474,
    1673009476,
    1673009475,
    1673009462
  ],
  "tags": {
    "amenity": "hospital",
    "building:levels": "1",
    "building:roof": "tile",
    "building:structure": "reinforced_masonry",
    "building:walls": "brick",
    "name": "Medical Center",
    "operator:type": "private"
  }
},
{
  "type": "way",
  "id": 155114678,
  "timestamp": "2012-03-15T08:21:15Z",
  "version": 1,
  "changeset": 10985915,
  "user": "kelurahan sumur batu",
  "uid": 629294,
  "center": {
    "lat": -6.1635726,
    "lon": 106.8654988
  },
  "nodes": [
    1675491583,
    1675491589,
    1675491592,
    1675491595,
    1675491596,
    1675491587,
    1675491584,
    1675491583
  ],
  "tags": {
    "access:roof": "yes",
    "addr:full": "Jl Sumur batu Raya Rt 011/02",
    "amenity": "hospital",
    "building:levels": "3",
    "building:roof": "tile",
    "building:structure": "reinforced_masonry",
    "building:walls": "brick",
    "name": "RS Berkat Ibu",
    "operator:type": "private"
  }
},
{
  "type": "way",
  "id": 121828006,
  "timestamp": "2014-12-03T03:59:42Z",
  "version": 4,
  "changeset": 27192662,
  "user": "della ananto",
  "uid": 2334957,
  "center": {
    "lat": -6.1520609,
    "lon": 106.8584333
  },
  "nodes": [
    1362893494,
    1362894982,
    1362894957,
    1362893458,
    1362895015,
    1362895063,
    1362893494
  ],
  "tags": {
    "amenity": "hospital",
    "building": "yes",
    "building:levels": "6",
    "building:roof": "concrete",
    "building:structure": "confined_masonry",
    "building:use": "medical",
    "building:walls": "brick",
    "emergency": "yes",
    "evacuation_center": "no",
    "flood_prone": "no",
    "name": "Rumah Sakit Mitra Kemayoran"
  }
},
{
  "type": "way",
  "id": 154830843,
  "timestamp": "2012-03-13T07:02:19Z",
  "version": 1,
  "changeset": 10963501,
  "user": "sunteragung",
  "uid": 626732,
  "center": {
    "lat": -6.1455794,
    "lon": 106.8613577
  },
  "nodes": [
    401426991,
    1673007379,
    1673007377,
    1673007376,
    401426991
  ],
  "tags": {
    "amenity": "hospital",
    "name": "RS HERMINA"
  }
},
{
  "type": "way",
  "id": 121919441,
  "timestamp": "2017-04-02T18:17:35Z",
  "version": 5,
  "changeset": 47389262,
  "user": "Farras",
  "uid": 136807,
  "center": {
    "lat": -6.1518300,
    "lon": 106.8971173
  },
  "nodes": [
    4771507397,
    1363623516,
    1363623948,
    1363623680,
    4771507397
  ],
  "tags": {
    "access:roof": "yes",
    "addr:city": "Jakarta",
    "addr:full": "Jl. Bukit Gading Raya",
    "amenity": "hospital",
    "building": "yes",
    "building:levels": "6",
    "building:roof": "concrete",
    "building:structure": "confined_masonry",
    "building:use": "medical",
    "building:walls": "brick",
    "capacity:persons": "5000",
    "emergency": "yes",
    "name": "Rumah Sakit Mitra Keluarga Kelapa Gading",
    "operator:type": "private",
    "rooms": "70"
  }
},
{
  "type": "way",
  "id": 154830071,
  "timestamp": "2012-03-13T06:30:22Z",
  "version": 1,
  "changeset": 10963337,
  "user": "sunteragung",
  "uid": 626732,
  "center": {
    "lat": -6.1388585,
    "lon": 106.8615818
  },
  "nodes": [
    1672998223,
    1672998230,
    1672998229,
    1672998222,
    1672998223
  ],
  "tags": {
    "amenity": "hospital",
    "name": "RS SETYA NEGARA"
  }
},
{
  "type": "way",
  "id": 154831929,
  "timestamp": "2012-03-13T07:20:23Z",
  "version": 1,
  "changeset": 10963592,
  "user": "sunteragung",
  "uid": 626732,
  "center": {
    "lat": -6.1423863,
    "lon": 106.8626880
  },
  "nodes": [
    1673017802,
    1673017804,
    1673017803,
    1673017801,
    1673017802
  ],
  "tags": {
    "amenity": "hospital",
    "name": "PUSKESMAS SUNTER AGUNG 2"
  }
},
{
  "type": "way",
  "id": 154831928,
  "timestamp": "2012-03-13T07:20:23Z",
  "version": 1,
  "changeset": 10963592,
  "user": "sunteragung",
  "uid": 626732,
  "center": {
    "lat": -6.1323522,
    "lon": 106.8570302
  },
  "nodes": [
    1673017781,
    1673017783,
    1673017782,
    1673017780,
    1673017781
  ],
  "tags": {
    "amenity": "hospital",
    "name": "PUSKESMAS SUNTER AGUNG 1"
  }
},
{
  "type": "way",
  "id": 121828013,
  "timestamp": "2012-03-30T09:20:48Z",
  "version": 2,
  "changeset": 11149365,
  "user": "Arga Rifki",
  "uid": 617242,
  "center": {
    "lat": -6.1398340,
    "lon": 106.8655465
  },
  "nodes": [
    1362895139,
    1362893481,
    1362893444,
    1362893549,
    1362895139
  ],
  "tags": {
    "amenity": "hospital",
    "building": "yes",
    "building:levels": "10+",
    "building:roof": "concrete",
    "building:structure": "confined_masonry",
    "building:use": "medical",
    "building:walls": "brick",
    "name": "Rumah Sakit Medika Griya"
  }
},
{
  "type": "way",
  "id": 154830070,
  "timestamp": "2013-06-19T21:27:32Z",
  "version": 2,
  "changeset": 16622645,
  "user": "karida",
  "uid": 19528,
  "center": {
    "lat": -6.1394710,
    "lon": 106.8654955
  },
  "nodes": [
    1672998227,
    1362893481,
    1362893444,
    1672998226,
    1672998227
  ],
  "tags": {
    "amenity": "hospital",
    "name": "RS ROYAL PROGRESS"
  }
},
{
  "type": "way",
  "id": 154831930,
  "timestamp": "2012-03-13T07:20:23Z",
  "version": 1,
  "changeset": 10963592,
  "user": "sunteragung",
  "uid": 626732,
  "center": {
    "lat": -6.1364659,
    "lon": 106.8699824
  },
  "nodes": [
    1673017791,
    1673017793,
    1673017792,
    1673017790,
    1673017791
  ],
  "tags": {
    "amenity": "hospital",
    "name": "PUSKESMAS SUNTER AGUNG 3"
  }
},
{
  "type": "way",
  "id": 154831869,
  "timestamp": "2012-03-13T07:20:09Z",
  "version": 1,
  "changeset": 10963590,
  "user": "Kusmana",
  "uid": 626750,
  "center": {
    "lat": -6.1200159,
    "lon": 106.8743310
  },
  "nodes": [
    1673017718,
    1673017717,
    1673017721,
    1673017723,
    1673017720,
    1673017719,
    1673017718
  ],
  "tags": {
    "amenity": "hospital",
    "name": "Klinik Velda"
  }
},
{
  "type": "way",
  "id": 154831887,
  "timestamp": "2012-03-13T07:20:11Z",
  "version": 1,
  "changeset": 10963590,
  "user": "Kusmana",
  "uid": 626750,
  "center": {
    "lat": -6.1204583,
    "lon": 106.8754017
  },
  "nodes": [
    1673017728,
    1673017727,
    1673017729,
    1673017730,
    1673017728
  ],
  "tags": {
    "amenity": "hospital",
    "name": "Puskesmas Warakas"
  }
},
{
  "type": "way",
  "id": 154830304,
  "timestamp": "2012-03-13T06:41:11Z",
  "version": 1,
  "changeset": 10963388,
  "user": "Suranta 66",
  "uid": 626687,
  "center": {
    "lat": -6.1194252,
    "lon": 106.9009894
  },
  "nodes": [
    1673000673,
    1673000689,
    1673000692,
    1673000681,
    1673000683,
    1673000687,
    1673000685,
    1673000675,
    1673000673
  ],
  "tags": {
    "amenity": "hospital",
    "name": "Puskesmas Kincir"
  }
},
{
  "type": "way",
  "id": 154834894,
  "timestamp": "2012-03-13T08:11:30Z",
  "version": 1,
  "changeset": 10963913,
  "user": "KELAPA GADING TIMUR",
  "uid": 626712,
  "center": {
    "lat": -6.1647702,
    "lon": 106.9080703
  },
  "nodes": [
    1673050315,
    1673050312,
    1673050314,
    1673050316,
    1673050315
  ],
  "tags": {
    "amenity": "hospital",
    "name": "puskesmas kelurahan"
  }
},
{
  "type": "way",
  "id": 154835529,
  "timestamp": "2014-12-08T05:08:59Z",
  "version": 3,
  "changeset": 27326452,
  "user": "Mas Ben",
  "uid": 617239,
  "center": {
    "lat": -6.1662046,
    "lon": 106.9160636
  },
  "nodes": [
    1673057057,
    1673057064,
    1673057063,
    1673057084,
    1673057087,
    1673057093,
    1673057104,
    1673057096,
    1673057102,
    1673057086,
    1673057080,
    1673057069,
    1673057068,
    1673057066,
    1673057057
  ],
  "tags": {
    "amenity": "hospital",
    "building": "yes",
    "building:roof": "concrete",
    "evacuation_center": "no",
    "flood_prone": "yes",
    "name": "RS Gading Pluit"
  }
},
{
  "type": "way",
  "id": 334982120,
  "timestamp": "2017-03-31T23:14:03Z",
  "version": 2,
  "changeset": 47342575,
  "user": "Farras",
  "uid": 136807,
  "center": {
    "lat": -6.1455012,
    "lon": 106.9238650
  },
  "nodes": [
    3421123042,
    3421123051,
    3421123052,
    4768597232,
    4768597233,
    4768597234,
    3421123044,
    3421123042
  ],
  "tags": {
    "amenity": "hospital",
    "building": "yes",
    "evacuation_center": "no",
    "flood_prone": "no",
    "name": "Rumah Sakit Pekerja"
  }
},
{
  "type": "way",
  "id": 154825614,
  "timestamp": "2015-03-27T08:40:29Z",
  "version": 5,
  "changeset": 29772209,
  "user": "Adi Maulana",
  "uid": 617230,
  "center": {
    "lat": -6.1396171,
    "lon": 106.9208220
  },
  "nodes": [
    1672935171,
    1672935173,
    1672935180,
    1672935170,
    1672935169,
    1672935171
  ],
  "tags": {
    "access:roof": "no",
    "addr:full": "Jalan Tipar Cakung RT.5 RW.5",
    "amenity": "hospital",
    "building": "yes",
    "building:levels": "1",
    "building:roof": "tile",
    "building:structure": "reinforced_masonry",
    "building:walls": "brick",
    "capacity:persons": "500",
    "evacuation_center": "no",
    "flood_prone": "yes",
    "name": "Rumah Sakit Islam Sukapura",
    "operator:type": "private"
  }
},
{
  "type": "way",
  "id": 244985550,
  "timestamp": "2013-11-06T20:03:58Z",
  "version": 1,
  "changeset": 18753589,
  "user": "AlBanna",
  "uid": 1794697,
  "center": {
    "lat": -6.1291173,
    "lon": 106.9065195
  },
  "nodes": [
    2522518947,
    2522518948,
    2522518949,
    2522518950,
    2522518947
  ],
  "tags": {
    "amenity": "hospital",
    "building": "yes",
    "name": "Rumah Sakit Mulyasari"
  }
},
{
  "type": "way",
  "id": 119503317,
  "timestamp": "2011-06-29T02:04:32Z",
  "version": 3,
  "changeset": 8577029,
  "user": "ariefrachman",
  "uid": 477542,
  "center": {
    "lat": -6.1121401,
    "lon": 106.8819836
  },
  "nodes": [
    1342578650,
    1342578651,
    1342578643,
    1342578649,
    1342578650
  ],
  "tags": {
    "amenity": "hospital",
    "brand": "Sukmul",
    "building:levels": "2",
    "building:roof": "tin",
    "building:structure": "confined_masonry",
    "building:use": "medical",
    "building:walls": "brick",
    "emergency": "yes",
    "name": "Sukmul Hospital",
    "wheelchair": "yes"
  }
},
{
  "type": "way",
  "id": 154893002,
  "timestamp": "2012-03-13T16:21:39Z",
  "version": 1,
  "changeset": 10968318,
  "user": "Sungai Bambu",
  "uid": 626797,
  "center": {
    "lat": -6.1172366,
    "lon": 106.8817194
  },
  "nodes": [
    1673537230,
    1673537229,
    1673537231,
    330810225,
    1673537230
  ],
  "tags": {
    "access:roof": "no",
    "addr:full": "Jalan Ganggeng Raya No. 9",
    "amenity": "hospital",
    "building:levels": "1",
    "building:roof": "tile",
    "building:structure": "plastered",
    "building:walls": "brick",
    "name": "RS Santo Josef",
    "operator:type": "private"
  }
},
{
  "type": "way",
  "id": 154828483,
  "timestamp": "2012-03-13T07:53:42Z",
  "version": 2,
  "changeset": 10963793,
  "user": "Arga Rifki",
  "uid": 617242,
  "center": {
    "lat": -6.1104149,
    "lon": 106.8893963
  },
  "nodes": [
    1672991461,
    1672991462,
    1672991464,
    1672991463,
    1672991461
  ],
  "tags": {
    "access:roof": "no",
    "amenity": "hospital",
    "building:levels": "3",
    "building:structure": "reinforced_masonry",
    "building:walls": "brick",
    "name": "Port Medical Center (PMC)",
    "operator:type": "private"
  }
},
{
  "type": "way",
  "id": 154830305,
  "timestamp": "2012-03-16T08:48:54Z",
  "version": 2,
  "changeset": 10996176,
  "user": "riangga_miko",
  "uid": 617254,
  "center": {
    "lat": -6.1174962,
    "lon": 106.8978884
  },
  "nodes": [
    1676624267,
    1673000611,
    1673000609,
    1676624266,
    1676624267
  ],
  "tags": {
    "amenity": "hospital",
    "name": "Puskesmas Rawabinangun"
  }
},
{
  "type": "way",
  "id": 244985558,
  "timestamp": "2013-11-06T20:03:58Z",
  "version": 1,
  "changeset": 18753589,
  "user": "AlBanna",
  "uid": 1794697,
  "center": {
    "lat": -6.1087748,
    "lon": 106.9000644
  },
  "nodes": [
    2522518981,
    2522518982,
    2522518983,
    2522518984,
    2522518981
  ],
  "tags": {
    "amenity": "hospital",
    "building": "yes",
    "name": "Rumah Sakit Umum Daerah (RSUD) Koja"
  }
},
{
  "type": "way",
  "id": 244652432,
  "timestamp": "2013-11-04T06:22:47Z",
  "version": 1,
  "changeset": 18706789,
  "user": "AlBanna",
  "uid": 1794697,
  "center": {
    "lat": -6.1167919,
    "lon": 106.9078708
  },
  "nodes": [
    2519477753,
    2519477754,
    2519477755,
    2519477756,
    2519477753
  ],
  "tags": {
    "amenity": "hospital",
    "building": "yes",
    "emergency": "no",
    "name": "Bidan Rusyanti"
  }
},
{
  "type": "way",
  "id": 244985557,
  "timestamp": "2013-11-06T20:03:58Z",
  "version": 1,
  "changeset": 18753589,
  "user": "AlBanna",
  "uid": 1794697,
  "center": {
    "lat": -6.1138995,
    "lon": 106.9065628
  },
  "nodes": [
    2522518977,
    2522518978,
    2522518979,
    2522518980,
    2522518977
  ],
  "tags": {
    "amenity": "hospital",
    "building": "yes",
    "name": "Klinik Umum Yakri"
  }
},
{
  "type": "way",
  "id": 154838070,
  "timestamp": "2016-08-05T13:40:05Z",
  "version": 3,
  "changeset": 41260100,
  "user": "Sourc7",
  "uid": 4026310,
  "center": {
    "lat": -6.1148441,
    "lon": 106.9101820
  },
  "nodes": [
    1673084861,
    1673084864,
    1673084868,
    1673084866,
    1673084861
  ],
  "tags": {
    "access:roof": "no",
    "addr:full": "Jl. Manggar",
    "amenity": "hospital",
    "building:levels": "1",
    "building:roof": "tile",
    "building:structure": "reinforced_masonry",
    "building:walls": "brick",
    "name": "Rumah Bersalin Lestari",
    "operator:type": "private"
  }
},
{
  "type": "way",
  "id": 154838034,
  "timestamp": "2012-03-28T03:19:10Z",
  "version": 2,
  "changeset": 11122690,
  "user": "bowie",
  "uid": 617284,
  "center": {
    "lat": -6.1135022,
    "lon": 106.9166757
  },
  "nodes": [
    1673084659,
    1673084662,
    1673084700,
    1673084697,
    1673084659
  ],
  "tags": {
    "access:roof": "no",
    "addr:full": "Jl. Kramat Jaya",
    "amenity": "hospital",
    "building:levels": "1",
    "building:roof": "tile",
    "building:structure": "reinforced_masonry",
    "building:walls": "brick",
    "name": "RS keluraga Mulia",
    "operator:type": "private",
    "rooms": "100 kamar"
  }
},
{
  "type": "way",
  "id": 154838066,
  "timestamp": "2012-03-28T03:19:11Z",
  "version": 2,
  "changeset": 11122690,
  "user": "bowie",
  "uid": 617284,
  "center": {
    "lat": -6.1143485,
    "lon": 106.9167399
  },
  "nodes": [
    1673084819,
    1673084825,
    1673084832,
    1673084835,
    1673084846,
    1673084843,
    1673084819
  ],
  "tags": {
    "access:roof": "no",
    "addr:full": "Jl. Kramat Jaya",
    "amenity": "hospital",
    "building:levels": "1",
    "building:roof": "tile",
    "building:structure": "reinforced_masonry",
    "building:walls": "brick",
    "name": "bunda cinta mulia",
    "operator:type": "private"
  }
},
{
  "type": "way",
  "id": 197883356,
  "timestamp": "2014-01-29T02:13:16Z",
  "version": 2,
  "changeset": 20257922,
  "user": "Fajar_Wisnu_Hardono",
  "uid": 1902489,
  "center": {
    "lat": -6.2688213,
    "lon": 106.9721786
  },
  "nodes": [
    2080797017,
    2080797014,
    2080797016,
    2080797015,
    2080797017
  ],
  "tags": {
    "amenity": "hospital",
    "name": "RS Hermina Galaxy"
  }
},
{
  "type": "way",
  "id": 154828683,
  "timestamp": "2012-03-14T04:42:54Z",
  "version": 2,
  "changeset": 10974313,
  "user": "emirhartato",
  "uid": 452826,
  "center": {
    "lat": -6.1247924,
    "lon": 106.9586104
  },
  "nodes": [
    1674166082,
    1672991945,
    1672991943,
    1672991950,
    1674166082
  ],
  "tags": {
    "amenity": "hospital",
    "name": "PUSKESMAS KELURAHAN MARUNDA"
  }
},
{
  "type": "way",
  "id": 378081371,
  "timestamp": "2015-11-09T03:48:26Z",
  "version": 2,
  "changeset": 35182906,
  "user": "wulankhairunisa",
  "uid": 617233,
  "center": {
    "lat": -6.0998078,
    "lon": 106.9636410
  },
  "nodes": [
    3814959732,
    3814959736,
    3814959734,
    3814959731,
    3814959732
  ],
  "tags": {
    "addr:full": "Jalan Marunda Empang",
    "amenity": "hospital",
    "building": "yes",
    "building:condition": "poor",
    "building:levels": "1",
    "building:roof": "asbestos",
    "building:walls": "brick",
    "flood_prone": "yes",
    "hospital:type_idn": "puskesmas",
    "name": "Posyandu Karang Hijau"
  }
},
{
  "type": "way",
  "id": 376783162,
  "timestamp": "2015-11-09T06:01:00Z",
  "version": 2,
  "changeset": 35184149,
  "user": "wulankhairunisa",
  "uid": 617233,
  "center": {
    "lat": -6.0978749,
    "lon": 106.9693630
  },
  "nodes": [
    3801705171,
    3801705175,
    3801705174,
    3801705170,
    3801705171
  ],
  "tags": {
    "amenity": "hospital",
    "building": "yes",
    "building:condition": "good",
    "building:levels": "1",
    "building:roof": "asbestos",
    "building:walls": "brick",
    "flood_prone": "yes",
    "hospital:type_idn": "puskesmas",
    "name": "Posyandu"
  }
},
{
  "type": "relation",
  "id": 2091484,
  "timestamp": "2017-03-30T19:47:37Z",
  "version": 2,
  "changeset": 47303666,
  "user": "sebastic",
  "uid": 665748,
  "center": {
    "lat": -6.2875542,
    "lon": 106.8974976
  },
  "members": [
    {
      "type": "way",
      "ref": 155962859,
      "role": "outer"
    },
    {
      "type": "way",
      "ref": 155963047,
      "role": "inner"
    }
  ],
  "tags": {
    "access:roof": "no",
    "addr:full": "Jl. Punto Dewo",
    "amenity": "hospital",
    "building": "yes",
    "building:levels": "1",
    "building:roof": "concrete",
    "building:structure": "reinforced_masonry",
    "building:walls": "brick",
    "name": "Laboratorium Gigi Angkatan Udara",
    "operator:type": "goverment",
    "type": "multipolygon"
  }
},
{
  "type": "relation",
  "id": 3757083,
  "timestamp": "2014-05-20T03:30:10Z",
  "version": 1,
  "changeset": 22436822,
  "user": "Dewi Sulistioningrum",
  "uid": 615320,
  "center": {
    "lat": -6.1966741,
    "lon": 106.8470743
  },
  "members": [
    {
      "type": "way",
      "ref": 119783746,
      "role": "outer"
    },
    {
      "type": "way",
      "ref": 283046625,
      "role": "inner"
    },
    {
      "type": "way",
      "ref": 283046615,
      "role": "inner"
    },
    {
      "type": "way",
      "ref": 283046621,
      "role": "inner"
    },
    {
      "type": "way",
      "ref": 283046612,
      "role": "inner"
    },
    {
      "type": "way",
      "ref": 159605479,
      "role": "inner"
    },
    {
      "type": "way",
      "ref": 283046624,
      "role": "inner"
    },
    {
      "type": "way",
      "ref": 283046626,
      "role": "inner"
    },
    {
      "type": "way",
      "ref": 283046620,
      "role": "inner"
    },
    {
      "type": "way",
      "ref": 283046618,
      "role": "inner"
    },
    {
      "type": "way",
      "ref": 283046629,
      "role": "inner"
    },
    {
      "type": "way",
      "ref": 283046616,
      "role": "inner"
    },
    {
      "type": "way",
      "ref": 283046619,
      "role": "inner"
    },
    {
      "type": "way",
      "ref": 283046623,
      "role": "inner"
    },
    {
      "type": "way",
      "ref": 283046617,
      "role": "inner"
    },
    {
      "type": "way",
      "ref": 283046622,
      "role": "inner"
    },
    {
      "type": "way",
      "ref": 283046613,
      "role": "inner"
    },
    {
      "type": "way",
      "ref": 159605463,
      "role": "inner"
    }
  ],
  "tags": {
    "amenity": "hospital",
    "building": "yes",
    "name": "RSCM Ibu dan Anak",
    "type": "multipolygon"
  }
},
{
  "type": "relation",
  "id": 3757084,
  "timestamp": "2014-05-20T03:30:10Z",
  "version": 1,
  "changeset": 22436822,
  "user": "Dewi Sulistioningrum",
  "uid": 615320,
  "center": {
    "lat": -6.1968587,
    "lon": 106.8449339
  },
  "members": [
    {
      "type": "way",
      "ref": 263931210,
      "role": "outer"
    },
    {
      "type": "way",
      "ref": 283046628,
      "role": "inner"
    },
    {
      "type": "way",
      "ref": 283046614,
      "role": "inner"
    },
    {
      "type": "way",
      "ref": 283046627,
      "role": "inner"
    }
  ],
  "tags": {
    "amenity": "hospital",
    "building": "yes",
    "emergency": "yes",
    "name": "RSCM KIRANA",
    "type": "multipolygon"
  }
},
{
  "type": "relation",
  "id": 7117869,
  "timestamp": "2017-04-04T06:46:18Z",
  "version": 3,
  "changeset": 47432944,
  "user": "Hajid Naufal",
  "uid": 5520507,
  "center": {
    "lat": -6.2508155,
    "lon": 106.8719136
  },
  "members": [
    {
      "type": "way",
      "ref": 121195900,
      "role": "outer"
    },
    {
      "type": "way",
      "ref": 483400964,
      "role": "inner"
    },
    {
      "type": "way",
      "ref": 483400962,
      "role": "inner"
    },
    {
      "type": "way",
      "ref": 483400963,
      "role": "inner"
    },
    {
      "type": "way",
      "ref": 484661428,
      "role": "inner"
    },
    {
      "type": "way",
      "ref": 484661427,
      "role": "inner"
    },
    {
      "type": "way",
      "ref": 483400952,
      "role": "inner"
    },
    {
      "type": "way",
      "ref": 483400972,
      "role": "inner"
    },
    {
      "type": "way",
      "ref": 483400976,
      "role": "inner"
    },
    {
      "type": "way",
      "ref": 483400953,
      "role": "inner"
    },
    {
      "type": "way",
      "ref": 483400973,
      "role": "inner"
    },
    {
      "type": "way",
      "ref": 483400975,
      "role": "inner"
    },
    {
      "type": "way",
      "ref": 484661430,
      "role": "inner"
    },
    {
      "type": "way",
      "ref": 483400951,
      "role": "inner"
    },
    {
      "type": "way",
      "ref": 483400957,
      "role": "inner"
    },
    {
      "type": "way",
      "ref": 483400958,
      "role": "inner"
    },
    {
      "type": "way",
      "ref": 484661432,
      "role": "inner"
    },
    {
      "type": "way",
      "ref": 484661429,
      "role": "inner"
    },
    {
      "type": "way",
      "ref": 484661431,
      "role": "inner"
    },
    {
      "type": "way",
      "ref": 483400971,
      "role": "inner"
    },
    {
      "type": "way",
      "ref": 483400970,
      "role": "inner"
    }
  ],
  "tags": {
    "access:roof": "yes",
    "amenity": "hospital",
    "building": "yes",
    "building:levels": "3",
    "building:roof": "concrete",
    "building:structure": "confined_masonry",
    "building:use": "medical",
    "building:walls": "brick",
    "capacity": "200",
    "capacity:persons": "200",
    "name": "Rumah Sakit Umum UKI",
    "operator:type": "private",
    "rooms": "200",
    "type": "multipolygon"
  }
},
{
  "type": "relation",
  "id": 7099258,
  "timestamp": "2017-04-04T06:46:07Z",
  "version": 3,
  "changeset": 47432893,
  "user": "Febrina Dewi",
  "uid": 617262,
  "center": {
    "lat": -6.2212375,
    "lon": 106.8647681
  },
  "members": [
    {
      "type": "way",
      "ref": 482154808,
      "role": "outer"
    },
    {
      "type": "way",
      "ref": 482154824,
      "role": "inner"
    },
    {
      "type": "way",
      "ref": 482154823,
      "role": "inner"
    },
    {
      "type": "way",
      "ref": 482154822,
      "role": "inner"
    },
    {
      "type": "way",
      "ref": 482154821,
      "role": "inner"
    },
    {
      "type": "way",
      "ref": 482154820,
      "role": "inner"
    },
    {
      "type": "way",
      "ref": 482154819,
      "role": "inner"
    },
    {
      "type": "way",
      "ref": 482154816,
      "role": "inner"
    },
    {
      "type": "way",
      "ref": 482154817,
      "role": "inner"
    },
    {
      "type": "way",
      "ref": 482154815,
      "role": "inner"
    },
    {
      "type": "way",
      "ref": 482154818,
      "role": "inner"
    },
    {
      "type": "way",
      "ref": 482154809,
      "role": "inner"
    },
    {
      "type": "way",
      "ref": 482154814,
      "role": "inner"
    },
    {
      "type": "way",
      "ref": 482154813,
      "role": "inner"
    },
    {
      "type": "way",
      "ref": 482154810,
      "role": "inner"
    },
    {
      "type": "way",
      "ref": 482154812,
      "role": "inner"
    },
    {
      "type": "way",
      "ref": 482154811,
      "role": "inner"
    },
    {
      "type": "way",
      "ref": 482154780,
      "role": "inner"
    },
    {
      "type": "way",
      "ref": 283059868,
      "role": "inner"
    },
    {
      "type": "way",
      "ref": 482154806,
      "role": "inner"
    },
    {
      "type": "way",
      "ref": 283059921,
      "role": "inner"
    },
    {
      "type": "way",
      "ref": 283060113,
      "role": "inner"
    }
  ],
  "tags": {
    "access:roof": "yes",
    "addr:full": "Jalan Jatinegara Barat",
    "amenity": "hospital",
    "building": "hospital",
    "building:levels": ">7",
    "building:roof": "tile",
    "building:structure": "reinforced_masonry",
    "building:walls": "brick",
    "capacity:persons": "Lebih dari 300",
    "evacuation_center": "no",
    "flood_prone": "no",
    "name": "RS Hermina Jatinegara",
    "operator:type": "private",
    "type": "multipolygon"
  }
}

  ]
}
