{"features": [{"geometry": {"coordinates": [-6.6562289, 34.2666536], "type": "Point"}, "id": 4499158196, "properties": {"amenity": "marketplace", "name": "\u0633\u0648\u0642 \u0633\u0645\u0643 \u0628\u062a\u0642\u0633\u064a\u0637 \u0645\u064a\u0646\u0627\u0621 \u0645\u0647\u062f\u064a\u0629"}, "type": "Feature"}, {"geometry": {"coordinates": [-6.5934849, 34.2621459], "type": "Point"}, "id": 4499239679, "properties": {"amenity": "marketplace", "name": "Souq"}, "type": "Feature"}, {"geometry": {"coordinates": [-6.624184, 34.2540804], "type": "Point"}, "id": 4499242133, "properties": {"amenity": "marketplace", "name": "Souq"}, "type": "Feature"}, {"geometry": {"coordinates": [-6.5647024, 34.2642335], "type": "Point"}, "id": 4659781226, "properties": {"amenity": "marketplace", "name": "Souq Sebta"}, "type": "Feature"}, {"geometry": {"coordinates": [-6.5850566, 34.2635987], "type": "Point"}, "id": 4661014857, "properties": {"amenity": "marketplace", "name": "March\u00e9 Centrale", "name:fr": "March\u00e9 central."}, "type": "Feature"}, {"geometry": {"coordinates": [[-6.5203484, 34.2280368], [-6.5210511, 34.2272163], [-6.5201553, 34.2262361], [-6.5173711, 34.2246748], [-6.516173, 34.2248025], [-6.5160783, 34.2249631], [-6.5170976, 34.225522], [-6.5166397, 34.2260489], [-6.5197637, 34.2278328], [-6.5198388, 34.2277308], [-6.5203484, 34.2280368]], "type": "LineString"}, "id": 300706381, "properties": {"amenity": "marketplace"}, "type": "Feature"}, {"geometry": {"coordinates": [[-6.6137683, 34.2588671], [-6.6130371, 34.2589464], [-6.6129772, 34.2585501], [-6.6136485, 34.2582925], [-6.6137683, 34.2588671]], "type": "LineString"}, "id": 454568426, "properties": {"amenity": "marketplace", "building": "yes", "name": "Souq Tidass"}, "type": "Feature"}, {"geometry": {"coordinates": [[-6.5655056, 34.2604902], [-6.5650473, 34.2606979], [-6.5642978, 34.2602562], [-6.5644482, 34.2600977], [-6.5647922, 34.2602729], [-6.5649084, 34.2601412], [-6.5655056, 34.2604902]], "type": "LineString"}, "id": 455837599, "properties": {"amenity": "marketplace", "building": "yes", "name": "Souq Al Houria", "name:ar": "\u0633\u0648\u0642 \u0627\u0644\u062d\u0631\u064a\u0629"}, "type": "Feature"}, {"geometry": {"coordinates": [[-6.5588326, 34.2667806], [-6.5589233, 34.2663267], [-6.5589788, 34.2659534], [-6.5568886, 34.2659767], [-6.5569013, 34.2661377], [-6.5588326, 34.2667806]], "type": "LineString"}, "id": 455838335, "properties": {"amenity": "marketplace", "building": "yes", "name": "Souq Al Hofra"}, "type": "Feature"}, {"geometry": {"coordinates": [[-6.5646389, 34.2606562], [-6.5641031, 34.2606921], [-6.5641051, 34.2605091], [-6.5642573, 34.2603342], [-6.564635, 34.2605516], [-6.5646389, 34.2606562]], "type": "LineString"}, "id": 479567926, "properties": {"amenity": "marketplace", "building": "yes"}, "type": "Feature"}], "type": "FeatureCollection"}