{"features": [{"geometry": {"coordinates": [9.5050457, 0.4069683], "type": "Point"}, "id": 1252292649, "properties": {"amenity": "hospital", "name": "Military Hospital"}, "type": "Feature"}, {"geometry": {"coordinates": [9.446511, 0.3911432], "type": "Point"}, "id": 3179776916, "properties": {"amenity": "hospital", "name": "Hopital g\u00e9n\u00e9ral"}, "type": "Feature"}, {"geometry": {"coordinates": [9.4834246, 0.3380794], "type": "Point"}, "id": 3678077746, "properties": {"addr:city": "Owendo", "amenity": "hospital", "name": "CHUO"}, "type": "Feature"}, {"geometry": {"coordinates": [9.4267835, 0.4243506], "type": "Point"}, "id": 4040662119, "properties": {"amenity": "hospital", "name": "El Rafa"}, "type": "Feature"}, {"geometry": {"coordinates": [9.4529731, 0.4176536], "type": "Point"}, "id": 4075762147, "properties": {"amenity": "hospital", "name": "S.O.S Medecin"}, "type": "Feature"}, {"geometry": {"coordinates": [9.4455026, 0.3970606], "type": "Point"}, "id": 4121837395, "properties": {"addr:city": "Libreville", "addr:street": "Montagne Sainte", "amenity": "hospital", "description": "Clinique priv\u00e9e", "emergency": "yes", "name": "Clinique Chambrier", "operator": "Dr Chambrier"}, "type": "Feature"}, {"geometry": {"coordinates": [9.4423489, 0.3970097], "type": "Point"}, "id": 4121844946, "properties": {"addr:city": "Libreville", "addr:street": "Montagne Sainte", "amenity": "hospital", "description": "Clinique priv\u00e9e", "emergency": "yes", "name": "Clinique Biyoghe", "operator": "Dr Biyoghe"}, "type": "Feature"}, {"geometry": {"coordinates": [9.4265547, 0.4162191], "type": "Point"}, "id": 4121875057, "properties": {"addr:city": "Libreville", "addr:street": "Batterie IV", "amenity": "hospital", "description": "Clinique priv\u00e9e", "name": "Clinique"}, "type": "Feature"}, {"geometry": {"coordinates": [9.426046, 0.4168963], "type": "Point"}, "id": 4121875263, "properties": {"addr:city": "Libreville", "addr:street": "Batterie IV", "amenity": "hospital", "description": "Clinique priv\u00e9e", "name": "Clinique du Litoral"}, "type": "Feature"}, {"geometry": {"coordinates": [9.4493847, 0.4204724], "type": "Point"}, "id": 4121893797, "properties": {"addr:city": "Libreville", "addr:street": "Sobraga", "amenity": "hospital", "emergency": "yes", "name": "Clinique Union M\u00e9dicale"}, "type": "Feature"}, {"geometry": {"coordinates": [[9.4334907, 0.4065373], [9.4327582, 0.4069522], [9.4327608, 0.4071902], [9.4329629, 0.4074918], [9.4329735, 0.4076185], [9.4332374, 0.4075853], [9.4332886, 0.407629], [9.4334213, 0.4076109], [9.4334982, 0.4075461], [9.433741, 0.4074918], [9.4337908, 0.4073063], [9.4337486, 0.4072219], [9.4338571, 0.4071646], [9.4339687, 0.4073742], [9.4340864, 0.4074948], [9.4341949, 0.4073893], [9.4342236, 0.4074134], [9.4342538, 0.4073666], [9.4342402, 0.4072943], [9.4344573, 0.4071178], [9.4341889, 0.4066594], [9.4341135, 0.4062658], [9.4340698, 0.406023], [9.4339386, 0.405723], [9.4338179, 0.4057215], [9.4335917, 0.4057923], [9.433263, 0.4059899], [9.4334907, 0.4065373]], "type": "LineString"}, "id": 251018734, "properties": {"addr:city": "Libreville", "addr:street": "Boulevard de l'Independance", "amenity": "hospital", "name": "Fondation H\u00f4pital Jeanne Ebori"}, "type": "Feature"}, {"geometry": {"coordinates": [[9.4572261, 0.4096084], [9.4573786, 0.4097288], [9.4573512, 0.4097882], [9.4573653, 0.4098059], [9.4574044, 0.4098375], [9.4574686, 0.4098094], [9.4576523, 0.4099572], [9.4577274, 0.4100674], [9.4573622, 0.4105914], [9.457248, 0.4107447], [9.4570603, 0.4109027], [9.4568836, 0.411027], [9.456814, 0.4112014], [9.4565762, 0.4113867], [9.4563322, 0.4114759], [9.4560507, 0.4110708], [9.4563197, 0.4104476], [9.4563971, 0.4103746], [9.4565575, 0.4099952], [9.4568639, 0.4099985], [9.4572261, 0.4096084]], "type": "LineString"}, "id": 251604749, "properties": {"amenity": "hospital", "emergency": "no", "name": "Nkembo Hospital", "name:fr": "Hopital de Nkembo"}, "type": "Feature"}, {"geometry": {"coordinates": [[9.4437591, 0.4184158], [9.4438424, 0.4186546], [9.4439715, 0.4186089], [9.443881, 0.4183649], [9.4437591, 0.4184158]], "type": "LineString"}, "id": 410296774, "properties": {"addr:city": "Libreville", "amenity": "hospital", "emergency": "yes", "level": "1", "name": "Centre m\u00e9dical", "operator": "CNOU"}, "type": "Feature"}, {"geometry": {"coordinates": [[9.4471063, 0.3924256], [9.4471517, 0.3925165], [9.4469948, 0.3926609], [9.447226, 0.3928549], [9.4469701, 0.3931233], [9.4471365, 0.3933054], [9.4472385, 0.393417], [9.4473209, 0.3935071], [9.4475356, 0.393437], [9.4477007, 0.3935484], [9.4479236, 0.3936145], [9.4483818, 0.3935691], [9.4486061, 0.3935156], [9.4486419, 0.3935071], [9.4488111, 0.3932801], [9.4494592, 0.3922027], [9.4494716, 0.3921491], [9.4493312, 0.3919716], [9.4492858, 0.3917611], [9.4491414, 0.3916248], [9.4490547, 0.3914432], [9.4488029, 0.3913442], [9.4486584, 0.3912657], [9.4483158, 0.3912533], [9.4483116, 0.3914061], [9.447739, 0.3914061], [9.4476996, 0.3914061], [9.4475011, 0.3914061], [9.4474572, 0.3914061], [9.4473044, 0.3910593], [9.4472586, 0.3908942], [9.4472283, 0.3908351], [9.4471889, 0.3907584], [9.4472127, 0.3905315], [9.4466887, 0.3904034], [9.4464151, 0.3903504], [9.4463138, 0.3904511], [9.446283, 0.3909569], [9.4462668, 0.3915635], [9.4471791, 0.3922746], [9.4471063, 0.3924256]], "type": "LineString"}, "id": 410356077, "properties": {"addr:city": "Libreville", "addr:street": "Felix Eboube Avenue", "amenity": "hospital", "description": "Centre Hospitalier Universitaire", "emergency": "yes", "name": "CHU de Libreville", "operator": "Minist\u00e8re de la sant\u00e9", "source": "BEDE Parfaittt"}, "type": "Feature"}, {"geometry": {"coordinates": [[9.5057867, 0.4085536], [9.5067329, 0.4086621], [9.5069582, 0.4083617], [9.5085246, 0.4083402], [9.5086319, 0.4078252], [9.5086676, 0.4076877], [9.5086063, 0.4074933], [9.5080096, 0.4070099], [9.50794, 0.4059845], [9.5071132, 0.4059803], [9.5068833, 0.4059699], [9.506734, 0.4059719], [9.5062063, 0.4060906], [9.5055259, 0.4062159], [9.5043639, 0.4062569], [9.5033416, 0.4058209], [9.503102, 0.4067825], [9.503387, 0.4067911], [9.5039118, 0.4069747], [9.5042682, 0.4072943], [9.5048579, 0.4081237], [9.5055059, 0.4084996], [9.5057867, 0.4085536]], "type": "LineString"}, "id": 413903267, "properties": {"addr:city": "Libreville", "amenity": "hospital", "name": "H\u00f4pital d'Instruction des arm\u00e9es"}, "type": "Feature"}], "type": "FeatureCollection"}