{"features": [{"geometry": {"coordinates": [-5.5490345, 33.8975967], "type": "Point"}, "id": 2434591148, "properties": {"amenity": "townhall", "name": "Baladia"}, "type": "Feature"}, {"geometry": {"coordinates": [[-5.5518769, 33.9014499], [-5.5515838, 33.9007769], [-5.551219, 33.9010174], [-5.551359, 33.9013607], [-5.5518671, 33.901477], [-5.5518769, 33.9014499]], "type": "LineString"}, "id": 307428044, "properties": {"amenity": "townhall", "building": "yes", "name": "Wilaya de Mekn\u00e8s", "name:ar": "\u0627\u0644\u0648\u0644\u0627\u064a\u0629"}, "type": "Feature"}, {"geometry": {"coordinates": [[-5.5492825, 33.8977436], [-5.5483142, 33.8980197], [-5.5481425, 33.8976234], [-5.5491081, 33.8973429], [-5.5492825, 33.8977436]], "type": "LineString"}, "id": 332736713, "properties": {"alt_name": "\u0628\u0644\u062f\u064a\u0629 \u062d\u0645\u0631\u064a\u0629", "amenity": "townhall", "building": "yes", "name": "\u0627\u0644\u0642\u0635\u0631 \u0627\u0644\u0628\u0644\u062f\u064a", "name:fr": "H\u00f4tel de Ville"}, "type": "Feature"}], "type": "FeatureCollection"}