{"features": [{"geometry": {"coordinates": [-5.5508996, 33.9000955], "type": "Point"}, "id": 2437755877, "properties": {"amenity": "marketplace", "name": "March\u00e9 central"}, "type": "Feature"}, {"geometry": {"coordinates": [-5.5366114, 33.8613508], "type": "Point"}, "id": 3125474816, "properties": {"amenity": "marketplace"}, "type": "Feature"}, {"geometry": {"coordinates": [-5.5535078, 33.8975445], "type": "Point"}, "id": 3214364991, "properties": {"amenity": "marketplace", "name": "Palais de la Foire"}, "type": "Feature"}, {"geometry": {"coordinates": [[-5.5661798, 33.8922763], [-5.5665212, 33.8926029], [-5.5664898, 33.8926411], [-5.5661072, 33.8923026], [-5.5660949, 33.8922917], [-5.5661798, 33.8922763]], "type": "LineString"}, "id": 153353181, "properties": {"amenity": "marketplace", "name": "vegetable souk"}, "type": "Feature"}, {"geometry": {"coordinates": [[-5.5366998, 33.8626128], [-5.5380164, 33.8616003], [-5.5361873, 33.8598319], [-5.5349944, 33.8606684], [-5.5366998, 33.8626128]], "type": "LineString"}, "id": 307411007, "properties": {"amenity": "marketplace", "building": "yes", "name": "Souk al Had (Dimanche)"}, "type": "Feature"}, {"geometry": {"coordinates": [[-5.5779982, 33.894852], [-5.5778792, 33.8942896], [-5.5763375, 33.8944756], [-5.5762812, 33.894559], [-5.5762944, 33.8945957], [-5.5762944, 33.8946232], [-5.5762812, 33.8946608], [-5.5763132, 33.8947204], [-5.5762425, 33.8947534], [-5.5762536, 33.8947763], [-5.5762204, 33.8947974], [-5.5761807, 33.8948799], [-5.5762005, 33.8949147], [-5.57629, 33.8949701], [-5.5763536, 33.8951423], [-5.5763082, 33.895251], [-5.5763427, 33.8953099], [-5.5764555, 33.8953537], [-5.5765247, 33.8953401], [-5.5765629, 33.8953673], [-5.5765938, 33.8953537], [-5.5765974, 33.8953685], [-5.5779982, 33.894852]], "type": "LineString"}, "id": 307416028, "properties": {"amenity": "marketplace", "building": "yes", "name": "Souk du grain \u0631\u062d\u0628\u0629 \u0627\u0644\u0632\u0631\u0639", "name:ar": "\u0631\u062d\u0628\u0629 \u0627\u0644\u0632\u0631\u0639", "name:fr": "Souk du grain"}, "type": "Feature"}, {"geometry": {"coordinates": [[-5.5662378, 33.8929401], [-5.5664929, 33.8927217], [-5.5665289, 33.8926909], [-5.5661072, 33.8923026], [-5.5660377, 33.8923103], [-5.5659618, 33.8923351], [-5.5657397, 33.8925136], [-5.5662378, 33.8929401]], "type": "LineString"}, "id": 307419705, "properties": {"amenity": "marketplace", "building": "yes", "name": "March\u00e9"}, "type": "Feature"}, {"geometry": {"coordinates": [[-5.5713278, 33.8884746], [-5.5708826, 33.8886705], [-5.5706626, 33.8883454], [-5.5711052, 33.8881384], [-5.5713278, 33.8884746]], "type": "LineString"}, "id": 308773008, "properties": {"amenity": "marketplace", "building": "yes", "name": "march\u00e9 Mellah"}, "type": "Feature"}, {"geometry": {"coordinates": [[-5.5665944, 33.8927981], [-5.5664929, 33.8927217], [-5.5662378, 33.8929401], [-5.5663342, 33.8930186], [-5.5665944, 33.8927981]], "type": "LineString"}, "id": 315785563, "properties": {"amenity": "marketplace", "building": "yes", "name": "march\u00e9 de poison"}, "type": "Feature"}, {"geometry": {"coordinates": [[-5.5780625, 33.8902178], [-5.5779224, 33.8899098], [-5.5773029, 33.8894071], [-5.5775041, 33.889229], [-5.5773449, 33.8891078], [-5.5770535, 33.8891911], [-5.5769355, 33.8891889], [-5.5763264, 33.8896018], [-5.5772049, 33.8902323], [-5.5775899, 33.8901161], [-5.5776354, 33.8901567], [-5.5777579, 33.8900725], [-5.5779014, 33.8902788], [-5.5780625, 33.8902178]], "type": "LineString"}, "id": 327205734, "properties": {"amenity": "marketplace", "building": "yes", "marketplace": "clothing", "name": "Souk Sidi Said", "name:ar": "\u0633\u0648\u0642 \u0633\u064a\u062f\u064a \u0633\u0639\u064a\u062f"}, "type": "Feature"}], "type": "FeatureCollection"}