{"features": [{"geometry": {"coordinates": [-5.5973436, 33.8884317], "type": "Point"}, "id": 3124687004, "properties": {"amenity": "university", "name": "Ecole Normale Sup\u00e9rieure (ENS)"}, "type": "Feature"}, {"geometry": {"coordinates": [[-5.5981564, 33.8892108], [-5.5963951, 33.8888063], [-5.5964202, 33.888181], [-5.5972903, 33.8875516], [-5.5984729, 33.8877755], [-5.5985425, 33.8878724], [-5.5981564, 33.8892108]], "type": "LineString"}, "id": 292597797, "properties": {"addr:city": "Mekn\u00e8s \u0645\u0643\u0646\u0627\u0633", "addr:pobox": "BP 3104", "addr:postcode": "50000", "addr:street": "Toulal", "amenity": "university", "name": "Ecole Normale Sup\u00e9rieure (ENS) - Mekn\u00e8s", "name:ar": "\u0627\u0644\u0645\u062f\u0631\u0633\u0629 \u0627\u0644\u0639\u0644\u064a\u0627 \u0644\u0644\u0623\u0633\u0627\u062a\u0630\u0629", "note": "\u00e9cole normale sup\u00e9rieure de Mekn\u00e8s - universit\u00e9 My Isma\u00ebl - Mekn\u00e8s", "phone": "+212 535533885", "website": "http://www.ens-meknes.ma"}, "type": "Feature"}, {"geometry": {"coordinates": [[-5.5836221, 33.8847756], [-5.5848666, 33.8855505], [-5.5852213, 33.8860632], [-5.5865025, 33.8848748], [-5.5868471, 33.8845374], [-5.587068, 33.8841963], [-5.5871122, 33.8837085], [-5.585778, 33.8826375], [-5.5856763, 33.8826485], [-5.5836221, 33.8847756]], "type": "LineString"}, "id": 292598821, "properties": {"addr:city": "Mekn\u00e8s \u0645\u0643\u0646\u0627\u0633", "addr:pobox": "BP 3102", "addr:postcode": "50000", "addr:street": "Toulal", "amenity": "university", "area": "yes", "designation": "University", "name": "Facult\u00e9 des Sciences Juridiques, Economiques et Sociales", "name:ar": "\u0643\u0644\u064a\u0629 \u0627\u0644\u0639\u0644\u0648\u0645 \u0627\u0644\u0642\u0627\u0646\u0648\u0646\u064a\u0629 \u0648\u0627\u0644\u0627\u0642\u062a\u0635\u0627\u062f\u064a\u0629 \u0648\u0627\u0644\u0627\u062c\u062a\u0645\u0627\u0639\u064a\u0629", "phone": "+212 5 35 45 20 96", "website": "http://www.fsjes-umi.ac.ma"}, "type": "Feature"}, {"geometry": {"coordinates": [[-5.5793815, 33.856361], [-5.5807933, 33.8565249], [-5.5807933, 33.8583614], [-5.5786015, 33.8584352], [-5.5792038, 33.8564512], [-5.5793815, 33.856361]], "type": "LineString"}, "id": 307417838, "properties": {"amenity": "university", "name": "Ecole sup\u00e9rieure de Technologie - EST"}, "type": "Feature"}, {"geometry": {"coordinates": [[-5.5714242, 33.8586401], [-5.5728162, 33.8581974], [-5.5743662, 33.8567135], [-5.5720955, 33.8553935], [-5.5714538, 33.8552296], [-5.5706739, 33.8561068], [-5.5696175, 33.8573612], [-5.5714242, 33.8586401]], "type": "LineString"}, "id": 307418363, "properties": {"amenity": "university", "name": "Ensam - Ecole Nationale Sup\u00e9rieure d'Arts et M\u00e9tiers", "name:ar": "\u0627\u0644\u0645\u062f\u0631\u0633\u0629 \u0627\u0644\u0648\u0637\u0646\u064a\u0629 \u0644\u0644\u0641\u0646\u0648\u0646 \u0648\u0627\u0644\u0645\u0647\u0646"}, "type": "Feature"}, {"geometry": {"coordinates": [[-5.5744452, 33.8566807], [-5.5754127, 33.8561396], [-5.5753239, 33.8558527], [-5.5740108, 33.8557051], [-5.572293, 33.8554509], [-5.5744452, 33.8566807]], "type": "LineString"}, "id": 307418410, "properties": {"amenity": "university", "name": "Pr\u00e9sidence de l'Universit\u00e9 Moulay Ismail"}, "type": "Feature"}, {"geometry": {"coordinates": [[-5.5457228, 33.9035503], [-5.5459266, 33.90274], [-5.5462399, 33.903236], [-5.5457228, 33.9035503]], "type": "LineString"}, "id": 308237140, "properties": {"amenity": "university", "name": "CPGE - EC"}, "type": "Feature"}], "type": "FeatureCollection"}