{"features": [{"geometry": {"coordinates": [-1.9084975, 34.680695], "type": "Point"}, "id": 2926448727, "properties": {"amenity": "marketplace", "name": "Souk Al Qods"}, "type": "Feature"}, {"geometry": {"coordinates": [-1.9187711, 34.7002352], "type": "Point"}, "id": 2951545280, "properties": {"amenity": "marketplace", "name": "March\u00e9 Al Massira"}, "type": "Feature"}, {"geometry": {"coordinates": [-1.9142511, 34.6807916], "type": "Point"}, "id": 3269757414, "properties": {"amenity": "marketplace", "name": "Souk Des Bijoux"}, "type": "Feature"}, {"geometry": {"coordinates": [-1.9105684, 34.679874], "type": "Point"}, "id": 3269780654, "properties": {"amenity": "marketplace", "name": "Souk De Dattes", "name:en": "Marketplace of Dates", "name:fr": "Souk De Dattes"}, "type": "Feature"}, {"geometry": {"coordinates": [[-1.9105324, 34.6817674], [-1.9101949, 34.681983], [-1.9101028, 34.6820073], [-1.9101098, 34.6820478], [-1.9100273, 34.682057], [-1.9100066, 34.6819995], [-1.909879, 34.6819692], [-1.9098216, 34.6819783], [-1.9096692, 34.6820024], [-1.9094373, 34.6819772], [-1.9093213, 34.6819645], [-1.9092914, 34.6818918], [-1.9104395, 34.681564], [-1.9105324, 34.6817674]], "type": "LineString"}, "id": 289100462, "properties": {"amenity": "marketplace", "building": "yes", "name": "Aswak Al Maghreb Al Arabi"}, "type": "Feature"}, {"geometry": {"coordinates": [[-1.910437, 34.6813231], [-1.9093453, 34.6816165], [-1.9089135, 34.6806217], [-1.9092541, 34.6805445], [-1.909346, 34.6808039], [-1.9101902, 34.6806173], [-1.910437, 34.6813231]], "type": "LineString"}, "id": 293305514, "properties": {"amenity": "marketplace", "building": "yes", "name": "Souk Sidi Abdelwahab"}, "type": "Feature"}, {"geometry": {"coordinates": [[-1.8682489, 34.6625742], [-1.8669519, 34.6626392], [-1.8667621, 34.6608438], [-1.8681065, 34.6607658], [-1.8682489, 34.6625742]], "type": "LineString"}, "id": 293728153, "properties": {"amenity": "marketplace", "building": "yes", "name": "Souk Sidi Yahya"}, "type": "Feature"}, {"geometry": {"coordinates": [[-1.9151831, 34.7024509], [-1.9150914, 34.7016968], [-1.9154346, 34.7016686], [-1.9155263, 34.7024227], [-1.9151831, 34.7024509]], "type": "LineString"}, "id": 305940443, "properties": {"amenity": "marketplace", "building": "yes", "name": "March\u00e9 de Gros aux Poissons", "name:fr": "March\u00e9 de Gros aux Poissons"}, "type": "Feature"}, {"geometry": {"coordinates": [[-1.8833907, 34.6808588], [-1.882452, 34.6811279], [-1.8821677, 34.680528], [-1.8834658, 34.6801045], [-1.8836965, 34.6804045], [-1.8832191, 34.6805589], [-1.8833907, 34.6808588]], "type": "LineString"}, "id": 316627000, "properties": {"amenity": "marketplace", "building": "yes", "name": "Souk Lazaret"}, "type": "Feature"}, {"geometry": {"coordinates": [[-1.8878396, 34.6796236], [-1.8874712, 34.6797548], [-1.8873291, 34.6794849], [-1.8876975, 34.6793537], [-1.8878396, 34.6796236]], "type": "LineString"}, "id": 317589132, "properties": {"amenity": "marketplace", "building": "yes", "name": "March\u00e9 De Poisson"}, "type": "Feature"}, {"geometry": {"coordinates": [[-1.9183159, 34.7023533], [-1.9189114, 34.702296], [-1.9187504, 34.7013434], [-1.9181925, 34.7013786], [-1.9183159, 34.7023533]], "type": "LineString"}, "id": 319649666, "properties": {"amenity": "marketplace", "building": "yes", "name": "March\u00e9 aux Legumes"}, "type": "Feature"}, {"geometry": {"coordinates": [[-1.8879909, 34.700488], [-1.8878883, 34.7005287], [-1.8878534, 34.7004713], [-1.8881565, 34.7003478], [-1.8881894, 34.700402], [-1.8879909, 34.700488]], "type": "LineString"}, "id": 319868868, "properties": {"amenity": "marketplace", "building": "yes"}, "type": "Feature"}, {"geometry": {"coordinates": [[-1.8927496, 34.6615673], [-1.8924139, 34.6614972], [-1.8922235, 34.6614543], [-1.8922141, 34.6614059], [-1.8927449, 34.6615201], [-1.8927496, 34.6615673]], "type": "LineString"}, "id": 320730271, "properties": {"amenity": "marketplace", "name": "Al Hidaya", "opening_hours": "8:00 to 18:00"}, "type": "Feature"}, {"geometry": {"coordinates": [[-1.885925, 34.6656087], [-1.8847894, 34.665616], [-1.8847877, 34.6654396], [-1.8859234, 34.6654324], [-1.885925, 34.6656087]], "type": "LineString"}, "id": 320731253, "properties": {"amenity": "marketplace", "name": "Kissariat Al Firdaws"}, "type": "Feature"}, {"geometry": {"coordinates": [[-1.88832, 34.7123185], [-1.8877782, 34.7119084], [-1.8859972, 34.7136502], [-1.8865491, 34.7139573], [-1.8869836, 34.7134678], [-1.8875737, 34.7129695], [-1.88832, 34.7123185]], "type": "LineString"}, "id": 328371830, "properties": {"amenity": "marketplace", "area": "yes", "name": "Souk Ennasr"}, "type": "Feature"}, {"geometry": {"coordinates": [[-1.9325985, 34.6756997], [-1.9320417, 34.6760976], [-1.9314733, 34.6763289], [-1.9314369, 34.6763253], [-1.931504, 34.6758255], [-1.9313436, 34.6754396], [-1.9320825, 34.6751327], [-1.9325985, 34.6756997]], "type": "LineString"}, "id": 354090768, "properties": {"amenity": "marketplace", "area": "yes"}, "type": "Feature"}, {"geometry": {"coordinates": [[-1.9050855, 34.6813582], [-1.9050981, 34.6810508], [-1.9052966, 34.6806606], [-1.9041523, 34.680417], [-1.9040677, 34.6806495], [-1.9043062, 34.680708], [-1.90426, 34.6808472], [-1.9044312, 34.6808883], [-1.904335, 34.6811998], [-1.9050855, 34.6813582]], "type": "LineString"}, "id": 356919793, "properties": {"amenity": "marketplace", "building": "yes", "name": "Souk Al Fallah"}, "type": "Feature"}, {"geometry": {"coordinates": [[-1.8999925, 34.6802504], [-1.8994864, 34.6801732], [-1.8996847, 34.6795682], [-1.8998829, 34.6795854], [-1.8999925, 34.6802504]], "type": "LineString"}, "id": 356924544, "properties": {"amenity": "marketplace", "building": "yes", "name": "Souk Allil", "name:ar": "\u0633\u0648\u0642 \u0627\u0644\u0644\u064a\u0644"}, "type": "Feature"}, {"geometry": {"coordinates": [[-1.8644083, 34.670847], [-1.8627346, 34.6707941], [-1.8630619, 34.6701676], [-1.8633837, 34.669872], [-1.8638504, 34.6696294], [-1.8640328, 34.6701764], [-1.8644244, 34.6704147], [-1.8644083, 34.670847]], "type": "LineString"}, "id": 360313923, "properties": {"amenity": "marketplace", "area": "yes", "name": "March\u00e9 De L\u00e9gumes", "name:ar": "\u0633\u0648\u0642 \u0627\u0644\u062e\u0636\u0631"}, "type": "Feature"}, {"geometry": {"coordinates": [[-1.9178806, 34.7135564], [-1.9139753, 34.7136975], [-1.9149516, 34.7120571], [-1.9158207, 34.7124848], [-1.9162632, 34.7118256], [-1.9164536, 34.7115301], [-1.9184814, 34.7107353], [-1.9187282, 34.7125515], [-1.9178806, 34.7135564]], "type": "LineString"}, "id": 442593383, "properties": {"amenity": "marketplace", "name": "Souk El Khoudra", "opening_hours": "Dimanche"}, "type": "Feature"}, {"geometry": {"coordinates": [[-1.9139753, 34.7136975], [-1.9127093, 34.7130449], [-1.9145976, 34.7118895], [-1.9147357, 34.7119549], [-1.9149516, 34.7120571], [-1.9139753, 34.7136975]], "type": "LineString"}, "id": 442593384, "properties": {"amenity": "marketplace", "name": "March\u00e9 des Moutons"}, "type": "Feature"}, {"geometry": {"coordinates": [[-1.9144903, 34.7116955], [-1.9127737, 34.7127274], [-1.9115291, 34.7129302], [-1.9113897, 34.7120747], [-1.9119261, 34.7116955], [-1.9124304, 34.7115103], [-1.9131492, 34.7113074], [-1.9145439, 34.7110958], [-1.9144903, 34.7116955]], "type": "LineString"}, "id": 442593385, "properties": {"amenity": "marketplace", "name": "Souk El Had", "opening_hours": "Dimanche"}, "type": "Feature"}, {"geometry": {"coordinates": [[-1.9041227, 34.683639], [-1.9040824, 34.6834956], [-1.9039269, 34.6833677], [-1.9036935, 34.6831736], [-1.9037713, 34.6829927], [-1.9040596, 34.6829387], [-1.904533, 34.6829993], [-1.904981, 34.6831582], [-1.9041227, 34.683639]], "type": "LineString"}, "id": 465342137, "properties": {"amenity": "marketplace", "building": "yes"}, "type": "Feature"}], "type": "FeatureCollection"}