{"features": [{"geometry": {"coordinates": [112.7664614, -7.2980387], "type": "Point"}, "id": 1555143638, "properties": {"addr:street": "Jalan Somelowaru No 45", "amenity": "university", "description": "Salah satu universitas terkenal didaerah Surabaya yang memiliki visit until mewujudkan PT unggulan.", "name": "Universitas 17 Augustus Surabaya", "phone": "03134560101", "website": "http://untag-sby.ac.id"}, "type": "Feature"}, {"geometry": {"coordinates": [112.7657299, -7.2987533], "type": "Point"}, "id": 1582488438, "properties": {"addr:street": "Jl. Semolowaru 84 Surabaya", "amenity": "university", "description": "salah satu kampus swasta di surabaya", "name": "Universitas Dr.Soetomo", "phone": "031-5924452", "website": "http://www.unitomo.ac.id"}, "type": "Feature"}, {"geometry": {"coordinates": [112.7466992, -7.346253], "type": "Point"}, "id": 1582736253, "properties": {"addr:street": "Jl. Brigjen Katamso II Waru", "amenity": "university", "description": "salah satu kampus swasta di surabaya", "name": "Universitas Sunan Giri", "phone": "031-8532477"}, "type": "Feature"}, {"geometry": {"coordinates": [112.7764714, -7.2882596], "type": "Point"}, "id": 1583612462, "properties": {"addr:street": "Jl. Arief Rachman Hakim 51", "amenity": "university", "description": "salah satu kampus swasta di surabaya", "name": "Universitas Narotama", "phone": "031-5946404", "website": "http://www.narotama.ac.id"}, "type": "Feature"}, {"geometry": {"coordinates": [112.7314961, -7.324321], "type": "Point"}, "id": 1583642061, "properties": {"addr:street": "Jl. Jend. A. Yani 114 \u2013 Wonocolo", "amenity": "university", "description": "salah satu kampus swasta di surabaya", "name": "Universitas Bhayangkara", "phone": "031-8285602"}, "type": "Feature"}, {"geometry": {"coordinates": [112.7778029, -7.2553248], "type": "Point"}, "id": 1583774356, "properties": {"addr:street": "Jln. Kalijudan No 34-B", "amenity": "university", "description": "salah satu kampus swasta di surabaya", "name": "Universitas Tritunggal", "phone": "031-3810792", "website": "universitastritunggalsurabaya.com"}, "type": "Feature"}, {"geometry": {"coordinates": [112.7792069, -7.290803], "type": "Point"}, "id": 1583809008, "properties": {"addr:city": "Sukolio, East Java, Surabaya", "addr:housenumber": "100", "addr:postcode": "60117", "addr:street": "Jl. Arief Rachman Hakim", "amenity": "university", "description": "salah satu kampus swasta di surabaya", "name": "Institut Teknologi Adhi Tama Surabaya", "phone": "031-5946331", "website": "www.itats.ac.id"}, "type": "Feature"}, {"geometry": {"coordinates": [112.7266295, -7.3156467], "type": "Point"}, "id": 1583812543, "properties": {"addr:street": "Jl. Ketintang No.147", "amenity": "university", "description": "salah satu kampus swasta di surabaya", "name": "IKIP Widya Dharma", "phone": "031-8288141"}, "type": "Feature"}, {"geometry": {"coordinates": [112.7635547, -7.2930264], "type": "Point"}, "id": 1583823671, "properties": {"addr:street": "Jl. Menur Pumpungan No. 30", "amenity": "university", "description": "salah satu kampus swasta di surabaya", "name": "Sekolah Tinggi Ilmu Ekonomi Indonesia", "phone": "031-5947840", "website": "www.stiesiaedu.com"}, "type": "Feature"}, {"geometry": {"coordinates": [112.7642977, -7.3000873], "type": "Point"}, "id": 1583828318, "properties": {"addr:street": "Jl. Nginden Semolo No. 34-36", "amenity": "university", "description": "salah satu kampus swasta di surabaya", "name": "Sekolah Tinggi Ilmu Ekonomi Perbanas", "phone": "031-5938151", "website": "www.perbanas.ac.id"}, "type": "Feature"}, {"geometry": {"coordinates": [112.7773392, -7.2913084], "type": "Point"}, "id": 1583840759, "properties": {"addr:street": "Jl. Klampis Anom II", "amenity": "university", "description": "salah satu kampus swasta di surabaya", "name": "Sekolah Tinggi Kesenian Wilwatikta", "phone": "031-5949945"}, "type": "Feature"}, {"geometry": {"coordinates": [112.7314842, -7.3190857], "type": "Point"}, "id": 1583856426, "properties": {"addr:street": "Jl. A.Yani No.88 Gedung Graha Pena Lantai X", "amenity": "university", "description": "salah satu kampus swasta di surabaya", "name": "Sekolah Tinggi Ilmu Ekonomi Mahardhika", "phone": "031-8294629", "website": "www.stiemahardhika.ac.id"}, "type": "Feature"}, {"geometry": {"coordinates": [112.7627683, -7.2963291], "type": "Point"}, "id": 1583877145, "properties": {"addr:street": "Jl. Menur Pumpungan III/29", "amenity": "university", "description": "salah satu kampus swasta di surabaya", "name": "Sekolah Tinggi Ilmu Ekonomi Artha Bodhi Iswara", "phone": "031-5938850", "website": "www.stie-abi.ac.id"}, "type": "Feature"}, {"geometry": {"coordinates": [112.7709217, -7.3058395], "type": "Point"}, "id": 1583947297, "properties": {"addr:street": "Jl. Nginden Intan Timur No.1", "amenity": "university", "description": "salah satu kampus swasta di surabaya", "name": "Sekolah Tinggi Ilmu Komunikasi Almamater Wartawan", "phone": "031-5922018", "website": "www.stikosa-aws.ac.id"}, "type": "Feature"}, {"geometry": {"coordinates": [112.7453087, -7.3054341], "type": "Point"}, "id": 1584019887, "properties": {"addr:street": "Jl.Bendul Merisi Rejo Aman II/23", "amenity": "university", "description": "salah satu kampus swasta di surabaya", "name": "Sekolah Tinggi Bahasa Dan Sastra Asing (STIBA) Satya Widya", "phone": "031-8494369", "website": "www.stiba-satyawidya.ac.id"}, "type": "Feature"}, {"geometry": {"coordinates": [112.7773236, -7.2929487], "type": "Point"}, "id": 1584052512, "properties": {"addr:street": "Jl. Klampis Anom II/2", "amenity": "university", "description": "salah satu kampus swasta di surabaya", "name": "Sekolah Tinggi Ilmu Ekonomi Wilwatika", "phone": "031-5949643"}, "type": "Feature"}, {"geometry": {"coordinates": [112.7512854, -7.2650668], "type": "Point"}, "id": 1584071694, "properties": {"addr:street": "Jl. Gubeng Pojok 15", "amenity": "university", "description": "salah satu kampus swasta di surabaya", "name": "Sekolah Tinggi Ilmu Ekonomi IEU", "phone": "031-5450051", "website": "ieu.ac.id"}, "type": "Feature"}, {"geometry": {"coordinates": [112.7407067, -7.2672997], "type": "Point"}, "id": 1584101507, "properties": {"addr:street": "J l . Basuki Rachmad 129-137", "amenity": "university", "description": "salah satu kampus swasta di surabaya", "name": "Sekolah Tinggi Ilmu Ekonomi Prima Visi", "phone": "031-5316770", "website": "www.stieprimavisi.ac.id"}, "type": "Feature"}, {"geometry": {"coordinates": [112.7761659, -7.2816671], "type": "Point"}, "id": 1584119406, "properties": {"addr:street": "Jl. Klampis Jaya 102-120 Lt. III", "amenity": "university", "description": "salah satu politeknik swasta di surabaya", "name": "Politeknik Surabaya", "phone": "031-5911192", "website": "www.polteksurabaya.ac.id"}, "type": "Feature"}, {"geometry": {"coordinates": [112.794968, -7.2803079], "type": "Point"}, "id": 1609173011, "properties": {"amenity": "university", "name": "Geomatika"}, "type": "Feature"}, {"geometry": {"coordinates": [112.7946824, -7.2853705], "type": "Point"}, "id": 1609652772, "properties": {"amenity": "university", "name": "Statiska Matematika"}, "type": "Feature"}, {"geometry": {"coordinates": [112.7965192, -7.2850089], "type": "Point"}, "id": 3061260104, "properties": {"amenity": "university", "name": "Teknik Multimedia dan Jaringan", "website": "http://telematics.its.ac.id"}, "type": "Feature"}, {"geometry": {"coordinates": [112.7960745, -7.2840497], "type": "Point"}, "id": 3061260105, "properties": {"amenity": "university", "internet_access": "yes", "name": "Taman Teknik Fisika", "operator": "ITS"}, "type": "Feature"}, {"geometry": {"coordinates": [112.793506, -7.2815031], "type": "Point"}, "id": 4188541097, "properties": {"addr:city": "Kota SBY, Jawa Timur, Indonesia", "addr:postcode": "60111", "addr:street": "Jl. ITS Raya, Sukolilo,", "amenity": "university", "name": "Jurusan Arsitektur ITS"}, "type": "Feature"}, {"geometry": {"coordinates": [112.7975044, -7.2819816], "type": "Point"}, "id": 4188569479, "properties": {"addr:city": "Surabaya", "addr:postcode": "60111", "addr:street": "Jalan Teknik Kimia", "amenity": "university", "name": "Jurusan Teknik Perkapalan"}, "type": "Feature"}, {"geometry": {"coordinates": [112.7925242, -7.2803897], "type": "Point"}, "id": 4188571509, "properties": {"addr:city": "Kota SBY, Jawa Timur, Indonesia", "addr:postcode": "60111", "addr:street": "Jl. Teknik Mesin", "amenity": "university", "name": "Jurusan Teknik Sipil"}, "type": "Feature"}, {"geometry": {"coordinates": [112.7976584, -7.2795678], "type": "Point"}, "id": 4191008958, "properties": {"addr:city": "Keputih, Sukolilo, Kota SBY, Jawa Timur, Indonesia", "addr:postcode": "60111", "addr:street": "Jl. Raya ITS,", "amenity": "university", "name": "Teknik Informatika ITS"}, "type": "Feature"}, {"geometry": {"coordinates": [112.7815003, -7.2915517], "type": "Point"}, "id": 4461394304, "properties": {"access:roof": "no", "addr:full": "Jalan Dr. Ir. H. Soekarno No.201", "amenity": "university", "backup_generator": "no", "building": "university", "building:condition": "good", "building:levels": "6", "building:roof": "tile", "building:structure": "confined_masonry", "building:walls": "brick", "buildings:floor": "ceramics", "capacity": "100-250", "name": "Universitas Katolik Darma Cendika", "operator:type": "private"}, "type": "Feature"}, {"geometry": {"coordinates": [[112.795095, -7.2830902], [112.7948228, -7.2828054], [112.7947104, -7.2829111], [112.7949826, -7.2831959], [112.795095, -7.2830902]], "type": "LineString"}, "id": 119487702, "properties": {"amenity": "university", "building": "yes", "building:levels": "2", "building:roof": "tile", "building:structure": "reinforced_masonry", "building:use": "government", "building:walls": "brick", "name": "Puskom"}, "type": "Feature"}, {"geometry": {"coordinates": [[112.7970096, -7.2792537], [112.797626, -7.2792656], [112.797611, -7.2797339], [112.7976076, -7.2798936], [112.7974815, -7.2798844], [112.7974456, -7.279883], [112.7969958, -7.2798844], [112.7969421, -7.2798218], [112.7970052, -7.2797547], [112.7974488, -7.2797616], [112.7974546, -7.2794237], [112.7970005, -7.2794142], [112.7969495, -7.2793551], [112.7969525, -7.2792895], [112.7970096, -7.2792537]], "type": "LineString"}, "id": 119488176, "properties": {"addr:city": "Surabaya", "addr:housename": "Gedung Teknik Informatika", "addr:postcode": "60111", "addr:street": "Jalan Teknik Kimia", "alt_name": "TC", "amenity": "university", "building": "yes", "building:levels": "4", "building:roof": "tile", "building:structure": "reinforced_masonry", "building:use": "education", "building:walls": "brick", "int_name": "Informatics Department of ITS", "name": "Teknik Informatika", "operator": "Institut Teknologi Sepuluh Nopember", "website": "http://if.it.ac.id/"}, "type": "Feature"}, {"geometry": {"coordinates": [[112.7961053, -7.2786469], [112.7960983, -7.2788002], [112.7966227, -7.2788069], [112.7966227, -7.2790868], [112.7967571, -7.2790935], [112.7967602, -7.2786606], [112.7961053, -7.2786469]], "type": "LineString"}, "id": 119489995, "properties": {"addr:postcode": "60111", "amenity": "university", "building": "yes", "building:levels": "3", "building:roof": "tile", "building:structure": "reinforced_masonry", "building:use": "residential", "building:walls": "brick", "name": "Despro", "operator": "Institut Teknologi Sepuluh Nopember"}, "type": "Feature"}, {"geometry": {"coordinates": [[112.7220485, -7.1271839], [112.7220465, -7.1272283], [112.7222551, -7.1272374], [112.722257, -7.1271953], [112.7223103, -7.1271976], [112.7223162, -7.1270644], [112.7222544, -7.1270617], [112.7222562, -7.1270215], [112.7220509, -7.1270126], [112.7220491, -7.1270529], [112.7219972, -7.1270506], [112.7219914, -7.1271814], [112.7220485, -7.1271839]], "type": "LineString"}, "id": 265398824, "properties": {"access:roof": "no", "amenity": "university", "building": "yes", "building:levels": "1", "building:roof": "tile", "building:structure": "reinforced_masonry", "building:walls": "brick", "capacity:persons": "300", "name": "Laboratorium Dasar"}, "type": "Feature"}, {"geometry": {"coordinates": [[112.7230174, -7.1297311], [112.7230462, -7.1297332], [112.7231788, -7.129743], [112.7231816, -7.1297062], [112.7232668, -7.1297124], [112.7232638, -7.1297517], [112.723387, -7.1297608], [112.7234447, -7.1297651], [112.7234356, -7.1298865], [112.7234013, -7.129884], [112.7233494, -7.1298802], [112.7230425, -7.1298575], [112.7230081, -7.129855], [112.7230174, -7.1297311]], "type": "LineString"}, "id": 265398825, "properties": {"access:roof": "yes", "amenity": "university", "building": "yes", "building:levels": "2", "building:roof": "tile", "building:structure": "reinforced_masonry", "building:walls": "brick", "capacity:persons": "300", "name": "Ruang Kuliah Bersama A"}, "type": "Feature"}, {"geometry": {"coordinates": [[112.723919, -7.1276597], [112.7240446, -7.1276672], [112.7240326, -7.1278666], [112.7239348, -7.1278608], [112.7239313, -7.1279188], [112.7240226, -7.1279242], [112.7240156, -7.1281575], [112.7238831, -7.12815], [112.7239056, -7.1277778], [112.7236259, -7.1277611], [112.7236339, -7.1276277], [112.7238495, -7.1276406], [112.7238442, -7.1277264], [112.7239147, -7.1277306], [112.723919, -7.1276597]], "type": "LineString"}, "id": 265398830, "properties": {"access:roof": "no", "amenity": "university", "building": "yes", "building:levels": "1", "building:roof": "tile", "building:structure": "reinforced_masonry", "building:walls": "brick", "capacity:persons": "500", "name": "Fakultas Hukum"}, "type": "Feature"}, {"geometry": {"coordinates": [[112.7232607, -7.1284644], [112.7234374, -7.1284756], [112.7234342, -7.1285248], [112.7234983, -7.1285288], [112.723497, -7.1285493], [112.7235197, -7.1285507], [112.7235143, -7.1286344], [112.7234902, -7.1286329], [112.723489, -7.1286518], [112.7231985, -7.1286333], [112.7232005, -7.128603], [112.723169, -7.128601], [112.7231744, -7.1285183], [112.7231928, -7.1285195], [112.7231945, -7.1284933], [112.7232586, -7.1284973], [112.7232607, -7.1284644]], "type": "LineString"}, "id": 265398832, "properties": {"access:roof": "no", "amenity": "university", "building": "yes", "building:levels": "2", "building:roof": "tile", "building:structure": "reinforced_masonry", "building:walls": "brick", "capacity:persons": "200", "name": "Gedung fakultas Teknik"}, "type": "Feature"}, {"geometry": {"coordinates": [[112.7236078, -7.1268115], [112.7237352, -7.126815], [112.7237323, -7.1269178], [112.7236049, -7.1269142], [112.7236078, -7.1268115]], "type": "LineString"}, "id": 265398833, "properties": {"access:roof": "no", "amenity": "university", "building": "yes", "building:levels": "1", "building:roof": "tin", "building:structure": "unreinforced_masonry", "building:walls": "brick", "capacity:persons": "3 bus", "name": "Parkir Bus Kampus"}, "type": "Feature"}, {"geometry": {"coordinates": [[112.722698, -7.1267165], [112.7227906, -7.1267203], [112.7227841, -7.1268753], [112.7226916, -7.1268715], [112.722698, -7.1267165]], "type": "LineString"}, "id": 265398835, "properties": {"access:roof": "no", "amenity": "university", "building": "yes", "building:levels": "1", "building:roof": "tile", "building:structure": "reinforced_masonry", "building:walls": "brick", "capacity:persons": "100", "name": "Fakultas Ilmu Sosial dan Budaya"}, "type": "Feature"}, {"geometry": {"coordinates": [[112.7227107, -7.1263692], [112.7227969, -7.1263717], [112.722792, -7.1265355], [112.7227058, -7.126533], [112.7227107, -7.1263692]], "type": "LineString"}, "id": 265398836, "properties": {"access:roof": "no", "amenity": "university", "building": "yes", "building:levels": "1", "building:roof": "tile", "building:structure": "reinforced_masonry", "building:walls": "brick", "capacity:persons": "50", "name": "sosiologi"}, "type": "Feature"}, {"geometry": {"coordinates": [[112.7218509, -7.1275365], [112.7218602, -7.1273194], [112.7219866, -7.1273247], [112.7219773, -7.1275419], [112.7218509, -7.1275365]], "type": "LineString"}, "id": 265398837, "properties": {"access:roof": "no", "amenity": "university", "building": "yes", "building:levels": "1", "building:roof": "tile", "building:structure": "reinforced_masonry", "building:walls": "brick", "capacity:persons": "100", "name": "Laboratorium Komputer dan KWU"}, "type": "Feature"}, {"geometry": {"coordinates": [[112.7224644, -7.1258748], [112.7228141, -7.125882], [112.7228105, -7.1260568], [112.7224608, -7.1260497], [112.7224644, -7.1258748]], "type": "LineString"}, "id": 265398840, "properties": {"access:roof": "no", "amenity": "university", "building": "yes", "building:levels": "2", "building:roof": "tile", "building:structure": "reinforced_masonry", "building:walls": "brick", "capacity:persons": "200", "name": "auditorium"}, "type": "Feature"}, {"geometry": {"coordinates": [[112.7237948, -7.1259252], [112.7239128, -7.1259227], [112.7239167, -7.1261067], [112.7237988, -7.1261092], [112.7237948, -7.1259252]], "type": "LineString"}, "id": 265398841, "properties": {"access:roof": "no", "amenity": "university", "building": "yes", "building:levels": "1", "building:roof": "tile", "building:structure": "reinforced_masonry", "building:walls": "brick", "capacity:persons": "100", "name": "Gedung Sekber UKM"}, "type": "Feature"}, {"geometry": {"coordinates": [[112.7234429, -7.1262847], [112.7236294, -7.1263791], [112.7235314, -7.1265698], [112.7233449, -7.1264755], [112.7234429, -7.1262847]], "type": "LineString"}, "id": 265398842, "properties": {"access:roof": "no", "amenity": "university", "building": "yes", "building:levels": "1", "building:roof": "tile", "building:structure": "reinforced_masonry", "building:walls": "brick", "capacity:persons": "1000", "name": "Masjid Nurur Rahman"}, "type": "Feature"}, {"geometry": {"coordinates": [[112.7227208, -7.1265705], [112.7228463, -7.1265655], [112.7228513, -7.1266876], [112.7227258, -7.1266927], [112.7227208, -7.1265705]], "type": "LineString"}, "id": 265398843, "properties": {"access:roof": "no", "amenity": "university", "building": "yes", "building:levels": "1", "building:roof": "tile", "building:structure": "reinforced_masonry", "building:walls": "brick", "capacity:persons": "100", "name": "fakultas ilmu sosial dan budaya"}, "type": "Feature"}, {"geometry": {"coordinates": [[112.7223944, -7.1273123], [112.7225164, -7.1273177], [112.7225051, -7.1275725], [112.7223831, -7.1275672], [112.7223944, -7.1273123]], "type": "LineString"}, "id": 265398845, "properties": {"access:roof": "no", "amenity": "university", "building": "yes", "building:levels": "2", "building:roof": "tin", "building:structure": "reinforced_masonry", "building:walls": "brick", "capacity:persons": "500", "name": "Fakultas Pertanian dan Ruang Dosen"}, "type": "Feature"}, {"geometry": {"coordinates": [[112.7228539, -7.1282596], [112.7230257, -7.1281085], [112.7230957, -7.1281867], [112.7229238, -7.1283379], [112.7228539, -7.1282596]], "type": "LineString"}, "id": 265398846, "properties": {"access:roof": "no", "amenity": "university", "building": "yes", "building:levels": "1", "building:roof": "tile", "building:structure": "reinforced_masonry", "building:walls": "brick", "capacity:persons": "40", "name": "Ruang Baca Fakultas ekonomi"}, "type": "Feature"}, {"geometry": {"coordinates": [[112.7235487, -7.127215], [112.7237947, -7.1272238], [112.7237872, -7.1274307], [112.7235412, -7.1274219], [112.7235487, -7.127215]], "type": "LineString"}, "id": 265398850, "properties": {"access:roof": "no", "amenity": "university", "building": "yes", "building:levels": "1", "building:roof": "tile", "building:structure": "reinforced_masonry", "building:walls": "brick", "capacity:persons": "200", "name": "GSC"}, "type": "Feature"}, {"geometry": {"coordinates": [[112.7221972, -7.1277536], [112.7223717, -7.1275928], [112.7224417, -7.1276675], [112.7222671, -7.1278284], [112.7221972, -7.1277536]], "type": "LineString"}, "id": 265398851, "properties": {"access:roof": "no", "amenity": "university", "building": "yes", "building:levels": "1", "building:roof": "tile", "building:structure": "reinforced_masonry", "building:walls": "brick", "capacity:persons": "200", "name": "Laboratorium Ilmu Kelautan dan TIP"}, "type": "Feature"}, {"geometry": {"coordinates": [[112.7229518, -7.1271341], [112.7232536, -7.1271392], [112.7232485, -7.1274443], [112.7229467, -7.1274392], [112.7229518, -7.1271341]], "type": "LineString"}, "id": 265398855, "properties": {"access:roof": "no", "amenity": "university", "building": "yes", "building:levels": "2", "building:roof": "tile", "building:structure": "reinforced_masonry", "building:walls": "brick", "capacity:persons": "1000", "name": "Perpustakaan Lama"}, "type": "Feature"}, {"geometry": {"coordinates": [[112.7234626, -7.1258598], [112.7236655, -7.1258636], [112.7236616, -7.1260683], [112.7234587, -7.1260646], [112.7234626, -7.1258598]], "type": "LineString"}, "id": 265398877, "properties": {"access:roof": "no", "amenity": "university", "building": "yes", "building:levels": "4-7", "building:roof": "tile", "building:structure": "reinforced_masonry", "building:walls": "brick", "capacity:persons": "1000", "name": "Gedung Soft Skill"}, "type": "Feature"}, {"geometry": {"coordinates": [[112.7235204, -7.129765], [112.7236801, -7.129778], [112.7236827, -7.1297461], [112.7237852, -7.1297544], [112.7237823, -7.1297894], [112.7239674, -7.1298044], [112.7239575, -7.1299255], [112.7235101, -7.1298893], [112.7235204, -7.129765]], "type": "LineString"}, "id": 265398882, "properties": {"access:roof": "no", "addr:full": "Jln raya telang", "amenity": "university", "building": "yes", "building:levels": "3", "building:roof": "tile", "building:structure": "reinforced_masonry", "building:walls": "brick", "capacity:persons": "450", "name": "Ruang Kuliah Bersama B"}, "type": "Feature"}, {"geometry": {"coordinates": [[112.7236598, -7.1285487], [112.7240955, -7.128584], [112.7240851, -7.1287106], [112.723901, -7.1286957], [112.7238978, -7.1287347], [112.7238294, -7.1287292], [112.7238326, -7.128691], [112.7236493, -7.1286761], [112.7236598, -7.1285487]], "type": "LineString"}, "id": 265398885, "properties": {"access:roof": "no", "amenity": "university", "building": "yes", "building:levels": "3", "building:roof": "tile", "building:structure": "reinforced_masonry", "building:walls": "brick", "capacity:persons": "500", "name": "Gedung RKB - C"}, "type": "Feature"}, {"geometry": {"coordinates": [[112.7442597, -7.2810431], [112.7442294, -7.2814832], [112.7441997, -7.2819217], [112.7447542, -7.2820383], [112.7447738, -7.28199], [112.7448292, -7.281996], [112.7448467, -7.2818989], [112.7449124, -7.2820186], [112.7455871, -7.2817581], [112.7451501, -7.2810748], [112.7446804, -7.2810389], [112.744679, -7.2808925], [112.7444926, -7.2808885], [112.7444875, -7.2810523], [112.7442597, -7.2810431]], "type": "LineString"}, "id": 279576575, "properties": {"access:roof": "no", "addr:city": "Keputran, Tegal Sari, Surabaya", "addr:full": "Jalan Dinoyo", "addr:postcode": "60261", "addr:street": "Jl. Dinoyo 42-44", "amenity": "university", "backup_generator": "no", "building": "university", "building:condition": "good", "building:levels": "6", "building:roof": "tile", "building:structure": "confined_masonry", "building:walls": "brick", "buildings:floor": "ceramics", "name": "Universitas Katolik Widya Mandala Surabaya", "operator:type": "private"}, "type": "Feature"}, {"geometry": {"coordinates": [[112.7957741, -7.2805604], [112.7962307, -7.2805622], [112.7962387, -7.2807431], [112.7957693, -7.280736], [112.7957741, -7.2805604]], "type": "LineString"}, "id": 307095748, "properties": {"access:roof": "no", "addr:full": "ITS Surabaya", "amenity": "university", "building": "yes", "building:levels": "3", "building:roof": "tile", "building:structure": "reinforced_masonry", "building:walls": "brick", "name": "Gedung Laboratorium Energi"}, "type": "Feature"}, {"geometry": {"coordinates": [[112.7961085, -7.280781], [112.7962628, -7.2807846], [112.7962586, -7.2809672], [112.7961043, -7.2809636], [112.7961085, -7.280781]], "type": "LineString"}, "id": 307095885, "properties": {"access:roof": "no", "addr:full": "ITS SUrabaya", "amenity": "university", "building": "yes", "building:levels": "3", "building:roof": "tile", "building:structure": "reinforced_masonry", "building:walls": "brick", "name": "LPPM ITS"}, "type": "Feature"}, {"geometry": {"coordinates": [[112.7217272, -7.1257978], [112.721852, -7.1258292], [112.7218244, -7.125937], [112.7216997, -7.1259057], [112.7217272, -7.1257978]], "type": "LineString"}, "id": 308341955, "properties": {"access:roof": "no", "amenity": "university", "building:roof": "tile", "building:structure": "reinforced_masonry", "building:walls": "brick", "capacity:persons": "50", "name": "LPPM"}, "type": "Feature"}, {"geometry": {"coordinates": [[112.7945996, -7.2755506], [112.7909117, -7.2763581], [112.7906675, -7.2764353], [112.7904658, -7.2765406], [112.7902888, -7.2766846], [112.7901933, -7.2768425], [112.7901579, -7.2770356], [112.7901589, -7.2772018], [112.7902621, -7.2782638], [112.7903422, -7.2788934], [112.7904716, -7.2788888], [112.7906103, -7.2789102], [112.7907073, -7.2789774], [112.7908075, -7.2790951], [112.7908814, -7.279225], [112.7908922, -7.2793732], [112.7908229, -7.2796193], [112.7907211, -7.2797235], [112.790313, -7.27993], [112.7904256, -7.2804408], [112.7901574, -7.2835058], [112.7897542, -7.2870908], [112.789696, -7.2876084], [112.7894332, -7.2903913], [112.7924629, -7.2906812], [112.796647, -7.2902045], [112.7974666, -7.2899539], [112.7974419, -7.2895138], [112.7975898, -7.2884502], [112.7979041, -7.28713], [112.7988469, -7.2871972], [112.7995432, -7.28746], [112.7996664, -7.2867327], [112.7999807, -7.2856019], [112.8000058, -7.2855611], [112.800262, -7.2851453], [112.8004552, -7.2848317], [112.8010311, -7.2835963], [112.8009506, -7.2834207], [112.8009452, -7.2832504], [112.801251, -7.282846], [112.80131, -7.2824895], [112.8013857, -7.2817755], [112.8014226, -7.2806631], [112.8012378, -7.2800396], [112.7998883, -7.2799968], [112.799081, -7.2792572], [112.7989085, -7.2785176], [112.799346, -7.2785054], [112.7993398, -7.2781753], [112.7991303, -7.2776252], [112.7989701, -7.2773685], [112.7983601, -7.2770201], [112.7980889, -7.2769067], [112.7964745, -7.2762316], [112.7964806, -7.2758465], [112.7953961, -7.275388], [112.7945996, -7.2755506]], "type": "LineString"}, "id": 314745210, "properties": {"addr:city": "Surabaya", "addr:street": "Jalan Raya Kertajaya Indah", "amenity": "university", "name": "Institut Teknologi Sepuluh Nopember", "operator": "Kementerian Riset, Teknologi, dan Pendidikan Tinggi"}, "type": "Feature"}, {"geometry": {"coordinates": [[112.6306701, -7.2859819], [112.6306783, -7.2861649], [112.6307439, -7.2862381], [112.6308628, -7.2862829], [112.6321172, -7.2863982], [112.6322686, -7.2856857], [112.6323902, -7.2851985], [112.6321791, -7.2851806], [112.6319454, -7.285148], [112.631516, -7.2849328], [112.6315066, -7.2844077], [112.6307029, -7.2844199], [112.6307029, -7.285144], [112.6306701, -7.2859819]], "type": "LineString"}, "id": 344100871, "properties": {"amenity": "university", "name": "Universitas Ciputra"}, "type": "Feature"}, {"geometry": {"coordinates": [[112.6309708, -7.2854193], [112.6318484, -7.2855739], [112.6318184, -7.2857413], [112.6314707, -7.2856801], [112.6314324, -7.2859249], [112.6312384, -7.2858907], [112.6312767, -7.2856459], [112.6309409, -7.2855868], [112.6309708, -7.2854193]], "type": "LineString"}, "id": 344100879, "properties": {"access:roof": "yes", "amenity": "university", "backup_generator": "yes", "building": "university", "building:condition": "good", "building:levels": "8", "building:roof": "concrete", "building:structure": "confined_masonry", "building:walls": "concrete", "buildings:floor": "ceramics", "capacity": ">500", "name": "Universitas Ciputra", "operator:type": "private"}, "type": "Feature"}, {"geometry": {"coordinates": [[112.6654211, -7.3016561], [112.6651739, -7.3027547], [112.6706634, -7.302816], [112.6710473, -7.3028379], [112.6712591, -7.3029079], [112.671921, -7.3029954], [112.6715062, -7.3043129], [112.6726275, -7.3045903], [112.6734522, -7.3047943], [112.6741362, -7.3048425], [112.6742156, -7.3039146], [112.6743304, -7.3036432], [112.6748342, -7.3028069], [112.6749526, -7.3026103], [112.6751158, -7.3023039], [112.6755057, -7.301381], [112.67554, -7.3012448], [112.6755337, -7.3010312], [112.6754433, -7.3004548], [112.6753434, -7.2998173], [112.6752993, -7.2988806], [112.6749816, -7.2988369], [112.6740372, -7.2985524], [112.6684639, -7.2985436], [112.6679212, -7.2987055], [112.6676646, -7.2988172], [112.6663855, -7.3001937], [112.665931, -7.3016688], [112.6658119, -7.3017563], [112.6654211, -7.3016561]], "type": "LineString"}, "id": 344131999, "properties": {"amenity": "university", "name": "Universitas Negeri Surabaya", "website": "https://www.unesa.ac.id/"}, "type": "Feature"}, {"geometry": {"coordinates": [[112.7452843, -7.2761843], [112.7454166, -7.2762058], [112.7453755, -7.2764543], [112.7452432, -7.2764328], [112.7452843, -7.2761843]], "type": "LineString"}, "id": 429077898, "properties": {"addr:street": "Jl. Sulawesi No.1", "amenity": "university", "building": "yes", "building:levels": "4", "building:roof": "concrete", "building:structure": "reinforced_masonry", "building:use": "commercial", "building:walls": "brick", "name": "Universitas Al-Falah", "phone": "031-5031401", "website": "www.alfalahsby.com"}, "type": "Feature"}, {"geometry": {"coordinates": [[112.7456316, -7.2761843], [112.7457863, -7.2762248], [112.7457589, -7.2763278], [112.7456946, -7.276311], [112.7456879, -7.2763359], [112.7455976, -7.2763123], [112.7456316, -7.2761843]], "type": "LineString"}, "id": 429077945, "properties": {"addr:street": "Jl. Sulawesi No.1", "amenity": "university", "building": "yes", "name": "Universitas Al-Falah Surabaya", "phone": "031-5031401", "website": "www.alfalahsby.com"}, "type": "Feature"}, {"geometry": {"coordinates": [[112.7744055, -7.2606866], [112.7745062, -7.2604928], [112.7724314, -7.259078], [112.7717589, -7.2595928], [112.7724841, -7.2601742], [112.7732384, -7.260794], [112.7734752, -7.2604726], [112.7736983, -7.2601606], [112.7744055, -7.2606866]], "type": "LineString"}, "id": 432849700, "properties": {"amenity": "university", "name": "Universitas Katolik Widya Mandala"}, "type": "Feature"}, {"geometry": {"coordinates": [[112.7623457, -7.3006788], [112.762324, -7.3007816], [112.7626136, -7.3008417], [112.7626352, -7.3007388], [112.7623457, -7.3006788]], "type": "LineString"}, "id": 447347929, "properties": {"access:roof": "yes", "addr:full": "Jalan Raya Nginden 19 - 23", "amenity": "university", "backup_generator": "no", "building": "university", "building:condition": "good", "building:floor": "ceramics", "building:levels": "2", "building:roof": "tile", "building:structure": "confined_masonry", "building:walls": "concrete", "capacity": "100-250", "name": "Universitas Kartini Surabaya", "operator:type": "private"}, "type": "Feature"}, {"geometry": {"coordinates": [[112.7839809, -7.2901935], [112.7841285, -7.2901988], [112.7841217, -7.2903832], [112.7839742, -7.2903779], [112.7839809, -7.2901935]], "type": "LineString"}, "id": 448097625, "properties": {"access:roof": "no", "addr:full": "Jalan Arief Rachman Hakim No.14", "amenity": "university", "backup_generator": "no", "building": "university", "building:condition": "good", "building:levels": "4", "building:roof": "tile", "building:structure": "confined_masonry", "building:walls": "brick", "buildings:floor": "ceramics", "capacity": "250-500", "name": "Universitas WR Supratman", "operator:type": "private"}, "type": "Feature"}, {"geometry": {"coordinates": [[112.789384, -7.260726], [112.7897397, -7.2605666], [112.7896836, -7.2604434], [112.7894483, -7.2605488], [112.7894665, -7.2605888], [112.7893461, -7.2606427], [112.789384, -7.260726]], "type": "LineString"}, "id": 448243907, "properties": {"access:roof": "no", "addr:full": "Jalan Sutprejo no 73-73", "amenity": "university", "backup_generator": "yes", "building": "school", "building:condition": "good", "building:levels": "4", "building:roof": "tile", "building:structure": "confined_masonry", "building:walls": "concrete", "buildings:floor": "ceramics", "capacity": "250-500", "name": "Gedung Dakwah Universitas Muhammadiyah Surabaya", "operator:type": "private"}, "type": "Feature"}, {"geometry": {"coordinates": [[112.7355679, -7.269156], [112.735533, -7.2692864], [112.7356765, -7.2693183], [112.7356993, -7.2691852], [112.7355679, -7.269156]], "type": "LineString"}, "id": 448480234, "properties": {"addr:street": "Jl. Mawar 31 \u2013 33", "amenity": "university", "building": "yes", "description": "salah satu kampus swasta di surabaya", "name": "Sekolah Tinggi Teknologi Dan Kejuruan (STIK)", "phone": "031-5342917"}, "type": "Feature"}, {"geometry": {"coordinates": [[112.7625052, -7.3003183], [112.762296, -7.3002212], [112.7623268, -7.2998714], [112.7623094, -7.2998567], [112.7623107, -7.2997889], [112.7622705, -7.2997876], [112.7622852, -7.2995641], [112.7624851, -7.2995907], [112.7624837, -7.2996173], [112.7625709, -7.2996333], [112.7625052, -7.3003183]], "type": "LineString"}, "id": 449322778, "properties": {"addr:street": "Jl. Raya Nginden 19-23", "amenity": "university", "building": "yes", "description": "salah satu kampus swasta di surabaya", "name": "Universitas Kartini", "phone": "031-5944462"}, "type": "Feature"}, {"geometry": {"coordinates": [[112.755624, -7.2657843], [112.7554683, -7.2656997], [112.7555209, -7.2656045], [112.7557129, -7.265709], [112.7557099, -7.2657143], [112.7557542, -7.2657384], [112.7555597, -7.2660903], [112.7557182, -7.2661765], [112.7556775, -7.2662501], [112.7554392, -7.2661205], [112.7554451, -7.2661098], [112.7554444, -7.2661094], [112.755624, -7.2657843]], "type": "LineString"}, "id": 449624586, "properties": {"access:roof": "no", "addr:full": "jalan mayjen prof.Dr.Moestopo no 4", "amenity": "university", "backup_generator": "no", "building": "university", "building:condition": "good", "building:floor": "ceramics", "building:levels": "1", "building:roof": "tile", "building:structure": "confined_masonry", "building:walls": "brick", "capacity": ">500", "name": "Pusat Bahasa Mandarin UNESA", "operator:type": "government"}, "type": "Feature"}, {"geometry": {"coordinates": [[112.7619107, -7.2800581], [112.7621347, -7.2800861], [112.7621266, -7.2803016], [112.762026, -7.2802896], [112.7620328, -7.2801712], [112.7619027, -7.2801513], [112.7619107, -7.2800581]], "type": "LineString"}, "id": 450537998, "properties": {"addr:street": "Jl. Menur No.2", "amenity": "university", "description": "salah satu kampus swasta di surabaya", "name": "Sekolah Tinggi Ilmu Ekonomi Pariwisata Satya Widya", "phone": "031-5030975"}, "type": "Feature"}, {"geometry": {"coordinates": [[112.7422886, -7.2737871], [112.7424341, -7.273823], [112.7423892, -7.2740022], [112.7422437, -7.2739663], [112.7422886, -7.2737871]], "type": "LineString"}, "id": 451295392, "properties": {"access:roof": "no", "addr:full": "Jalan Urip Sumoharjo", "amenity": "university", "backup_generator": "yes", "building": "university", "building:condition": "good", "building:floor": "ceramics", "building:levels": "2", "building:roof": "tile", "building:structure": "confined_masonry", "building:walls": "brick", "capacity": "250-500", "name": "STIE Urip Sumoharjo", "operator:type": "private"}, "type": "Feature"}, {"geometry": {"coordinates": [[112.7052758, -7.2765606], [112.7052674, -7.2766781], [112.7049312, -7.2766544], [112.7049269, -7.27674], [112.7050242, -7.2768544], [112.7049526, -7.2769144], [112.7048292, -7.2767694], [112.7048413, -7.27653], [112.7052758, -7.2765606]], "type": "LineString"}, "id": 451656294, "properties": {"access:roof": "no", "addr:full": "jalan raya kupang", "amenity": "university", "building": "university", "building:condition": "good", "building:levels": "2", "building:roof": "tile", "building:structure": "confined_masonry", "building:walls": "brick", "capacity": "100-250", "name": "IMBT School Management", "operator:type": "private"}, "type": "Feature"}, {"geometry": {"coordinates": [[112.7107211, -7.2817912], [112.7108715, -7.2818385], [112.7107985, -7.2820668], [112.7110243, -7.2821379], [112.7110988, -7.281905], [112.7112569, -7.2819547], [112.711183, -7.2821858], [112.7111448, -7.2823053], [112.7106561, -7.2821515], [112.7106791, -7.2820794], [112.7106336, -7.282065], [112.7107211, -7.2817912]], "type": "LineString"}, "id": 451664230, "properties": {"access:roof": "no", "addr:full": "Jalan Dukuh Kupang XXV", "amenity": "university", "backup_generator": "yes", "building": "university", "building:condition": "good", "building:floor": "ceramics", "building:levels": "2", "building:roof": "tile", "building:structure": "confined_masonry", "building:walls": "brick", "capacity": "250-500", "name": "Fakultas Kedokteran Hewan Universitas Wijaya Kusuma", "operator:type": "private"}, "type": "Feature"}, {"geometry": {"coordinates": [[112.7107094, -7.2825708], [112.7107578, -7.2824113], [112.7110877, -7.2825098], [112.7110767, -7.2825461], [112.7111516, -7.2825684], [112.711055, -7.282887], [112.7108083, -7.2828134], [112.7107833, -7.2829046], [112.7107188, -7.2828853], [112.7107293, -7.2828508], [112.7106609, -7.2828302], [112.7106491, -7.2828692], [112.7105758, -7.2828472], [112.71065, -7.2825531], [112.7107094, -7.2825708]], "type": "LineString"}, "id": 451664239, "properties": {"access:roof": "no", "addr:full": "Jalan Dukuh Kupang XXV No. 54", "amenity": "university", "backup_generator": "yes", "building": "university", "building:condition": "good", "building:floor": "ceramics", "building:levels": "7", "building:roof": "tile", "building:structure": "confined_masonry", "building:walls": "brick", "capacity": ">500", "name": "Fakultas Kedokteran Universitas Wijaya Kusuma", "operator:type": "private"}, "type": "Feature"}, {"geometry": {"coordinates": [[112.7103715, -7.2826614], [112.7105297, -7.2821452], [112.710732, -7.2822063], [112.7105738, -7.2827224], [112.7103715, -7.2826614]], "type": "LineString"}, "id": 451664278, "properties": {"access:roof": "no", "addr:full": "Jalan Dukuh Kupang XXV No. 54", "amenity": "university", "backup_generator": "no", "building": "university", "building:condition": "good", "building:floor": "ceramics", "building:levels": "2", "building:roof": "tile", "building:structure": "confined_masonry", "building:walls": "brick", "capacity": "100-250", "name": "Fakultas Pertanian UWK", "operator:type": "private"}, "type": "Feature"}, {"geometry": {"coordinates": [[112.7117039, -7.2818707], [112.7117332, -7.2817703], [112.7118146, -7.2817937], [112.7118632, -7.2816359], [112.7121462, -7.2817143], [112.7121247, -7.2817777], [112.7122451, -7.281712], [112.7123034, -7.2818029], [112.7123121, -7.281771], [112.7125146, -7.2818256], [112.7124892, -7.2819184], [112.7126805, -7.2819774], [112.7124817, -7.2826108], [112.7125034, -7.2826167], [112.7124582, -7.2827723], [112.7121979, -7.2826924], [112.7122378, -7.2825449], [112.7122703, -7.2825537], [112.7124465, -7.2819924], [112.7122649, -7.2819435], [112.7122729, -7.2819145], [112.7121812, -7.2819548], [112.7121089, -7.2818245], [112.7120873, -7.2818883], [112.7119284, -7.2818458], [112.7119209, -7.2818716], [112.7120491, -7.281908], [112.711919, -7.2823577], [112.7117898, -7.2823209], [112.7117824, -7.2823464], [112.711582, -7.2822889], [112.7116038, -7.2822139], [112.7115878, -7.2822095], [112.7116897, -7.2818663], [112.7117039, -7.2818707]], "type": "LineString"}, "id": 451670387, "properties": {"access:roof": "no", "addr:full": "Jalan Dukuh Kupang XXV", "amenity": "university", "backup_generator": "yes", "building": "university", "building:condition": "good", "building:floor": "ceramics", "building:levels": "2", "building:roof": "tile", "building:structure": "confined_masonry", "building:walls": "concrete", "capacity": "250-500", "description": "salah satu kampus swasta di surabaya", "name": "Universitas Wijaya Kusuma", "operator:type": "private", "phone": "031-5677477", "website": "http://www.wijayakusumasby.ac.id"}, "type": "Feature"}, {"geometry": {"coordinates": [[112.7345095, -7.2928176], [112.7345271, -7.2928009], [112.7344973, -7.2927699], [112.7345935, -7.2926789], [112.7349618, -7.2930616], [112.7348671, -7.2931513], [112.7346623, -7.2929386], [112.7346433, -7.2929566], [112.7345095, -7.2928176]], "type": "LineString"}, "id": 452033377, "properties": {"access:roof": "yes", "addr:full": "Jalan Jambi 12 - 18", "amenity": "university", "backup_generator": "yes", "building": "college", "building:levels": "7", "building:roof": "tile", "building:structure": "confined_masonry", "building:walls": "brick", "buildings:floor": "ceramics", "capacity": "250-500", "name": "Stikes Katolik St. Vincentius A Paulo ( RKZ )", "operator:type": "private"}, "type": "Feature"}, {"geometry": {"coordinates": [[112.7087021, -7.2876797], [112.7089279, -7.287736], [112.7089086, -7.2878121], [112.7086828, -7.2877558], [112.7087021, -7.2876797]], "type": "LineString"}, "id": 453446719, "properties": {"addr:street": "Jl. Dukuh Kupang Barat I/216-218", "amenity": "university", "building": "yes", "description": "salah satu kampus swasta di surabaya", "name": "Universitas Yos Soedarso", "phone": "031-5689806", "website": "www.uniyos.ac.id"}, "type": "Feature"}, {"geometry": {"coordinates": [[112.70823, -7.2882025], [112.7084136, -7.2882515], [112.7083641, -7.288434], [112.7081805, -7.2883849], [112.70823, -7.2882025]], "type": "LineString"}, "id": 453446786, "properties": {"access:roof": "no", "addr:full": "Jalan Mayjend Sungkono", "amenity": "university", "backup_generator": "yes", "building": "university", "building:condition": "good", "building:floor": "ceramics", "building:levels": "2", "building:roof": "concrete", "building:structure": "confined_masonry", "building:walls": "brick", "capacity": "100-250", "name": "The Sages Institute", "operator:type": "private"}, "type": "Feature"}, {"geometry": {"coordinates": [[112.7225206, -7.343931], [112.7226836, -7.3439802], [112.722524, -7.3445002], [112.722361, -7.344451], [112.7225206, -7.343931]], "type": "LineString"}, "id": 453936574, "properties": {"access:roof": "no", "addr:full": "Jalan Dukuh Menanggal XII", "amenity": "university", "backup_generator": "no", "building": "university", "building:condition": "good", "building:floor": "ceramics", "building:levels": "4", "building:roof": "tile", "building:structure": "confined_masonry", "building:walls": "concrete", "capacity": "100-250", "name": "Universitas PGRI Adibuana", "operator:type": "private"}, "type": "Feature"}, {"geometry": {"coordinates": [[112.697648, -7.2748971], [112.6976163, -7.2752264], [112.6979176, -7.275255], [112.6979493, -7.2749257], [112.697648, -7.2748971]], "type": "LineString"}, "id": 455039563, "properties": {"addr:full": "Jalan Patimura", "amenity": "university", "building": "university", "building:condition": "good", "building:levels": "6", "building:roof": "asbentos", "building:structure": "confined_masonry", "building:walls": "brick", "buildings:floor": "ceramics", "capacity": "250-500", "name": "Institute IKAIDO", "operator:type": "private"}, "type": "Feature"}, {"geometry": {"coordinates": [[112.747418, -7.3206846], [112.747507, -7.3206373], [112.747625, -7.3208554], [112.747536, -7.3209028], [112.747418, -7.3206846]], "type": "LineString"}, "id": 456524776, "properties": {"access:roof": "no", "addr:full": "Jalan Raya Kendangsari 109", "amenity": "university", "backup_generator": "no", "building": "university", "building:condition": "good", "building:levels": "2", "building:roof": "tile", "building:structure": "confined_masonry", "building:walls": "brick", "buildings:floor": "ceramics", "capacity": "<50", "name": "Politeknik Surabaya", "operator:type": "private"}, "type": "Feature"}, {"geometry": {"coordinates": [[112.7294574, -7.2395968], [112.7295646, -7.2395569], [112.729661, -7.2398118], [112.7295537, -7.2398517], [112.7294574, -7.2395968]], "type": "LineString"}, "id": 457123354, "properties": {"access:roof": "no", "addr:full": "Jalam Parang Kusumo", "amenity": "university", "backup_generator": "no", "building": "university", "building:condition": "good", "building:floor": "ceramics", "building:levels": "2", "building:roof": "asbentos", "building:structure": "confined_masonry", "building:walls": "brick", "capacity:persons": "100-250", "name": "Akademi Akupuntur Surabaya", "operator:type": "private"}, "type": "Feature"}, {"geometry": {"coordinates": [[112.7091514, -7.2852542], [112.7094457, -7.2853262], [112.7094546, -7.2852904], [112.7095554, -7.2853151], [112.7095397, -7.2853785], [112.7094567, -7.2853582], [112.7094267, -7.2854788], [112.7091146, -7.2854024], [112.7091514, -7.2852542]], "type": "LineString"}, "id": 459976942, "properties": {"access:roof": "no", "addr:full": "Jalan Dukuh Kupang Barat I No 216-218", "amenity": "university", "backup_generator": "no", "building": "university", "building:condition": "good", "building:floor": "ceramics", "building:levels": "2", "building:roof": "tile", "building:structure": "confined_masonry", "building:walls": "brick", "capacity": "100-250", "name": "Universitas Yos Sudarso", "operator:type": "private"}, "type": "Feature"}, {"geometry": {"coordinates": [[112.739052, -7.3226717], [112.7390386, -7.3228874], [112.7389782, -7.3230694], [112.7388548, -7.3230574], [112.738828, -7.3231266], [112.738651, -7.3228725], [112.7386765, -7.3228326], [112.7386577, -7.3227834], [112.7386953, -7.3227541], [112.7386698, -7.3227182], [112.7387033, -7.3226823], [112.7386885, -7.3226477], [112.7388039, -7.3226092], [112.739052, -7.3226717]], "type": "LineString"}, "id": 467392300, "properties": {"access:roof": "yes", "amenity": "university", "building": "university", "building:condition": "good", "building:levels": "9", "building:roof": "concrete", "building:structure": "confined_masonry", "building:walls": "concrete", "capacity": ">500", "name": "Universitas Nadhlatul Ulama surabaya"}, "type": "Feature"}, {"geometry": {"coordinates": [[112.7393737, -7.322142], [112.7395928, -7.3220108], [112.7398034, -7.3223566], [112.7395843, -7.3224878], [112.7393737, -7.322142]], "type": "LineString"}, "id": 469290623, "properties": {"addr:full": "Jalan RayaJemursari", "amenity": "university", "backup_generator": "no", "building": "university", "building:condition": "good", "building:levels": "2", "building:roof": "tile", "building:structure": "confined_masonry", "building:walls": "brick", "capacity": "250-500", "name": "Universitas Nadhlatul Ulama Surabaya Kampus B"}, "type": "Feature"}], "type": "FeatureCollection"}