{"features": [{"geometry": {"coordinates": [112.7928293, -7.2903509], "type": "Point"}, "id": 839668721, "properties": {"addr:street": "Jalan Arif Rahman Hakim", "amenity": "hospital", "name": "Medical Centre ITS"}, "type": "Feature"}, {"geometry": {"coordinates": [112.728626, -7.3627675], "type": "Point"}, "id": 1772619494, "properties": {"addr:city": "Sidoarjo", "amenity": "hospital", "name": "RS Mitra Keluarga"}, "type": "Feature"}, {"geometry": {"coordinates": [112.7282712, -7.3870658], "type": "Point"}, "id": 3268565055, "properties": {"amenity": "hospital", "emergency": "no", "name": "Puskesmas Gedangan"}, "type": "Feature"}, {"geometry": {"coordinates": [112.6556651, -7.1777757], "type": "Point"}, "id": 3492540632, "properties": {"amenity": "hospital"}, "type": "Feature"}, {"geometry": {"coordinates": [112.7798297, -7.2824751], "type": "Point"}, "id": 4189130140, "properties": {"addr:city": "Klampis Ngasem, Sukolilo, Surabaya", "addr:postcode": "60117", "addr:street": "Jl. Manyar Kertoadi", "amenity": "hospital", "name": "RSU Haji Surabaya"}, "type": "Feature"}, {"geometry": {"coordinates": [112.7267153, -7.4050624], "type": "Point"}, "id": 4189190497, "properties": {"addr:city": "Tebel, Gedangan, Kabupaten Sidoarjo, Jawa Timur, Indonesia", "addr:housenumber": "3", "addr:postcode": "61254", "addr:street": "Jl. Raya Tebel Barat", "amenity": "hospital", "name": "Klinik Bds Tebel"}, "type": "Feature"}, {"geometry": {"coordinates": [112.7178459, -7.3877756], "type": "Point"}, "id": 4189205726, "properties": {"addr:city": "Kec. Sidoarjo, Indonesia", "addr:postcode": "61234", "addr:street": "JL. Balai Desa", "amenity": "hospital", "name": "KLINIK DR. TITUT HARNANIK"}, "type": "Feature"}, {"geometry": {"coordinates": [112.7459488, -7.3221958], "type": "Point"}, "id": 4189210755, "properties": {"addr:city": "Jemur Wonosari, Wonocolo, Kota SBY, Jawa Timur, Indonesia", "addr:housenumber": "78", "addr:postcode": "60237", "addr:street": "Jl. Raya Kendangsari", "amenity": "hospital", "name": "Klinik Kencana Medika"}, "type": "Feature"}, {"geometry": {"coordinates": [112.7717059, -7.2880725], "type": "Point"}, "id": 4189218265, "properties": {"addr:city": "Surabaya", "addr:housenumber": "59", "addr:postcode": "60116", "addr:street": "Manyar Tirtomoyo 3", "amenity": "hospital", "name": "Kliknik Spesial Meridian"}, "type": "Feature"}, {"geometry": {"coordinates": [112.7539453, -7.2915096], "type": "Point"}, "id": 4191121402, "properties": {"addr:city": "Pucang Sewu, Surabaya, East Java", "addr:housenumber": "No.22", "addr:postcode": "60283", "addr:street": "Jl. Ngagel Jaya Tengah", "amenity": "hospital", "name": "Scoliosis Correction Clinic"}, "type": "Feature"}, {"geometry": {"coordinates": [112.735408, -7.2935426], "type": "Point"}, "id": 4191464390, "properties": {"addr:city": "Darmo, Wonokromo, Kota SBY, Jawa Timur, Indonesia", "addr:housenumber": "50", "addr:postcode": "60241", "addr:street": "Jl. Ciliwung", "amenity": "hospital", "name": "Medika Utama"}, "type": "Feature"}, {"geometry": {"coordinates": [112.7691756, -7.2870949], "type": "Point"}, "id": 4191486029, "properties": {"addr:city": "Surabaya", "addr:housenumber": "59/III", "addr:postcode": "60116", "addr:street": "JL. Manyar Tirtomoyo", "amenity": "hospital", "name": "Rehabilitasi Medik Meridian"}, "type": "Feature"}, {"geometry": {"coordinates": [112.7370004, -7.2819231], "type": "Point"}, "id": 4191508335, "properties": {"addr:city": "Dr. Sutomo, Surabaya, Surabaya City, East Java, Indonesia", "addr:housenumber": "40", "addr:postcode": "60264", "addr:street": "Jl. M H. Tamrin", "amenity": "hospital", "name": "Miracle Aesthetic Clinic Thamrin"}, "type": "Feature"}, {"geometry": {"coordinates": [112.7817642, -7.2801062], "type": "Point"}, "id": 4191509711, "properties": {"addr:city": "Surabaya City, East Java, Indonesia", "addr:housenumber": "123", "addr:postcode": "60282", "addr:street": "Jl. Raya Kertajaya Indah Blok O", "amenity": "hospital", "name": "Miracle Aesthetic Clinic Kertajaya Indah"}, "type": "Feature"}, {"geometry": {"coordinates": [112.7256699, -7.3258842], "type": "Point"}, "id": 4615571125, "properties": {"access:roof": "no", "addr:full": "Jalan Gayungan Kebonsari Timur B", "amenity": "hospital", "backup_generator": "yes", "building": "hospital", "building:condition": "good", "building:floor": "ceramics", "building:levels": "3", "building:roof": "tile", "building:structure": "confined_masonry", "building:walls": "concrete", "capacity": "100-250", "name": "RS Mata Masyarakat Jawa Timur", "operator:type": "government"}, "type": "Feature"}, {"geometry": {"coordinates": [112.672984, -7.3940264], "type": "Point"}, "id": 4673984279, "properties": {"amenity": "hospital", "name": "RSIA Arafah Anwar Medika Sukodono"}, "type": "Feature"}, {"geometry": {"coordinates": [112.6378821, -7.1453871], "type": "Point"}, "id": 4735501967, "properties": {"amenity": "hospital"}, "type": "Feature"}, {"geometry": {"coordinates": [[112.7891647, -7.2907307], [112.7894074, -7.2907299], [112.7894084, -7.2910422], [112.7891657, -7.2910429], [112.7891647, -7.2907307]], "type": "LineString"}, "id": 121862400, "properties": {"access:roof": "yes", "amenity": "hospital", "backup_generator": "yes", "building": "hospital", "building:condition": "good", "building:levels": "3", "building:roof": "concrete", "building:structure": "steel_frame", "building:use": "medical", "building:walls": "brick", "buildings:floor": "ceramics", "capacity": "100-250", "name": "Rumah Sakit Onkologi", "operator:type": "private"}, "type": "Feature"}, {"geometry": {"coordinates": [[112.7369271, -7.2660161], [112.7369648, -7.2659858], [112.7370263, -7.2660609], [112.7370631, -7.2660313], [112.7370822, -7.2660547], [112.7372, -7.2661916], [112.7371935, -7.266317], [112.7371683, -7.2663157], [112.7371675, -7.2663315], [112.7371286, -7.2663296], [112.7371295, -7.2663113], [112.7371086, -7.2663103], [112.737108, -7.2663219], [112.7370281, -7.266318], [112.7370287, -7.2663057], [112.7369957, -7.2663042], [112.7369975, -7.2662687], [112.7368901, -7.2661374], [112.7369722, -7.2660713], [112.7369271, -7.2660161]], "type": "LineString"}, "id": 185053556, "properties": {"access:roof": "no", "addr:city": "Surabaya", "addr:full": "TEGALSARI", "addr:postcode": "60261", "addr:street": "Jalan Tegalsari", "amenity": "hospital", "backup_generator": "yes", "building": "hospital", "building:condition": "good", "building:levels": "3", "building:roof": "concrete", "building:structure": "confined_masonry", "building:walls": "brick", "buildings:floor": "ceramics", "capacity": ">500", "capacity:persons": "500", "ele": "12", "name": "RSIA PUSURA", "operator:type": "private"}, "type": "Feature"}, {"geometry": {"coordinates": [[112.7795751, -7.2826146], [112.7797824, -7.2826412], [112.7799409, -7.2826558], [112.7801189, -7.2826872], [112.7801043, -7.2828565], [112.7799165, -7.2828323], [112.77988, -7.2828589], [112.7797605, -7.2828468], [112.779758, -7.2828154], [112.779541, -7.2827815], [112.7795751, -7.2826146]], "type": "LineString"}, "id": 194433170, "properties": {"access:roof": "yes", "amenity": "hospital", "building": "yes", "building:levels": "3", "building:roof": "tile", "building:structure": "reinforced_masonry", "building:walls": "brick", "name": "RS Haji", "operator:type": "government"}, "type": "Feature"}, {"geometry": {"coordinates": [[112.7228352, -7.2390612], [112.7229451, -7.239061], [112.7229452, -7.2391144], [112.7228433, -7.2391197], [112.7228352, -7.2390612]], "type": "LineString"}, "id": 228212232, "properties": {"amenity": "hospital", "emergency": "yes", "name": "RS Sehat"}, "type": "Feature"}, {"geometry": {"coordinates": [[112.7842555, -7.2699348], [112.7854407, -7.2700883], [112.7854529, -7.2699955], [112.7854681, -7.2699975], [112.7854767, -7.2699319], [112.7855245, -7.2699381], [112.7855462, -7.2697733], [112.7855605, -7.2697751], [112.7855879, -7.2695674], [112.7854206, -7.2695458], [112.7853931, -7.2697547], [112.7854066, -7.2697565], [112.7853953, -7.2698425], [112.7850916, -7.2698031], [112.7851021, -7.269723], [112.7850343, -7.2697142], [112.7849631, -7.269705], [112.7848797, -7.2696942], [112.7848166, -7.269686], [112.7848069, -7.2697595], [112.7845008, -7.2697198], [112.7845427, -7.2694016], [112.7845118, -7.2693976], [112.7845181, -7.2693498], [112.7843745, -7.2693312], [112.784369, -7.2693731], [112.7843301, -7.269368], [112.7842555, -7.2699348]], "type": "LineString"}, "id": 257897278, "properties": {"addr:city": "Surabaya", "addr:postcode": "60115", "addr:street": "Jalan Dharmahusada Indah Utara", "amenity": "hospital", "building": "hospital", "emergency": "yes", "name": "Rumah Sakit Universitas Airlangga", "phone": "+62315916290"}, "type": "Feature"}, {"geometry": {"coordinates": [[112.7651988, -7.3049136], [112.7652001, -7.3049932], [112.765066, -7.3049954], [112.7650646, -7.3049157], [112.7650318, -7.3049163], [112.7650285, -7.3047138], [112.7649653, -7.3047148], [112.76497, -7.3050031], [112.7650147, -7.3050024], [112.7650154, -7.3050423], [112.7649707, -7.305043], [112.7649725, -7.3051522], [112.7649157, -7.3051531], [112.7649164, -7.3051959], [112.7649178, -7.3052835], [112.7648789, -7.3052842], [112.7648414, -7.3052848], [112.7648424, -7.305347], [112.764724, -7.3054562], [112.7646587, -7.3054572], [112.7646559, -7.3052878], [112.7646544, -7.3052001], [112.7647198, -7.3051991], [112.7648775, -7.3051965], [112.7648768, -7.3051538], [112.7647184, -7.3051563], [112.7647051, -7.304347], [112.7649592, -7.3043429], [112.7649644, -7.304659], [112.7650275, -7.304658], [112.7650261, -7.3045683], [112.7650232, -7.3043965], [112.7650419, -7.3043962], [112.7650403, -7.3042977], [112.7651965, -7.3042951], [112.7651981, -7.3043937], [112.7655174, -7.3043885], [112.7655177, -7.3044088], [112.7656902, -7.304406], [112.7656911, -7.3044587], [112.7655186, -7.3044615], [112.7655202, -7.3045604], [112.7655033, -7.3045606], [112.7655045, -7.3046366], [112.7653892, -7.3047087], [112.7652952, -7.304799], [112.7651988, -7.3049136]], "type": "LineString"}, "id": 371514051, "properties": {"access:roof": "yes", "addr:full": "Jalan Nginden Intan Barat Blok B, Ngenden Jangkungan, Sukolilo", "addr:postcode": "60118", "addr:street": "Jalan Nginden Intan Barat", "amenity": "hospital", "backup_generator": "yes", "building": "hospital", "building:condition": "good", "building:levels": "3", "building:roof": "concrete", "building:structure": "confined_masonry", "building:walls": "concrete", "buildings:floor": "ceramics", "capacity": "250-500", "name": "Rs Premier Surabaya", "operator:type": "private"}, "type": "Feature"}, {"geometry": {"coordinates": [[112.6759212, -7.2988904], [112.6768486, -7.2991838], [112.6768332, -7.2992297], [112.6768732, -7.2992419], [112.6769194, -7.2996972], [112.6760075, -7.2994008], [112.6759736, -7.2991319], [112.6759304, -7.2991166], [112.6759212, -7.2988904]], "type": "LineString"}, "id": 446537097, "properties": {"access:roof": "yes", "addr:city": "Surabaya", "addr:housenumber": "1", "addr:postcode": "60227", "addr:street": "Jalan Lingkar Dalam Barat", "amenity": "hospital", "backup_generator": "yes", "building": "hospital", "building:condition": "good", "building:floor": "ceramics", "building:levels": "7", "building:roof": "concrete", "building:structure": "confined_masonry", "building:walls": "brick", "capacity": ">500", "email": "info@national-hospital.com", "name": "National Hospital", "operator:type": "private", "phone": "+62312975777", "website": "http://www.national-hospital.com/"}, "type": "Feature"}, {"geometry": {"coordinates": [[112.7516823, -7.2427591], [112.7519991, -7.2428708], [112.7521216, -7.242529], [112.7520139, -7.242491], [112.7519891, -7.2425602], [112.75178, -7.2424865], [112.7516823, -7.2427591]], "type": "LineString"}, "id": 447610406, "properties": {"access:roof": "yes", "addr:full": "Jalan Kapasari No. 97-101", "amenity": "hospital", "backup_generator": "yes", "building": "hospital", "building:condition": "good", "building:levels": "5", "building:roof": "concrete", "building:structure": "confined_masonry", "building:walls": "concrete", "buildings:floor": "ceramics", "capacity:persons": ">500", "name": "Rumah Sakit Adi Husada Kapasan", "operator:type": "government"}, "type": "Feature"}, {"geometry": {"coordinates": [[112.7414678, -7.289131], [112.7413141, -7.2890579], [112.7413064, -7.2890759], [112.7412471, -7.2890507], [112.7412064, -7.2891291], [112.7411814, -7.2891163], [112.741238, -7.2890071], [112.7412306, -7.289003], [112.7413566, -7.2887769], [112.7414247, -7.2888142], [112.7414215, -7.2888198], [112.7415766, -7.2889126], [112.7415707, -7.2889222], [112.7415887, -7.2889352], [112.7414678, -7.289131]], "type": "LineString"}, "id": 447615916, "properties": {"access:roof": "no", "addr:full": "Jalan Kapuas", "amenity": "hospital", "backup_generator": "yes", "building": "hospital", "building:condition": "average", "building:levels": "2", "building:roof": "tile", "building:structure": "confined_masonry", "building:walls": "brick", "buildings:floor": "ceramics", "capacity": ">500", "name": "Rumah Sakit Surabaya Medical Center", "operator:type": "private"}, "type": "Feature"}, {"geometry": {"coordinates": [[112.7825949, -7.2905306], [112.7827591, -7.290545], [112.7827542, -7.2905998], [112.782818, -7.2906055], [112.7828025, -7.290779], [112.7827778, -7.2907768], [112.7827429, -7.2911675], [112.7825733, -7.2911526], [112.7826136, -7.2907013], [112.7825799, -7.2906983], [112.7825949, -7.2905306]], "type": "LineString"}, "id": 448112158, "properties": {"access:roof": "no", "addr:full": "Jalan Arief Rahman Hakim No.212", "amenity": "hospital", "backup_generator": "yes", "building": "hospital", "building:condition": "good", "building:levels": "3", "building:roof": "tile", "building:structure": "confined_masonry", "building:walls": "brick", "buildings:floor": "ceramics", "capacity": "250-500", "name": "RS Ibu Anak Putri", "operator:type": "private"}, "type": "Feature"}, {"geometry": {"coordinates": [[112.7632308, -7.2897913], [112.7632067, -7.2898778], [112.7632241, -7.2899802], [112.7632684, -7.2900188], [112.7635808, -7.2900999], [112.7638813, -7.2901784], [112.7639201, -7.2900361], [112.7637096, -7.2899695], [112.7637163, -7.2899389], [112.7633488, -7.2898245], [112.7632308, -7.2897913]], "type": "LineString"}, "id": 448114210, "properties": {"access:roof": "yes", "addr:city": "Menur Pumpungan, Sukolilo, Surabaya, East Java", "addr:housenumber": "No.9", "addr:postcode": "60118", "addr:street": "Jl. Raya Manyar", "amenity": "hospital", "backup_generator": "yes", "building": "hospital", "building:condition": "good", "building:floor": "ceramics", "building:levels": "7", "building:roof": "concrete", "building:structure": "confined_masonry", "building:walls": "glass", "capacity": "100-250", "name": "Rumah Sakit Bedah Surabaya", "operator:type": "private"}, "type": "Feature"}, {"geometry": {"coordinates": [[112.7561252, -7.2644591], [112.7561566, -7.2643198], [112.7565335, -7.2644036], [112.7565031, -7.2645382], [112.7565267, -7.2645431], [112.7564402, -7.2649504], [112.7564484, -7.2649521], [112.7563809, -7.2652699], [112.7563415, -7.2652617], [112.7563242, -7.2653433], [112.7558481, -7.2652438], [112.7558678, -7.2651507], [112.7558498, -7.265147], [112.7559066, -7.2648793], [112.7559002, -7.2648779], [112.7559949, -7.2644319], [112.7561252, -7.2644591]], "type": "LineString"}, "id": 449624602, "properties": {"access:roof": "yes", "addr:full": "jalan mayjen prof.Dr.Moestopo", "amenity": "hospital", "backup_generator": "yes", "building": "hospital", "building:condition": "good", "building:levels": "7", "building:roof": "concrete", "building:structure": "steel_frame", "building:walls": "glass", "buildings:floor": "ceramics", "capacity": ">500", "name": "R.S. Spesialis Husada Utama", "operator:type": "private"}, "type": "Feature"}, {"geometry": {"coordinates": [[112.7528012, -7.2830447], [112.7529502, -7.2830446], [112.7529503, -7.2831713], [112.7528013, -7.2831714], [112.7528012, -7.2830447]], "type": "LineString"}, "id": 449903849, "properties": {"addr:city": "Kertajaya, Gubeng, Surabaya, East Java", "addr:housenumber": "No. 12-14", "addr:postcode": "60282", "addr:street": "JL. Pucang Adi", "amenity": "hospital", "building": "yes", "name": "Rumah Sakit Pura Raharja"}, "type": "Feature"}, {"geometry": {"coordinates": [[112.7846843, -7.2522668], [112.7842766, -7.2520167], [112.7853498, -7.2502952], [112.7857897, -7.2503909], [112.7846843, -7.2522668]], "type": "LineString"}, "id": 450714496, "properties": {"access:roof": "yes", "addr:full": "Jalan Kenjeran Nomer 506", "amenity": "hospital", "backup_generator": "yes", "building": "hospital", "building:condition": "good", "building:floor": "ceramics", "building:levels": "14", "building:roof": "concrete", "building:structure": "confined_masonry", "building:walls": "brick", "capacity:persons": ">500", "name": "Rumah Sakit Mitra Keluarga", "operator:type": "private"}, "type": "Feature"}, {"geometry": {"coordinates": [[112.7835476, -7.2506434], [112.7838692, -7.2501108], [112.7840313, -7.2502071], [112.7837097, -7.2507397], [112.7835476, -7.2506434]], "type": "LineString"}, "id": 450772004, "properties": {"access:roof": "yes", "addr:full": "Jalan Dr. Ir. H. Soekarno Nomer 2", "amenity": "hospital", "backup_generator": "yes", "building": "hospital", "building:condition": "good", "building:floor": "ceramics", "building:levels": "5", "building:roof": "concrete", "building:structure": "confined_masonry", "building:walls": "brick", "capacity:persons": "250-500", "name": "RSIA Kendangsari Merr", "operator:type": "private"}, "type": "Feature"}, {"geometry": {"coordinates": [[112.7398453, -7.3086772], [112.7397607, -7.308658], [112.7397439, -7.3087311], [112.739431, -7.3086603], [112.7395029, -7.3083478], [112.7399004, -7.3084377], [112.7398453, -7.3086772]], "type": "LineString"}, "id": 450988751, "properties": {"amenity": "hospital", "building": "hospital", "building:condition": "good", "building:levels": "1", "building:roof": "tile", "building:structure": "confined_masonry", "building:walls": "brick", "buildings:floor": "ceramics", "capacity": "100-250", "name": "Klinik Estetika", "operator:type": "government"}, "type": "Feature"}, {"geometry": {"coordinates": [[112.6912914, -7.2664951], [112.6913693, -7.2664295], [112.6915247, -7.2666109], [112.691449, -7.2666747], [112.6914577, -7.2666843], [112.691594, -7.2666729], [112.6915644, -7.2670144], [112.6914651, -7.2670118], [112.6914081, -7.2669462], [112.6913137, -7.2670255], [112.690855, -7.266488], [112.6909821, -7.2663813], [112.6909812, -7.2663804], [112.690908, -7.2663749], [112.690912, -7.2663004], [112.6909395, -7.2662379], [112.6912641, -7.2662685], [112.6912601, -7.266387], [112.6912533, -7.2664053], [112.6912352, -7.2664308], [112.6912768, -7.2664774], [112.6912914, -7.2664951]], "type": "LineString"}, "id": 451670191, "properties": {"addr:full": "satelit indah vi", "amenity": "hospital", "building": "hospital", "building:condition": "good", "building:levels": "4", "building:roof": "concrete", "building:structure": "confined_masonry", "building:walls": "brick", "buildings:floor": "ceramics", "capacity": "250-500", "name": "Rumah Sakit Mitra Keluarga", "operator:type": "private"}, "type": "Feature"}, {"geometry": {"coordinates": [[112.7359387, -7.209045], [112.7361428, -7.2090107], [112.736385, -7.2104279], [112.7361808, -7.2104622], [112.7359387, -7.209045]], "type": "LineString"}, "id": 451837669, "properties": {"addr:full": "Jalan Kalimas Baru", "amenity": "hospital", "backup_generator": "yes", "building": "hospital", "building:condition": "good", "building:levels": "6", "building:roof": "tile", "building:structure": "confined_masonry", "building:walls": "brick", "capacity:persons": "lebih dari 500", "name": "Rumah Sakit PHC Medical Centre", "operator:type": "private"}, "type": "Feature"}, {"geometry": {"coordinates": [[112.740755, -7.2259712], [112.7408985, -7.2259832], [112.7408814, -7.2261849], [112.7407379, -7.2261729], [112.740755, -7.2259712]], "type": "LineString"}, "id": 452176358, "properties": {"addr:full": "Jalan KH Mas Mansyur", "amenity": "hospital", "building": "clinic", "building:condition": "average", "building:levels": "2", "building:roof": "tile", "building:structure": "confined_masonry", "building:walls": "brick", "buildings:floor": "ceramics", "capacity:persons": "50-100", "name": "Klinik Raddina", "operator:type": "private"}, "type": "Feature"}, {"geometry": {"coordinates": [[112.7417713, -7.2871233], [112.7418018, -7.2871375], [112.7417841, -7.2871751], [112.7417535, -7.2871609], [112.7417713, -7.2871233]], "type": "LineString"}, "id": 452580516, "properties": {"addr:city": "Surabaya, Jawa Timur", "addr:housenumber": "105", "addr:postcode": "60241", "addr:street": "Jalan Tumapel", "amenity": "hospital", "building": "yes", "name": "Klinik Anugerah Sulung"}, "type": "Feature"}, {"geometry": {"coordinates": [[112.6619311, -7.2992507], [112.6619217, -7.2992707], [112.6619257, -7.2993146], [112.6619391, -7.2993758], [112.6619525, -7.2994529], [112.6619928, -7.299578], [112.6620545, -7.2997004], [112.6620987, -7.299731], [112.6621564, -7.2997669], [112.6621779, -7.2996511], [112.6621953, -7.2995101], [112.6622074, -7.2993971], [112.6621886, -7.2993133], [112.6621618, -7.2992773], [112.6621926, -7.2991696], [112.6619418, -7.2990978], [112.6619525, -7.2992188], [112.6619311, -7.2992507]], "type": "LineString"}, "id": 453637971, "properties": {"access:roof": "yes", "addr:full": "Jalan Lontar Lidah Kulon", "amenity": "hospital", "backup_generator": "yes", "building": "hospital", "building:condition": "good", "building:floor": "ceramics", "building:levels": "4", "building:roof": "concrete", "building:structure": "steel_frame", "building:walls": "brick", "capacity": "100-250", "name": "RS Orthopedi & Traumatologi", "operator:type": "private"}, "type": "Feature"}, {"geometry": {"coordinates": [[112.6798106, -7.27556], [112.6798742, -7.275631], [112.6796402, -7.2758372], [112.6795045, -7.2756857], [112.6794962, -7.275693], [112.6794237, -7.275611], [112.6795598, -7.2754927], [112.6796188, -7.2755595], [112.6797258, -7.2754653], [112.6797693, -7.2755139], [112.6798183, -7.2754739], [112.6798578, -7.2755215], [112.6798106, -7.27556]], "type": "LineString"}, "id": 454129371, "properties": {"access:roof": "no", "addr:full": "Jalan Raya Darmo Permai Selatan 109-111", "amenity": "hospital", "backup_generator": "yes", "building": "hospital", "building:condition": "good", "building:levels": "3", "building:roof": "tile", "building:structure": "confined_masonry", "building:walls": "brick", "buildings:floor": "ceramics", "capacity": ">500", "name": "Rumah Sakit Marien", "operator:type": "private"}, "type": "Feature"}, {"geometry": {"coordinates": [[112.6694486, -7.2843463], [112.6696219, -7.2843799], [112.6695549, -7.2847205], [112.6693815, -7.2846869], [112.6694486, -7.2843463]], "type": "LineString"}, "id": 454131833, "properties": {"access:roof": "yes", "addr:full": "Jalan Raya Lontar 109", "amenity": "hospital", "backup_generator": "yes", "building": "hospital", "building:condition": "good", "building:levels": "3", "building:roof": "concrete", "building:structure": "confined_masonry", "building:walls": "brick", "buildings:floor": "ceramics", "capacity": "250-500", "name": "Rumah Sakit Lombok Dua dua", "operator:type": "private"}, "type": "Feature"}, {"geometry": {"coordinates": [[112.6916991, -7.312992], [112.6917742, -7.31302], [112.6917046, -7.3132041], [112.6916295, -7.3131762], [112.6916991, -7.312992]], "type": "LineString"}, "id": 455658137, "properties": {"access:roof": "no", "addr:full": "Jalan Raya Menganti 398", "amenity": "hospital", "backup_generator": "no", "building": "hospital", "building:condition": "good", "building:levels": "1", "building:roof": "concrete", "building:structure": "confined_masonry", "building:walls": "brick", "buildings:floor": "ceramics", "capacity": "50-100", "name": "Rumah Sakit Wijaya", "operator:type": "private"}, "type": "Feature"}, {"geometry": {"coordinates": [[112.7453392, -7.3252321], [112.7456785, -7.3252594], [112.7456645, -7.3254314], [112.7453252, -7.3254042], [112.7453392, -7.3252321]], "type": "LineString"}, "id": 458639570, "properties": {"access:roof": "yes", "addr:full": "Jalan Raya Kendangsari 38", "addr:postcode": "60292", "amenity": "hospital", "backup_generator": "yes", "building": "hospital", "building:condition": "good", "building:levels": "2", "building:roof": "asbentos", "building:structure": "confined_masonry", "building:walls": "brick", "buildings:floor": "ceramics", "capacity": "50-100", "name": "Rumah Sakit Ibu dan Anak Kendangsari", "operator:type": "private"}, "type": "Feature"}, {"geometry": {"coordinates": [[112.6502602, -7.2516619], [112.650234, -7.2518242], [112.6501703, -7.2518141], [112.6501965, -7.2516518], [112.6502602, -7.2516619]], "type": "LineString"}, "id": 461277745, "properties": {"access:roof": "no", "addr:city": "Jalan Raya Kandangan", "amenity": "hospital", "backup_generator": "yes", "building": "yes", "building:condition": "good", "building:floor": "ceramics", "building:levels": "4", "building:roof": "concrete", "building:structure": "confined_masonry", "building:walls": "brick", "capacity": "250-500", "name": "Rumah Sakit Bunda", "operator:type": "private"}, "type": "Feature"}, {"geometry": {"coordinates": [[112.7132245, -7.3215284], [112.7133389, -7.3212588], [112.7138002, -7.3214476], [112.7138606, -7.3212973], [112.7142321, -7.3214503], [112.7140919, -7.3217915], [112.7140792, -7.3218194], [112.7135186, -7.3215933], [112.7134985, -7.3216438], [112.7132245, -7.3215284]], "type": "LineString"}, "id": 463387641, "properties": {"amenity": "hospital", "name": "RSIA Cempaka Putih Permata"}, "type": "Feature"}, {"geometry": {"coordinates": [[112.7488303, -7.2783343], [112.7490616, -7.2783829], [112.7490082, -7.278633], [112.748777, -7.2785845], [112.7488303, -7.2783343]], "type": "LineString"}, "id": 463561564, "properties": {"access:roof": "yes", "addr:full": "jalan lombok nomor 22", "amenity": "hospital", "backup_generator": "yes", "building": "hospital", "building:condition": "good", "building:floor": "ceramics", "building:levels": "4-7", "building:roof": "concrete", "building:structure": "confined_masonry", "building:walls": "brick", "capacity": "100-250", "name": "RSB Lombok Dua Dua", "operator:type": "private"}, "type": "Feature"}, {"geometry": {"coordinates": [[112.7751279, -7.3279915], [112.7753807, -7.3279995], [112.7753757, -7.3281572], [112.7753678, -7.3281569], [112.7752666, -7.3281537], [112.7751229, -7.3281492], [112.7751279, -7.3279915]], "type": "LineString"}, "id": 463994509, "properties": {"access:roof": "no", "addr:city": "Rungkut Kidul, Rungkut, Kota SBY, Jawa Timur, Indonesia", "addr:full": "Jalan Rungkut Asri Tengah", "addr:housenumber": "2", "addr:postcode": "60293", "addr:street": "Jl. Rungkut Asri Tengah", "amenity": "hospital", "building": "yes", "building:condition": "good", "building:floor": "ceramics", "building:levels": "3", "building:roof": "asbestos", "building:structure": "confined_masonry", "building:walls": "glass", "capacity": "50-100", "name": "Klinik Utama Pusura Rungkut", "operator:type": "private"}, "type": "Feature"}, {"geometry": {"coordinates": [[112.76175, -7.3832024], [112.762557, -7.3833042], [112.7625393, -7.3834692], [112.7617253, -7.3833674], [112.76175, -7.3832024]], "type": "LineString"}, "id": 472077907, "properties": {"addr:city": "Sedati", "amenity": "hospital", "name": "Almira Medika"}, "type": "Feature"}], "type": "FeatureCollection"}