{"features": [{"geometry": {"coordinates": [112.6946879, -7.3443197], "type": "Point"}, "id": 2065700408, "properties": {"amenity": "marketplace", "designation": "Jl Raya Sepanjang No.97 Sepanjang Taman Sidoarjo", "name": "ISTANA MEBEL"}, "type": "Feature"}, {"geometry": {"coordinates": [112.7279662, -7.2466392], "type": "Point"}, "id": 2332788507, "properties": {"amenity": "marketplace", "name": "DUPAK GROSIR PASAR TURI BARU"}, "type": "Feature"}, {"geometry": {"coordinates": [112.6852808, -7.3719768], "type": "Point"}, "id": 2803070820, "properties": {"addr:city": "Sidoarjo", "addr:housenumber": "177 \u2013 183", "addr:street": "Jl. Sawunggaling", "amenity": "marketplace", "name": "Komplek Pasar Induk Agro puspo", "name:en": "Agro puspo Central Market"}, "type": "Feature"}, {"geometry": {"coordinates": [112.7407777, -7.2744043], "type": "Point"}, "id": 4189024751, "properties": {"addr:city": "Surabaya, Jawa Timur", "addr:postcode": "60271", "addr:street": "Jln urip sumoharjo", "amenity": "marketplace", "name": "Keputran Pasar Kecil IV"}, "type": "Feature"}, {"geometry": {"coordinates": [112.6805077, -7.3105155], "type": "Point"}, "id": 4192735789, "properties": {"addr:city": "Babatan, Wiyung, Kota SBY, Jawa Timur, Indonesia", "addr:postcode": "60227", "addr:street": "Jl. Raya Menganti Karangan", "amenity": "marketplace", "name": "Mitra 10"}, "type": "Feature"}, {"geometry": {"coordinates": [112.7318105, -7.2490206], "type": "Point"}, "id": 4192930099, "properties": {"addr:city": "Gundih, Bubutan, Surabaya, East Java", "addr:housenumber": "Blok B No.15", "addr:postcode": "60174", "addr:street": "Jalan Semarang", "amenity": "marketplace", "name": "Surabaya Pasar Turi"}, "type": "Feature"}, {"geometry": {"coordinates": [112.7395668, -7.2721326], "type": "Point"}, "id": 4461489614, "properties": {"access:roof": "no", "addr:full": "Kedondong", "amenity": "marketplace", "backup_generator": "no", "building": "marketplace", "building:condition": "poor", "building:floor": "cement", "building:levels": "1", "building:roof": "tin", "building:structure": "wood_frame", "building:walls": "wood", "capacity": "<50", "name": "Pasar Kedondong"}, "type": "Feature"}, {"geometry": {"coordinates": [112.7408195, -7.2385318], "type": "Point"}, "id": 4486249271, "properties": {"addr:full": "jalan slompretan", "amenity": "marketplace", "name": "Pasar Bong"}, "type": "Feature"}, {"geometry": {"coordinates": [112.7428073, -7.2349226], "type": "Point"}, "id": 4489735255, "properties": {"access:roof": "no", "addr:full": "jalan dukuh gili", "amenity": "marketplace", "backup_generator": "no", "building": "supermarket", "building:condition": "average", "building:floor": "cement", "building:levels": "1", "building:roof": "tin", "building:structure": "confined_masonry", "building:walls": "brick", "capacity:persons": "50-100", "name": "Pasar Surya"}, "type": "Feature"}, {"geometry": {"coordinates": [112.6455396, -7.2759244], "type": "Point"}, "id": 4511330792, "properties": {"amenity": "marketplace", "name": "Fresh Market Citraland", "opening_hours": "Mo-Su 05:30-15:00"}, "type": "Feature"}, {"geometry": {"coordinates": [112.7461195, -7.3369292], "type": "Point"}, "id": 4580557585, "properties": {"addr:full": "Jalan Kutisari Selatan V", "amenity": "marketplace", "building": "marketplace", "name": "Pasar Kutisari"}, "type": "Feature"}, {"geometry": {"coordinates": [112.6719081, -7.2594481], "type": "Point"}, "id": 4580573991, "properties": {"addr:full": "jalan sikatan pasar", "amenity": "marketplace", "building": "marketplace", "name": "Pasar Sikatan"}, "type": "Feature"}, {"geometry": {"coordinates": [112.6624319, -7.2620715], "type": "Point"}, "id": 4620142013, "properties": {"addr:full": "manukan Yoso", "amenity": "marketplace", "building:structure": "confined_masonry", "name": "Pasar Darurat (Manukan Kulon)"}, "type": "Feature"}, {"geometry": {"coordinates": [[112.7443701, -7.2420838], [112.7443701, -7.2422115], [112.7445466, -7.242197], [112.7445597, -7.2422247], [112.7445677, -7.2422965], [112.7447313, -7.242218], [112.7447043, -7.2421597], [112.7448507, -7.2420584], [112.7448339, -7.2420304], [112.744968, -7.2418734], [112.7449526, -7.2418302], [112.7449198, -7.2417717], [112.7450437, -7.2416956], [112.7448435, -7.2413703], [112.7449204, -7.2413379], [112.7447016, -7.2409723], [112.7449419, -7.240819], [112.7447445, -7.2404955], [112.7441265, -7.2408531], [112.7440407, -7.2407339], [112.7433414, -7.2411256], [112.7433111, -7.2411426], [112.7432436, -7.2411377], [112.7432115, -7.2411244], [112.7431732, -7.2411224], [112.7431431, -7.2411324], [112.7431129, -7.241149], [112.7430894, -7.2411743], [112.743072, -7.2412089], [112.7430733, -7.2412488], [112.743076, -7.2412761], [112.7430981, -7.24131], [112.7431317, -7.2413413], [112.7431813, -7.2413539], [112.7432182, -7.2413532], [112.7432517, -7.2413406], [112.7432772, -7.2413253], [112.7433094, -7.2413047], [112.7433509, -7.2412874], [112.743378, -7.2412719], [112.7436373, -7.2417727], [112.7443615, -7.2417347], [112.7443701, -7.2420838]], "type": "LineString"}, "id": 30411458, "properties": {"addr:full": "Jalan Waspada", "amenity": "marketplace", "building": "supermarket", "building:condition": "average", "building:floor": "ceramics", "building:levels": "5", "building:roof": "concrete", "building:structure": "confined_masonry", "building:walls": "brick", "capacity:persons": "250-500", "name": "Pasar Atum", "opening_hours": "Mo-Su 10:00-17:00"}, "type": "Feature"}, {"geometry": {"coordinates": [[112.7135143, -7.2683247], [112.7136355, -7.2683465], [112.7134906, -7.2691394], [112.7133694, -7.2691176], [112.7135143, -7.2683247]], "type": "LineString"}, "id": 215101231, "properties": {"amenity": "marketplace", "building": "yes", "name": "Pasar Surya"}, "type": "Feature"}, {"geometry": {"coordinates": [[112.7427261, -7.2747887], [112.7427193, -7.2748373], [112.7424255, -7.2747965], [112.7424324, -7.2747475], [112.7424302, -7.2747472], [112.7424833, -7.2743715], [112.7429132, -7.2744313], [112.7429056, -7.2744847], [112.7432727, -7.2745357], [112.7432322, -7.2748227], [112.7431796, -7.2751953], [112.7429156, -7.2751587], [112.7429632, -7.2748217], [112.7427261, -7.2747887]], "type": "LineString"}, "id": 219077459, "properties": {"access:roof": "no", "addr:full": "Jalan Keputran", "amenity": "marketplace", "backup_generator": "no", "building": "marketplace", "building:condition": "average", "building:floor": "cement", "building:levels": "2", "building:roof": "asbentos", "building:structure": "confined_masonry", "building:walls": "brick", "capacity": ">500", "name": "Pasar Keputran Utama"}, "type": "Feature"}, {"geometry": {"coordinates": [[112.7792165, -7.3023071], [112.7794946, -7.302335], [112.7794694, -7.3027223], [112.7791716, -7.3027028], [112.7792165, -7.3023071]], "type": "LineString"}, "id": 302536201, "properties": {"amenity": "marketplace", "building": "yes", "name": "Pasar Semolowaru"}, "type": "Feature"}, {"geometry": {"coordinates": [[112.775489, -7.3316389], [112.7759012, -7.3316676], [112.7758749, -7.3320398], [112.7754627, -7.3320111], [112.775489, -7.3316389]], "type": "LineString"}, "id": 311401434, "properties": {"amenity": "marketplace", "name": "Giant", "opening_hours": "Sa-Su 07:00-10:00", "website": "http://www.giant.com.my/"}, "type": "Feature"}, {"geometry": {"coordinates": [[112.7748461, -7.3316233], [112.7752834, -7.3316464], [112.7752629, -7.3320279], [112.7748256, -7.3320048], [112.7748461, -7.3316233]], "type": "LineString"}, "id": 311401436, "properties": {"amenity": "marketplace", "name": "Yakaya", "opening_hours": "Sa-Su 07:00-22:00", "operator": "Superindo", "website": "http://www.superindo.co.id/"}, "type": "Feature"}, {"geometry": {"coordinates": [[112.6648134, -7.198412], [112.6650335, -7.1986797], [112.6648961, -7.1987909], [112.664676, -7.1985233], [112.6648134, -7.198412]], "type": "LineString"}, "id": 311980592, "properties": {"amenity": "marketplace", "building": "yes", "name": "Tempat Pelelangan Ikan"}, "type": "Feature"}, {"geometry": {"coordinates": [[112.7326185, -7.3878656], [112.7325265, -7.3886986], [112.7333382, -7.3887753], [112.7333825, -7.3883666], [112.7334279, -7.3879485], [112.7326185, -7.3878656]], "type": "LineString"}, "id": 320356645, "properties": {"amenity": "marketplace", "name": "Pasar Gedangan"}, "type": "Feature"}, {"geometry": {"coordinates": [[112.6620165, -7.2597393], [112.6625138, -7.2600851], [112.6623191, -7.2601711], [112.6619103, -7.2598973], [112.6620165, -7.2597393]], "type": "LineString"}, "id": 349650754, "properties": {"access:roof": "no", "addr:full": "Manukan Lor", "amenity": "marketplace", "backup_generator": "no", "building": "marketplace", "building:condition": "good", "building:floor": "cement", "building:levels": "1", "building:roof": "asbentos", "building:structure": "wood_frame", "building:walls": "wood", "capacity": "100-250", "name": "Pasar Manukan Kulon"}, "type": "Feature"}, {"geometry": {"coordinates": [[112.7776904, -7.3216689], [112.7777044, -7.3220007], [112.7780593, -7.321986], [112.7780452, -7.3216541], [112.7776904, -7.3216689]], "type": "LineString"}, "id": 446941410, "properties": {"access:roof": "no", "addr:full": "Jalan Raya Kedung Asem", "amenity": "marketplace", "building": "marketplace", "building:condition": "average", "building:floor": "cement", "building:levels": "2", "building:roof": "tile", "building:structure": "confined_masonry", "building:walls": "brick", "capacity": "50-100", "name": "Pasar Sinar Baru"}, "type": "Feature"}, {"geometry": {"coordinates": [[112.7528357, -7.2675559], [112.7531117, -7.2676787], [112.7530289, -7.2678619], [112.7527529, -7.2677391], [112.7528357, -7.2675559]], "type": "LineString"}, "id": 447608021, "properties": {"access:roof": "yes", "addr:full": "Jalan Gubeng masjid", "amenity": "marketplace", "backup_generator": "no", "building": "supermarket", "building:condition": "average", "building:floor": "ceramics", "building:levels": "2", "building:roof": "concrete", "building:structure": "confined_masonry", "building:walls": "brick", "capacity": ">500", "name": "Pasar Gubeng Masjid"}, "type": "Feature"}, {"geometry": {"coordinates": [[112.7490603, -7.2476593], [112.7491581, -7.2476995], [112.7491207, -7.2477889], [112.7492073, -7.2478245], [112.7492474, -7.2477287], [112.7493172, -7.2477574], [112.7494131, -7.2475282], [112.7492655, -7.2474675], [112.749278, -7.2474377], [112.7493749, -7.2474775], [112.7494535, -7.2472896], [112.7493485, -7.2472464], [112.7493086, -7.2473418], [112.74921, -7.2473012], [112.7490603, -7.2476593]], "type": "LineString"}, "id": 447623735, "properties": {"addr:full": "Jalan Pecindilan 2", "amenity": "marketplace", "building": "supermarket", "building:condition": "average", "building:floor": "ground", "building:levels": "1", "building:roof": "concrete", "building:structure": "wood_frame", "building:walls": "brick", "capacity:persons": "100-250", "name": "Pasar Pecindilan"}, "type": "Feature"}, {"geometry": {"coordinates": [[112.7867663, -7.2254198], [112.7868859, -7.2254466], [112.7867733, -7.2259428], [112.7866536, -7.2259161], [112.7867663, -7.2254198]], "type": "LineString"}, "id": 447644640, "properties": {"access:roof": "yes", "amenity": "marketplace", "backup_generator": "no", "building": "supermarket", "building:condition": "average", "building:floor": "cement", "building:levels": "2", "building:roof": "concrete", "building:structure": "confined_masonry", "building:walls": "brick", "capacity:persons": "100-250", "name": "Sentra Ikan Bulak"}, "type": "Feature"}, {"geometry": {"coordinates": [[112.7431247, -7.2866442], [112.7430205, -7.2865854], [112.7433189, -7.2860653], [112.743423, -7.286124], [112.7431247, -7.2866442]], "type": "LineString"}, "id": 447712076, "properties": {"access:roof": "no", "addr:full": "Jalan Dinoyo Baru", "amenity": "marketplace", "backup_generator": "no", "building": "marketplace", "building:condition": "average", "building:levels": "1", "building:roof": "tin", "building:structure": "wood_frame", "building:walls": "wood", "capacity": "50-100", "name": "Pasar Dinoyo Tangsi"}, "type": "Feature"}, {"geometry": {"coordinates": [[112.729525, -7.2692214], [112.7296797, -7.269285], [112.7295977, -7.2694811], [112.7295045, -7.2694427], [112.7293476, -7.2698178], [112.7291656, -7.2697428], [112.7294041, -7.2691727], [112.7295246, -7.2692224], [112.729525, -7.2692214]], "type": "LineString"}, "id": 448271628, "properties": {"access:roof": "no", "addr:full": "Jalan Pasar Kembang", "amenity": "marketplace", "backup_generator": "no", "building": "marketplace", "building:condition": "average", "building:floor": "cement", "building:levels": "2", "building:roof": "tile", "building:structure": "confined_masonry", "building:walls": "brick", "capacity": ">500", "name": "Pasar Kembang"}, "type": "Feature"}, {"geometry": {"coordinates": [[112.7361974, -7.2679319], [112.7362584, -7.267898], [112.7362586, -7.2678807], [112.7362685, -7.2678734], [112.7363047, -7.2678827], [112.7364361, -7.2678229], [112.7364582, -7.2678541], [112.7364844, -7.2678242], [112.736481, -7.2678062], [112.7365352, -7.2677604], [112.7365789, -7.2677982], [112.7364988, -7.2678893], [112.736476, -7.2679087], [112.7364874, -7.2679286], [112.7364283, -7.2679619], [112.7363392, -7.2679978], [112.7362367, -7.2680392], [112.7361974, -7.2679319]], "type": "LineString"}, "id": 449182769, "properties": {"access:roof": "no", "addr:full": "Jalan Kedungsari", "amenity": "marketplace", "backup_generator": "no", "building": "marketplace", "building:condition": "poor", "building:floor": "cement", "building:levels": "1", "building:roof": "asbentos", "building:structure": "wood_frame", "building:walls": "wood", "capacity": "<50", "name": "Pasar Kedungsari"}, "type": "Feature"}, {"geometry": {"coordinates": [[112.7378348, -7.2642384], [112.737811, -7.2643551], [112.7378432, -7.2643621], [112.7378458, -7.2643544], [112.7380242, -7.2643977], [112.7380477, -7.2642846], [112.737875, -7.2642553], [112.7378767, -7.264245], [112.7378348, -7.2642384]], "type": "LineString"}, "id": 449294401, "properties": {"access:roof": "no", "addr:full": "Jalan Kaliasin VI", "amenity": "marketplace", "backup_generator": "no", "building": "supermarket", "building:condition": "poor", "building:levels": "1", "building:roof": "tile", "building:structure": "wood_frame", "building:walls": "wood", "capacity": "50-100", "name": "Pasar Kaliasin"}, "type": "Feature"}, {"geometry": {"coordinates": [[112.7788485, -7.2384991], [112.7789701, -7.2385627], [112.7786164, -7.2392287], [112.7783771, -7.2396793], [112.7782555, -7.2396157], [112.7788485, -7.2384991]], "type": "LineString"}, "id": 449519092, "properties": {"access:roof": "no", "amenity": "marketplace", "building": "marketplace", "building:condition": "poor", "building:levels": "1", "building:roof": "tin", "building:structure": "wood_frame", "building:walls": "wood", "buildings:floor": "ground", "name": "Pasar Setro Makmur"}, "type": "Feature"}, {"geometry": {"coordinates": [[112.7731971, -7.2336804], [112.7732546, -7.2335169], [112.7736274, -7.233646], [112.7735699, -7.2338094], [112.7731971, -7.2336804]], "type": "LineString"}, "id": 449624547, "properties": {"access:roof": "yes", "addr:full": "Jalan Bulak Rukem Timur", "amenity": "marketplace", "backup_generator": "no", "building": "supermarket", "building:condition": "average", "building:floor": "cement", "building:levels": "2", "building:roof": "asbentos", "building:structure": "confined_masonry", "building:walls": "brick", "capacity:persons": "250-500", "name": "Pasar Rabardjo"}, "type": "Feature"}, {"geometry": {"coordinates": [[112.758233, -7.2603926], [112.7581083, -7.2606148], [112.7583953, -7.2607864], [112.7585911, -7.2604592], [112.758398, -7.2603424], [112.758339, -7.2604435], [112.758233, -7.2603926]], "type": "LineString"}, "id": 449624585, "properties": {"access:roof": "no", "addr:full": "Jalan Pacar Keling", "amenity": "marketplace", "backup_generator": "no", "building": "supermarket", "building:condition": "poor", "building:levels": "1", "building:roof": "tin", "building:structure": "bamboo_frame", "building:walls": "brick", "buildings:floor": "ground", "capacity": "100-250", "name": "Pasar Pacar Keling"}, "type": "Feature"}, {"geometry": {"coordinates": [[112.7404103, -7.2582112], [112.7412337, -7.2584201], [112.7411294, -7.2588246], [112.740306, -7.2586157], [112.7404103, -7.2582112]], "type": "LineString"}, "id": 449639964, "properties": {"access:roof": "yes", "addr:full": "Genteng Besar", "amenity": "marketplace", "backup_generator": "no", "building": "supermarket", "building:condition": "average", "building:floor": "tekhel", "building:levels": "3", "building:roof": "concrete", "building:structure": "confined_masonry", "building:walls": "brick", "capacity": "250-500", "name": "Pasar Genteng"}, "type": "Feature"}, {"geometry": {"coordinates": [[112.7390242, -7.2493407], [112.7390312, -7.2493175], [112.7391016, -7.2493386], [112.7391058, -7.2493647], [112.7390976, -7.249391], [112.7390972, -7.2493909], [112.739091, -7.2494113], [112.7388971, -7.2493531], [112.7389112, -7.2493069], [112.7390242, -7.2493407]], "type": "LineString"}, "id": 449650272, "properties": {"access:roof": "no", "addr:full": "Jalan Kramat Gantung", "amenity": "marketplace", "backup_generator": "no", "building": "supermarket", "building:condition": "poor", "building:floor": "cement", "building:roof": "tin", "building:structure": "confined_masonry", "building:walls": "brick", "capacity:persons": "250-500", "name": "Pasar Kepatihan"}, "type": "Feature"}, {"geometry": {"coordinates": [[112.7453594, -7.227338], [112.7453562, -7.2271849], [112.7453964, -7.226973], [112.7454262, -7.2268768], [112.7454829, -7.2266674], [112.7455767, -7.2266924], [112.745607, -7.2265805], [112.7457052, -7.2266067], [112.7457977, -7.2266314], [112.7456046, -7.2274416], [112.7454932, -7.2274249], [112.7453594, -7.227338]], "type": "LineString"}, "id": 449832222, "properties": {"access:roof": "yes", "amenity": "marketplace", "building": "marketplace", "building:condition": "good", "building:floor": "ceramics", "building:levels": "2", "building:roof": "asbestos", "building:structure": "confined_masonry", "building:walls": "brick", "capacity:persons": "lebih dari 500", "name": "Pasar Pegirian"}, "type": "Feature"}, {"geometry": {"coordinates": [[112.7487762, -7.2394348], [112.7488379, -7.2394907], [112.7492993, -7.2396184], [112.7493046, -7.2396556], [112.7494039, -7.2396849], [112.7494173, -7.2396503], [112.7496426, -7.2397089], [112.75012, -7.2398392], [112.7501442, -7.2397488], [112.7501897, -7.239661], [112.7502193, -7.239629], [112.7502407, -7.2395732], [112.7502085, -7.2395173], [112.7500717, -7.2394215], [112.7500825, -7.2393949], [112.75001, -7.2393443], [112.7499591, -7.2393257], [112.7497633, -7.2391634], [112.7492456, -7.2387723], [112.7491812, -7.2387164], [112.7491383, -7.2386738], [112.7490579, -7.2386259], [112.7489908, -7.2387004], [112.7490418, -7.2387962], [112.7487762, -7.2394348]], "type": "LineString"}, "id": 450294237, "properties": {"access:roof": "yes", "addr:full": "Jalan Kapas Krampumg", "amenity": "marketplace", "backup_generator": "no", "building": "supermarket", "building:condition": "good", "building:levels": "3", "building:roof": "concrete", "building:structure": "confined_masonry", "building:walls": "concrete", "buildings:floor": "ceramics", "capacity:persons": ">500", "name": "Pasar Kapasan"}, "type": "Feature"}, {"geometry": {"coordinates": [[112.7536737, -7.2839578], [112.7535772, -7.2839565], [112.7535787, -7.2838475], [112.7537761, -7.2838502], [112.7537748, -7.283942], [112.7538808, -7.2839434], [112.7538791, -7.2840643], [112.7537839, -7.284063], [112.7537826, -7.2841587], [112.7529953, -7.2841479], [112.7529965, -7.2840622], [112.7528987, -7.2840608], [112.7529001, -7.2839585], [112.7530041, -7.28396], [112.7530041, -7.2839573], [112.7529953, -7.2839572], [112.7529967, -7.2838601], [112.7531898, -7.2838628], [112.7531884, -7.2839598], [112.7531034, -7.2839587], [112.7531021, -7.2840498], [112.7536723, -7.2840576], [112.7536737, -7.2839578]], "type": "LineString"}, "id": 450509693, "properties": {"access:roof": "no", "addr:full": "Jalan Pucang Anom", "amenity": "marketplace", "building": "supermarket", "building:condition": "average", "building:floor": "ceramics", "building:levels": "2", "building:roof": "asbentos", "building:structure": "confined_masonry", "building:walls": "brick", "capacity": "100-250", "name": "Pasar Pucang Anom"}, "type": "Feature"}, {"geometry": {"coordinates": [[112.7683326, -7.2320499], [112.768415, -7.2320656], [112.7684196, -7.2320418], [112.7686717, -7.2320897], [112.7685615, -7.2326608], [112.7683144, -7.2326138], [112.7683058, -7.2326583], [112.7682183, -7.2326416], [112.7683326, -7.2320499]], "type": "LineString"}, "id": 450521503, "properties": {"access:roof": "no", "addr:full": "Jalan Pogot No. 66-69", "amenity": "marketplace", "backup_generator": "no", "building": "supermarket", "building:condition": "average", "building:floor": "cement", "building:levels": "1", "building:roof": "asbentos", "building:structure": "confined_masonry", "building:walls": "wood", "name": "Pasar Pogot"}, "type": "Feature"}, {"geometry": {"coordinates": [[112.7622393, -7.2807406], [112.7624498, -7.2807698], [112.7624458, -7.2809228], [112.7622299, -7.2808989], [112.7622393, -7.2807406]], "type": "LineString"}, "id": 450537996, "properties": {"addr:city": "Surabaya", "addr:postcode": "60285", "addr:street": "Jalan Menur", "amenity": "marketplace", "name": "Pasar Manyar Surabaya"}, "type": "Feature"}, {"geometry": {"coordinates": [[112.7953943, -7.2557675], [112.7953775, -7.2558828], [112.7956103, -7.2559163], [112.795604, -7.2559592], [112.7953193, -7.2559184], [112.7953328, -7.2558255], [112.7950962, -7.2557915], [112.7951064, -7.2557212], [112.7953701, -7.2557591], [112.7953767, -7.2557143], [112.7955723, -7.2557423], [112.795565, -7.255792], [112.7953943, -7.2557675]], "type": "LineString"}, "id": 450698653, "properties": {"access:roof": "no", "addr:full": "Jalan Tempurejo", "amenity": "marketplace", "backup_generator": "no", "building": "yes", "building:condition": "poor", "building:floor": "cement", "building:roof": "tile", "building:structure": "confined_masonry", "building:walls": "brick", "name": "Pasar Tradisional Tempurejo"}, "type": "Feature"}, {"geometry": {"coordinates": [[112.7404812, -7.2345683], [112.7407967, -7.2346778], [112.7407403, -7.2348375], [112.7404249, -7.234728], [112.7404812, -7.2345683]], "type": "LineString"}, "id": 450712268, "properties": {"amenity": "marketplace", "building": "yes", "name": "Pasar Pabean"}, "type": "Feature"}, {"geometry": {"coordinates": [[112.741641, -7.2352029], [112.7407915, -7.2348741], [112.7408515, -7.2347215], [112.7416897, -7.2350459], [112.741695, -7.2350326], [112.7417494, -7.2350536], [112.7417262, -7.2351125], [112.7417504, -7.2351219], [112.7417288, -7.235177], [112.7417125, -7.2351707], [112.741686, -7.2352382], [112.7416349, -7.2352184], [112.741641, -7.2352029]], "type": "LineString"}, "id": 450712273, "properties": {"amenity": "marketplace", "building": "yes", "name": "Pasar Pabean"}, "type": "Feature"}, {"geometry": {"coordinates": [[112.7324657, -7.2365552], [112.7326749, -7.2365832], [112.7326102, -7.2370598], [112.732401, -7.2370319], [112.7324657, -7.2365552]], "type": "LineString"}, "id": 451492077, "properties": {"addr:full": "Jalan Krembangan Besar", "amenity": "marketplace", "building": "yes", "name": "Pasar Krembangan"}, "type": "Feature"}, {"geometry": {"coordinates": [[112.7725513, -7.3229677], [112.7725527, -7.3232417], [112.7719842, -7.3232444], [112.7719829, -7.3229704], [112.7725513, -7.3229677]], "type": "LineString"}, "id": 451558997, "properties": {"access:roof": "no", "addr:full": "Jalan Rungkut Alang-Alang", "amenity": "marketplace", "building": "supermarket", "building:condition": "good", "building:levels": "2", "building:roof": "asbentos", "building:structure": "confined_masonry", "building:walls": "brick", "buildings:floor": "cement", "capacity": "50-100", "name": "Pasar Rungkut Baru"}, "type": "Feature"}, {"geometry": {"coordinates": [[112.7719116, -7.3232324], [112.7714156, -7.3232328], [112.7714156, -7.3232327], [112.7713202, -7.3232328], [112.7713198, -7.3227602], [112.7715063, -7.32276], [112.7715065, -7.3229809], [112.7719114, -7.3229806], [112.7719116, -7.3232324]], "type": "LineString"}, "id": 451558998, "properties": {"access:roof": "no", "addr:full": "Jalan Rungkut Alang-Alang", "amenity": "marketplace", "building": "supermarket", "building:condition": "good", "building:levels": "2", "building:roof": "asbentos", "building:structure": "confined_masonry", "building:walls": "brick", "buildings:floor": "cement", "capacity": "100-250", "name": "Pasar Soponyono"}, "type": "Feature"}, {"geometry": {"coordinates": [[112.735691, -7.2284013], [112.7356605, -7.2284555], [112.735669, -7.2284596], [112.7356098, -7.228579], [112.7352026, -7.2283802], [112.7352619, -7.2282609], [112.7353932, -7.228325], [112.7354257, -7.2282596], [112.7354933, -7.2282957], [112.7355072, -7.2282675], [112.7357086, -7.2283659], [112.735691, -7.2284013]], "type": "LineString"}, "id": 451826906, "properties": {"access:roof": "no", "addr:full": "Jalan Kebalen Timur", "amenity": "marketplace", "building": "supermarket", "building:condition": "good", "building:levels": "2", "building:roof": "concrete", "building:structure": "confined_masonry", "building:walls": "brick", "buildings:floor": "ceramics", "capacity:persons": "100-250", "name": "Pasar Baba'an Baru"}, "type": "Feature"}, {"geometry": {"coordinates": [[112.7256757, -7.2948128], [112.7254661, -7.2946567], [112.7257692, -7.2943121], [112.7259131, -7.294443], [112.7256757, -7.2948128]], "type": "LineString"}, "id": 451857622, "properties": {"addr:full": "Jalan Brawijaya", "amenity": "marketplace", "building": "supermarket", "building:condition": "average", "building:floor": "ground", "building:levels": "1", "building:roof": "asbentos", "building:structure": "confined_masonry", "building:walls": "brick", "capacity": "100-250", "name": "Pasar Wonokitri"}, "type": "Feature"}, {"geometry": {"coordinates": [[112.7608944, -7.2177396], [112.7612686, -7.2178061], [112.7612115, -7.2181225], [112.7608373, -7.2180559], [112.7608944, -7.2177396]], "type": "LineString"}, "id": 452173173, "properties": {"access:roof": "no", "addr:full": "Jalan Bulak Banteng", "amenity": "marketplace", "backup_generator": "no", "building": "supermarket", "building:condition": "poor", "building:floor": "cement", "building:levels": "1", "building:roof": "asbentos", "building:structure": "confined_masonry", "building:walls": "brick", "capacity:persons": "250-500", "name": "Pasar Bulak Banteng"}, "type": "Feature"}, {"geometry": {"coordinates": [[112.7652601, -7.212257], [112.7652396, -7.2123793], [112.7656158, -7.2124414], [112.7655859, -7.2126194], [112.7650281, -7.2125277], [112.7650802, -7.2122169], [112.7651502, -7.2122284], [112.7651485, -7.2122386], [112.7652601, -7.212257]], "type": "LineString"}, "id": 452371764, "properties": {"access:roof": "no", "addr:full": "Jalan Bulak Banteng Bhineka Raya", "amenity": "marketplace", "backup_generator": "no", "building": "yes", "building:condition": "poor", "building:floor": "cement", "building:levels": "1", "building:roof": "asbentos", "building:structure": "confined_masonry", "building:walls": "brick", "capacity:persons": "250-500", "name": "Pasar Bulak Banteng"}, "type": "Feature"}, {"geometry": {"coordinates": [[112.7434579, -7.2781134], [112.7437496, -7.2780211], [112.7437949, -7.278007], [112.7442307, -7.277854], [112.7441556, -7.2776558], [112.7440027, -7.277518], [112.7437164, -7.2775414], [112.7433396, -7.2775573], [112.7432692, -7.2776012], [112.7432913, -7.2776711], [112.7433764, -7.2778992], [112.7434579, -7.2781134]], "type": "LineString"}, "id": 452580518, "properties": {"access:roof": "no", "addr:full": "Jalan Dinoyo", "amenity": "marketplace", "backup_generator": "no", "capacity": "250-500", "landuse": "retail", "name": "Pasar Keputran Selatan"}, "type": "Feature"}, {"geometry": {"coordinates": [[112.7518779, -7.2233442], [112.7520023, -7.2233789], [112.7521092, -7.2234225], [112.7521944, -7.2234408], [112.7522691, -7.2234667], [112.7520589, -7.2239686], [112.7520214, -7.223975], [112.7517147, -7.223872], [112.7516889, -7.223862], [112.7516673, -7.2238456], [112.7518779, -7.2233442]], "type": "LineString"}, "id": 452601173, "properties": {"addr:full": "Jalan Wonokusumo", "amenity": "marketplace", "building": "marketplace", "capacity:persons": "100-250", "name": "Pasar Buah Pegirian"}, "type": "Feature"}, {"geometry": {"coordinates": [[112.7665556, -7.218315], [112.7671492, -7.2184311], [112.7671178, -7.2185851], [112.767095, -7.2185824], [112.7669853, -7.2190986], [112.7663844, -7.2189976], [112.7664366, -7.2187115], [112.7664835, -7.2187181], [112.7664969, -7.2186449], [112.7665556, -7.218315]], "type": "LineString"}, "id": 453439341, "properties": {"access:roof": "no", "addr:full": "Jalan Bulak Banteng Sekolahan", "amenity": "marketplace", "backup_generator": "no", "building": "supermarket", "building:condition": "poor", "building:floor": "tekhel", "building:levels": "1", "building:roof": "asbentos", "building:structure": "confined_masonry", "building:walls": "brick", "capacity:persons": "250-500", "name": "Pasar Podomoro"}, "type": "Feature"}, {"geometry": {"coordinates": [[112.7147276, -7.2454264], [112.7149095, -7.2454306], [112.7149008, -7.2458084], [112.7147189, -7.2458043], [112.7147276, -7.2454264]], "type": "LineString"}, "id": 453890072, "properties": {"amenity": "marketplace", "building": "yes", "name": "Pasar"}, "type": "Feature"}, {"geometry": {"coordinates": [[112.7225801, -7.243476], [112.7225774, -7.2436391], [112.7226173, -7.2436398], [112.7226159, -7.2437261], [112.7226753, -7.2437271], [112.7226794, -7.2434776], [112.7225801, -7.243476]], "type": "LineString"}, "id": 454132663, "properties": {"access:roof": "no", "addr:full": "Jalan Babadan", "amenity": "marketplace", "backup_generator": "no", "building": "marketplace", "building:condition": "poor", "building:levels": "1", "building:roof": "asbentos", "building:structure": "confined_masonry", "building:walls": "brick", "capacity:persons": "50-100", "name": "Pasar"}, "type": "Feature"}, {"geometry": {"coordinates": [[112.7257695, -7.2426853], [112.7259056, -7.2426873], [112.7259044, -7.242845], [112.72576, -7.2428428], [112.7257613, -7.2427598], [112.7257682, -7.2427599], [112.7257695, -7.2426853]], "type": "LineString"}, "id": 454182588, "properties": {"access:roof": "no", "addr:full": "Jalan Dupak Masigit VI", "amenity": "marketplace", "backup_generator": "no", "building": "marketplace", "building:condition": "poor", "building:floor": "tekhel", "building:levels": "1", "building:roof": "tin", "building:structure": "wood_frame", "building:walls": "wood", "capacity:persons": "50-100", "name": "Pasar Dupak Jaya"}, "type": "Feature"}, {"geometry": {"coordinates": [[112.7332189, -7.2562167], [112.7339007, -7.2562951], [112.7336043, -7.2569124], [112.7332382, -7.2568512], [112.7333026, -7.2566996], [112.7332529, -7.2566025], [112.7331318, -7.2565972], [112.7332189, -7.2562167]], "type": "LineString"}, "id": 455037163, "properties": {"addr:full": "Jalan Kranggan", "amenity": "marketplace", "building": "yes", "name": "Pasar Blauran"}, "type": "Feature"}, {"geometry": {"coordinates": [[112.7170393, -7.2389377], [112.717312, -7.2389203], [112.7173276, -7.2391607], [112.7170549, -7.2391782], [112.7170393, -7.2389377]], "type": "LineString"}, "id": 455426669, "properties": {"access:roof": "no", "addr:full": "Jalan Alun alun Bangunsari utara", "amenity": "marketplace", "backup_generator": "no", "building": "marketplace", "building:condition": "good", "building:floor": "ceramics", "building:levels": "1", "building:roof": "tile", "building:structure": "confined_masonry", "building:walls": "brick", "capacity:persons": "250-500", "name": "Pasar Bangun Rejo"}, "type": "Feature"}, {"geometry": {"coordinates": [[112.6985458, -7.283961], [112.6992271, -7.2841642], [112.6992044, -7.2843311], [112.6984949, -7.2841841], [112.6985458, -7.283961]], "type": "LineString"}, "id": 455437293, "properties": {"addr:full": "jalan darmo permai timur iii", "amenity": "marketplace", "building": "marketplace", "capacity": "50-100", "name": "Pasar Tradisional Darmo Permai"}, "type": "Feature"}, {"geometry": {"coordinates": [[112.6685047, -7.2684182], [112.6694389, -7.2686352], [112.6693799, -7.2688854], [112.6684457, -7.2686684], [112.6685047, -7.2684182]], "type": "LineString"}, "id": 455599080, "properties": {"access:roof": "no", "addr:full": "Jalan Manukan", "amenity": "marketplace", "backup_generator": "no", "building": "marketplace", "building:condition": "poor", "building:roof": "asbentos", "building:structure": "confined_masonry", "building:walls": "wood", "buildings:floor": "cement", "capacity": "50-100", "name": "Pasar Dorowati"}, "type": "Feature"}, {"geometry": {"coordinates": [[112.7219574, -7.2788478], [112.7221657, -7.2782769], [112.7223364, -7.2783381], [112.7223269, -7.2783641], [112.7223809, -7.2783835], [112.7223009, -7.2786027], [112.722284, -7.2785967], [112.7221928, -7.2788467], [112.7221551, -7.2788332], [112.7221276, -7.2789088], [112.7219574, -7.2788478]], "type": "LineString"}, "id": 455662485, "properties": {"access:roof": "no", "addr:full": "jalan putat jaya", "amenity": "marketplace", "backup_generator": "no", "building": "marketplace", "building:condition": "good", "building:structure": "confined_masonry", "building:walls": "brick", "buildings:floor": "ceramics", "capacity": ">500", "name": "Pasar Kupang Gunung"}, "type": "Feature"}, {"geometry": {"coordinates": [[112.7269148, -7.2553594], [112.7267809, -7.2553118], [112.7267019, -7.2556569], [112.7268425, -7.2556886], [112.7269148, -7.2553594]], "type": "LineString"}, "id": 456503375, "properties": {"access:roof": "no", "addr:full": "Jalan Kalibutuh", "amenity": "marketplace", "backup_generator": "no", "building": "marketplace", "building:condition": "poor", "building:floor": "cement", "building:levels": "1", "building:roof": "tile", "building:structure": "confined_masonry", "building:walls": "wood", "capacity": "50-100", "name": "Pasar Tembok Dukuh"}, "type": "Feature"}, {"geometry": {"coordinates": [[112.6951247, -7.3416092], [112.6951689, -7.3416531], [112.6949771, -7.3418433], [112.6949329, -7.3417994], [112.6951247, -7.3416092]], "type": "LineString"}, "id": 456691659, "properties": {"addr:full": "jalan raya mastrip", "amenity": "marketplace", "building": "marketplace", "building:condition": "good", "building:floor": "cement", "building:roof": "tile", "building:structure": "confined_masonry", "building:walls": "brick", "capacity": "100-250", "name": "Pasar Karang Pilang"}, "type": "Feature"}, {"geometry": {"coordinates": [[112.6951723, -7.3416658], [112.6952092, -7.3417023], [112.6950221, -7.3418879], [112.6949852, -7.3418513], [112.6951723, -7.3416658]], "type": "LineString"}, "id": 456691660, "properties": {"addr:full": "jalan raya mastrip", "amenity": "marketplace", "building": "marketplace", "building:condition": "good", "building:floor": "cement", "building:roof": "tile", "building:structure": "confined_masonry", "building:walls": "brick", "capacity": "100-250", "name": "Pasar Karang Pilang"}, "type": "Feature"}, {"geometry": {"coordinates": [[112.701106, -7.2557398], [112.7010987, -7.2557294], [112.7011488, -7.2556948], [112.7011666, -7.2557201], [112.7011194, -7.2557527], [112.7010612, -7.2563692], [112.7012235, -7.2563842], [112.7012915, -7.2556633], [112.7012385, -7.2556695], [112.7012407, -7.2556439], [112.701357, -7.2555768], [112.7012822, -7.2564172], [112.7012267, -7.256412], [112.7010513, -7.2564745], [112.7010502, -7.2564864], [112.7009994, -7.2564817], [112.7010697, -7.2557364], [112.701106, -7.2557398]], "type": "LineString"}, "id": 457112884, "properties": {"addr:full": "Jalan Tanjungsari 26 a", "amenity": "marketplace", "building": "marketplace", "building:levels": "1", "building:structure": "confined_masonry", "capacity": "50-100", "name": "Pasar Buah Tradisional"}, "type": "Feature"}, {"geometry": {"coordinates": [[112.7505571, -7.3245825], [112.7506782, -7.3246366], [112.7505072, -7.3250133], [112.7503861, -7.3249593], [112.7505571, -7.3245825]], "type": "LineString"}, "id": 458603907, "properties": {"access:roof": "no", "amenity": "marketplace", "backup_generator": "no", "building": "marketplace", "building:condition": "good", "building:levels": "1", "building:roof": "tin", "building:structure": "wood_frame", "building:walls": "brick", "buildings:floor": "cement", "capacity": "50-100", "name": "Pasar Surya Kendangsari"}, "type": "Feature"}, {"geometry": {"coordinates": [[112.7201081, -7.305076], [112.720187, -7.3050861], [112.7201753, -7.3051676], [112.7200984, -7.3051509], [112.7201081, -7.305076]], "type": "LineString"}, "id": 459482009, "properties": {"access:roof": "no", "addr:full": "Jalan Gunungsari IV", "amenity": "marketplace", "backup_generator": "no", "building": "marketplace", "building:condition": "good", "building:floor": "ceramics", "building:levels": "1", "building:roof": "tin", "building:structure": "wood_frame", "building:walls": "brick", "capacity": "<50", "name": "Pasar Gunungsari"}, "type": "Feature"}, {"geometry": {"coordinates": [[112.6584586, -7.2553753], [112.6583721, -7.2554878], [112.6582085, -7.2553641], [112.6584044, -7.255109], [112.6584517, -7.2551447], [112.6584224, -7.2551829], [112.6585388, -7.2552708], [112.6584586, -7.2553753]], "type": "LineString"}, "id": 459701260, "properties": {"access:roof": "no", "addr:full": "banjar sugihan telaga", "amenity": "marketplace", "backup_generator": "no", "building": "marketplace", "building:condition": "good", "building:floor": "cement", "building:levels": "1", "building:roof": "asbentos", "building:structure": "wood_frame", "building:walls": "wood", "capacity": "100-250", "name": "Pasar Banjar Sugihan"}, "type": "Feature"}, {"geometry": {"coordinates": [[112.7110496, -7.280539], [112.711692, -7.2807413], [112.7114833, -7.2812517], [112.7113916, -7.2812208], [112.7112008, -7.2811616], [112.7108959, -7.2810256], [112.7110496, -7.280539]], "type": "LineString"}, "id": 459921941, "properties": {"access:roof": "no", "addr:full": "Jalan Dukuh Kupang Barat", "amenity": "marketplace", "backup_generator": "no", "building": "marketplace", "building:condition": "good", "building:floor": "ceramics", "building:levels": "1", "building:roof": "tile", "building:structure": "confined_masonry", "building:walls": "brick", "capacity": "250-500", "name": "Pasar Dukuh Kupang"}, "type": "Feature"}, {"geometry": {"coordinates": [[112.6789304, -7.259271], [112.6793516, -7.2593678], [112.6793099, -7.2595464], [112.6788887, -7.2594496], [112.6789304, -7.259271]], "type": "LineString"}, "id": 459961189, "properties": {"access:roof": "no", "addr:full": "jalan balomgsari", "amenity": "marketplace", "backup_generator": "no", "building": "yes", "building:floor": "cement", "building:roof": "asbentos", "capacity": "100-250", "name": "Pasar Surya Balongsari"}, "type": "Feature"}, {"geometry": {"coordinates": [[112.7518751, -7.3094606], [112.7521366, -7.3094886], [112.7521178, -7.3096617], [112.7518563, -7.3096338], [112.7518751, -7.3094606]], "type": "LineString"}, "id": 461091820, "properties": {"access:roof": "no", "addr:full": "Jalan Sidosermo PDK V", "amenity": "marketplace", "backup_generator": "no", "building": "marketplace", "building:condition": "good", "building:levels": "1", "building:roof": "tin", "building:structure": "wood_frame", "building:walls": "wood", "buildings:floor": "cement", "capacity": "<50", "name": "Pasar Krempyeng Sidosermo"}, "type": "Feature"}, {"geometry": {"coordinates": [[112.6724945, -7.4038724], [112.6721218, -7.4038173], [112.6720366, -7.4044268], [112.6724113, -7.4044936], [112.6724945, -7.4038724]], "type": "LineString"}, "id": 466534433, "properties": {"amenity": "marketplace", "building": "yes", "name": "Pasar Sukodono"}, "type": "Feature"}, {"geometry": {"coordinates": [[112.719807, -7.3422896], [112.7200498, -7.3423441], [112.7200157, -7.3424934], [112.7197729, -7.3424389], [112.719807, -7.3422896]], "type": "LineString"}, "id": 468664312, "properties": {"access:roof": "no", "addr:full": "Jalan Bambe Dukuh Menanggal", "amenity": "marketplace", "backup_generator": "no", "building": "marketplace", "building:condition": "good", "building:floor": "ceramics", "building:levels": "1", "building:roof": "asbentos", "building:structure": "steel_frame", "building:walls": "concrete", "capacity": "50-100", "name": "Pasar Dukuh Menanggal"}, "type": "Feature"}, {"geometry": {"coordinates": [[112.7615974, -7.3841259], [112.7623492, -7.384288], [112.7622792, -7.3850568], [112.7614479, -7.3848994], [112.7615974, -7.3841259]], "type": "LineString"}, "id": 472077909, "properties": {"addr:city": "Sedati", "amenity": "marketplace", "building": "yes", "name": "Terminal dan Pertokoan Sedati"}, "type": "Feature"}], "type": "FeatureCollection"}