{"features": [{"geometry": {"coordinates": [2.4598064, 6.3745678], "type": "Point"}, "id": 4172381291, "properties": {"amenity": "marketplace", "name": "March\u00e9 de N'v\u00e8named\u00e9"}, "type": "Feature"}, {"geometry": {"coordinates": [2.5074534, 6.3756425], "type": "Point"}, "id": 4207422049, "properties": {"amenity": "marketplace", "name": "March\u00e9 Sekandji"}, "type": "Feature"}, {"geometry": {"coordinates": [2.461551, 6.3708036], "type": "Point"}, "id": 4254736032, "properties": {"amenity": "marketplace", "name": "March\u00e9 PK3", "operator": "SOGEMA"}, "type": "Feature"}, {"geometry": {"coordinates": [2.5440886, 6.4564482], "type": "Point"}, "id": 4323430692, "properties": {"amenity": "marketplace", "name": "KINTOCOME"}, "type": "Feature"}, {"geometry": {"coordinates": [2.6269016, 6.4711879], "type": "Point"}, "id": 4431338551, "properties": {"amenity": "marketplace", "name": "March\u00e9 central"}, "type": "Feature"}, {"geometry": {"coordinates": [[2.6641253, 6.5326193], [2.6642677, 6.5325913], [2.6654035, 6.531883], [2.6654154, 6.5313469], [2.6648164, 6.5315564], [2.6643388, 6.5306925], [2.6641175, 6.5310025], [2.6636267, 6.5312862], [2.6628422, 6.5316501], [2.6631147, 6.5323305], [2.6637498, 6.5321883], [2.6641253, 6.5326193]], "type": "LineString"}, "id": 256268159, "properties": {"amenity": "marketplace", "landuse": "commercial", "name": "March\u00e9 d'Adjerra"}, "type": "Feature"}, {"geometry": {"coordinates": [[2.6106715, 6.5053286], [2.6119674, 6.5050715], [2.6121196, 6.5067679], [2.6113557, 6.5074305], [2.6111034, 6.5077911], [2.6107064, 6.50779], [2.6097827, 6.5069448], [2.6106715, 6.5053286]], "type": "LineString"}, "id": 256270415, "properties": {"amenity": "marketplace", "landuse": "commercial", "name": "Ouando", "source": "Bing"}, "type": "Feature"}, {"geometry": {"coordinates": [[2.6451195, 6.5017853], [2.6461899, 6.5013672], [2.6466953, 6.5021163], [2.6458969, 6.5028013], [2.6451195, 6.5017853]], "type": "LineString"}, "id": 356471210, "properties": {"amenity": "marketplace", "landuse": "commercial", "name": "March\u00e9"}, "type": "Feature"}, {"geometry": {"coordinates": [[2.6532672, 6.5518147], [2.6547571, 6.5513834], [2.6542243, 6.5504345], [2.6530699, 6.5511815], [2.6532672, 6.5518147]], "type": "LineString"}, "id": 364745356, "properties": {"addr:city": "Avrankou", "amenity": "marketplace", "fixme": "check", "name": "March\u00e9 central d'Avrankou", "source": "bing", "source:date": "12/16/2013"}, "type": "Feature"}, {"geometry": {"coordinates": [[2.5400087, 6.3953529], [2.5399586, 6.3953506], [2.5399186, 6.3953488], [2.539871, 6.3953284], [2.5398327, 6.3953119], [2.5397911, 6.3952941], [2.5396757, 6.3952447], [2.5394934, 6.3953402], [2.5394056, 6.3953862], [2.539393, 6.395407], [2.5394456, 6.3955287], [2.5397364, 6.3955194], [2.5397857, 6.3955156], [2.5398208, 6.3955128], [2.5400024, 6.3954986], [2.5400033, 6.3954779], [2.5400087, 6.3953529]], "type": "LineString"}, "id": 377325432, "properties": {"amenity": "marketplace", "name": "March\u00e9 Hou\u00e9ssi", "operator": "March\u00e9 Hou\u00e9ssi"}, "type": "Feature"}, {"geometry": {"coordinates": [[2.6089236, 6.4731218], [2.6089835, 6.473115], [2.60897, 6.4729981], [2.6090692, 6.4729868], [2.6090633, 6.4729358], [2.6089043, 6.4729538], [2.6089236, 6.4731218]], "type": "LineString"}, "id": 398778218, "properties": {"amenity": "marketplace", "building": "yes"}, "type": "Feature"}], "type": "FeatureCollection"}