{"features": [{"geometry": {"coordinates": [2.6348347, 6.5149012], "type": "Point"}, "id": 2619439185, "properties": {"amenity": "hospital", "name": "Centre Medico Social \"Salem\""}, "type": "Feature"}, {"geometry": {"coordinates": [2.630456, 6.5085373], "type": "Point"}, "id": 2619439229, "properties": {"amenity": "hospital", "name": "St. Nom de Jesus"}, "type": "Feature"}, {"geometry": {"coordinates": [2.6300123, 6.4940863], "type": "Point"}, "id": 2619447817, "properties": {"amenity": "hospital", "name": "Les Oliviers"}, "type": "Feature"}, {"geometry": {"coordinates": [2.6239369, 6.5112614], "type": "Point"}, "id": 3629965075, "properties": {"amenity": "hospital", "name": "Antonio"}, "type": "Feature"}, {"geometry": {"coordinates": [2.73156, 6.5379257], "type": "Point"}, "id": 3995348459, "properties": {"addr:street": "AVRANKOU", "amenity": "hospital", "name": "CLINIQUE LA PAIX"}, "type": "Feature"}, {"geometry": {"coordinates": [2.541073, 6.4524724], "type": "Point"}, "id": 4113030008, "properties": {"abandoned": "no", "amenity": "hospital", "disused": "no", "health_facility:type": "hospital", "name": "CENTRE MEDICO SOCIAL DE HOULAZOUME", "operator": "CROIX ROUGE", "operator:type": "ngo", "source": "Bing;survey"}, "type": "Feature"}, {"geometry": {"coordinates": [2.6615525, 6.4298099], "type": "Point"}, "id": 4167450224, "properties": {"amenity": "hospital", "name": "Maternit\u00e9 de Tohou\u00e9"}, "type": "Feature"}, {"geometry": {"coordinates": [2.4629357, 6.3819772], "type": "Point"}, "id": 4172329288, "properties": {"amenity": "hospital", "name": "Hopital de Zone de SURU LERE"}, "type": "Feature"}, {"geometry": {"coordinates": [2.6131516, 6.474103], "type": "Point"}, "id": 4228082414, "properties": {"amenity": "hospital", "emergency": "yes", "name": "Centre Hopitalier Universitaire D\u00e9partemental de l'Ou\u00e9m\u00e9-Plateau", "source": "bing"}, "type": "Feature"}, {"geometry": {"coordinates": [2.4498446, 6.3781288], "type": "Point"}, "id": 4228452693, "properties": {"amenity": "hospital", "name": "Hopital de Zone Ay\u00e9lawadj\u00e8"}, "type": "Feature"}, {"geometry": {"coordinates": [2.4575849, 6.4982139], "type": "Point"}, "id": 4312742170, "properties": {"addr:hamlet": "Houedo-Aguekon", "amenity": "hospital", "name": "Centre de sant\u00e9 de Houedo-Aguekon"}, "type": "Feature"}, {"geometry": {"coordinates": [2.5440858, 6.4547159], "type": "Point"}, "id": 4323401508, "properties": {"amenity": "hospital"}, "type": "Feature"}, {"geometry": {"coordinates": [2.6136117, 6.4729714], "type": "Point"}, "id": 4405020928, "properties": {"amenity": "hospital", "name": "M\u00e9d\u00e9cine G\u00e9n\u00e9rale", "operator": "CHUD-OP"}, "type": "Feature"}, {"geometry": {"coordinates": [[2.5415811, 6.3871352], [2.5418378, 6.3871354], [2.5418379, 6.3870346], [2.5419008, 6.3870347], [2.5419348, 6.3870347], [2.5420225, 6.3870348], [2.5420232, 6.3863223], [2.5419151, 6.3863222], [2.5413704, 6.3863234], [2.5412169, 6.3863215], [2.5409987, 6.3863213], [2.5409981, 6.3869132], [2.5412971, 6.3869135], [2.5415814, 6.3869138], [2.5415811, 6.3871352]], "type": "LineString"}, "id": 376980825, "properties": {"amenity": "hospital", "barrier": "wall", "name": "Hopital de Zone d'EKPE", "source": "bing", "source:date": "12/16/2013"}, "type": "Feature"}, {"geometry": {"coordinates": [[2.6008936, 6.5185001], [2.6010628, 6.5176329], [2.6012095, 6.5168205], [2.6013088, 6.5163956], [2.6018454, 6.5164117], [2.6022604, 6.5165708], [2.6023867, 6.5168464], [2.6030633, 6.5171198], [2.603696, 6.5174015], [2.6036485, 6.5175229], [2.6033603, 6.5183894], [2.6033487, 6.5184247], [2.6032493, 6.5187312], [2.6031011, 6.5192324], [2.6024983, 6.5190082], [2.6011735, 6.5186358], [2.6008936, 6.5185001]], "type": "LineString"}, "id": 379586649, "properties": {"amenity": "hospital", "name": "Islamic Hospital", "name:fr": "H\u00f4pital Musulman"}, "type": "Feature"}, {"geometry": {"coordinates": [[2.6659084, 6.4322487], [2.6659326, 6.4324193], [2.6659648, 6.4325392], [2.6659862, 6.4326379], [2.6660291, 6.4327845], [2.6662249, 6.4327445], [2.6661901, 6.4325472], [2.666174, 6.4323207], [2.6661659, 6.4322274], [2.6659084, 6.4322487]], "type": "LineString"}, "id": 415781860, "properties": {"amenity": "hospital", "building": "yes", "name": "Centre de Sant\u00e9 de Tohou\u00e9"}, "type": "Feature"}], "type": "FeatureCollection"}