{"features": [{"geometry": {"coordinates": [-4.0130662, 5.4272612], "type": "Point"}, "id": 2443106746, "properties": {"amenity": "university", "name": "Annexe1 Universit\u00e9 Nangui Abrogoua"}, "type": "Feature"}, {"geometry": {"coordinates": [-4.0104819, 5.3495009], "type": "Point"}, "id": 3143709995, "properties": {"amenity": "university", "name": "DEPS"}, "type": "Feature"}, {"geometry": {"coordinates": [-3.9966317, 5.3313756], "type": "Point"}, "id": 3283752496, "properties": {"amenity": "university", "name": "Universit\u00e9 Catholique de l'Afrique de l'Ouest (UCAO)", "operator": "Conf\u00e9rence \u00e9piscopale r\u00e9gionale de l'Afrique de l'Ouest (CERAO)"}, "type": "Feature"}, {"geometry": {"coordinates": [-3.9946092, 5.3707728], "type": "Point"}, "id": 3319181792, "properties": {"amenity": "university", "name": "Universit\u00e9 de l'Atlantique"}, "type": "Feature"}, {"geometry": {"coordinates": [-3.9950326, 5.3620957], "type": "Point"}, "id": 3406198872, "properties": {"addr:city": "Cocody", "addr:country": "CI", "addr:housenumber": "181", "addr:state": "Abidjan", "addr:street": "Rue J36", "addr:suburb": "Deux Plateaux", "amenity": "university", "building": "yes", "name": "IPMC - College of Technology", "office": "it", "phone": "+225-04.87.65.66", "website": "http://www.ipmctraining.com/"}, "type": "Feature"}, {"geometry": {"coordinates": [-3.9798412, 5.2557335], "type": "Point"}, "id": 3536491427, "properties": {"amenity": "university", "building": "university", "name": "Universit\u00e9 Nord-Sud"}, "type": "Feature"}, {"geometry": {"coordinates": [-4.0572892, 5.3474465], "type": "Point"}, "id": 3556430505, "properties": {"addr:city": "Yopougon", "addr:country": "CI", "addr:state": "Abidjan", "amenity": "university", "name": "GECOS FORMATION"}, "type": "Feature"}, {"geometry": {"coordinates": [-3.9662984, 5.3576524], "type": "Point"}, "id": 4411477987, "properties": {"addr:full": "Boulevard Fran\u00e7ois Mitterrand, Rivera 3, Cocody, Abidjan, C\u00f4te d'Ivoire", "amenity": "university", "contact:email": "info@ucasm.org", "contact:phone": "+225 22476316", "contact:website": "http://ucasm.org", "description": "L'Universit\u00e9 Canadienne offre en plus des formations continues et des certificats divers, des programmes de bachelor en administration des affaires, en droit, un programme de DESS en gestion de projet et un programme de MBA pour cadres.", "name": "Universit\u00e9 Canadienne des Arts, des Sciences et du Management", "operator:type": "private", "project:oif-dfen_carteinnov": "yes", "short_name": "UC-ASM", "source": "local_knowledge;oif-dfen_carteinnov", "source:date": "2016-09-20", "source:geometry": "survey;oif-dfen_carteinnov", "start_date": "1998"}, "type": "Feature"}, {"geometry": {"coordinates": [-3.9932453, 5.3475404], "type": "Point"}, "id": 4411583886, "properties": {"addr:full": "Non loin de l'Universit\u00e9 F\u00e9lix Houphouet Boigny, Cocody, Abidjan, C\u00f4te d'Ivoire", "amenity": "university", "contact:email": "info@umeci.org.ci", "contact:phone": "+225 22446668", "contact:website": "http://umeci.org.ci", "description": "L'UMECI forme les \u00e9tudiants aux niveaux suivants: BTS, Licence Professionnelle et aussi des UFR Sciences juridique, UFR Sciences \u00e9conomique et de gestion, UFR lettre, langue et civilisation.", "name": "Universit\u00e9 M\u00e9thodiste de C\u00f4te d'Ivoire", "operator:type": "private", "project:oif-dfen_carteinnov": "yes", "short_name": "UMECI", "source": "local_knowledge;oif-dfen_carteinnov", "source:date": "2016-09-20", "source:geometry": "survey;oif-dfen_carteinnov", "start_date": "2006"}, "type": "Feature"}, {"geometry": {"coordinates": [-3.987016, 5.3443352], "type": "Point"}, "id": 4436461938, "properties": {"addr:full": "Boulevard de l'Universit\u00e9, Cocody, Abidjan, C\u00f4te d'Ivoire", "amenity": "university", "contact:email": "courrier@univ-fhb.edu.ci", "contact:facebook": "www.facebook.com/univfhb", "contact:twitter": "http://twitter.com/univfhb", "contact:website": "http://univ-fhb.edu.ci", "description": "L'UFHB assure des missions d'enseignement et de recherche au sein de zeize (16) structures dont 13 unit\u00e9s de formation et de recherche (UFR) et 2 centres de recherche autonomes, une \u00e9cole de formation continue et des instituts.", "name": "Universit\u00e9 Felix Houphouet Boigny", "operator": "Minist\u00e8re de l'Enseignement Sup\u00e9rieur et de la Recherche Scientifique", "operator:type": "public", "project:oif-dfen_carteinnov": "yes", "short_name": "UFHB", "source": "local_knowledge;oif-dfen_carteinnov", "source:date": "2016-10-07", "source:geometry": "survey;oif-dfen_carteinnov", "start_date": "1958"}, "type": "Feature"}, {"geometry": {"coordinates": [-4.1562116, 5.3196799], "type": "Point"}, "id": 4459066851, "properties": {"amenity": "university", "name": "Grand Seminaire Saint Paul d\u2019Abadjin-Kout\u00e9"}, "type": "Feature"}, {"geometry": {"coordinates": [[-3.9443542, 5.328263], [-3.9432079, 5.3282751], [-3.9432064, 5.3275253], [-3.9432073, 5.3274521], [-3.9432083, 5.3268076], [-3.9432094, 5.3260904], [-3.9439272, 5.3260855], [-3.9441243, 5.3260841], [-3.9443454, 5.3265455], [-3.9443636, 5.3266745], [-3.9443542, 5.328263]], "type": "LineString"}, "id": 94849536, "properties": {"amenity": "university", "barrier": "wall", "name": "Facult\u00e9 de th\u00e9ologie \u00e9vang\u00e9lique de l'alliance chr\u00e9tienne (FATEAC)"}, "type": "Feature"}, {"geometry": {"coordinates": [[-4.0808436, 5.3601329], [-4.0788223, 5.3606627], [-4.0777065, 5.3600645], [-4.0766765, 5.3598509], [-4.0754577, 5.3593745], [-4.0746166, 5.3586545], [-4.0746101, 5.3565032], [-4.0807814, 5.3564092], [-4.0808436, 5.3601329]], "type": "LineString"}, "id": 171060498, "properties": {"amenity": "university", "name": "Lyc\u00e9e professionnel commercial de Yopougon", "source": "formation.gouv.ci"}, "type": "Feature"}, {"geometry": {"coordinates": [[-4.0242651, 5.3679404], [-4.0239671, 5.3679337], [-4.0239671, 5.3675137], [-4.0242718, 5.367527], [-4.0242651, 5.3679404]], "type": "LineString"}, "id": 229640215, "properties": {"amenity": "university", "name": "Cit\u00e9 Universitaire", "operator": "Universit\u00e9"}, "type": "Feature"}, {"geometry": {"coordinates": [[-4.0242948, 5.3671146], [-4.0242977, 5.366868], [-4.0239888, 5.366852], [-4.0239786, 5.3671059], [-4.024085, 5.3671088], [-4.0242948, 5.3671146]], "type": "LineString"}, "id": 229641347, "properties": {"amenity": "university", "name": "Cite Universitaire", "operator": "Universite"}, "type": "Feature"}, {"geometry": {"coordinates": [[-4.0204502, 5.3960667], [-4.0206202, 5.3960675], [-4.020639, 5.3946076], [-4.0206269, 5.3939337], [-4.0205958, 5.3916192], [-4.0205611, 5.3887336], [-4.0205592, 5.3885731], [-4.0205266, 5.3885293], [-4.0202985, 5.3885309], [-4.020295, 5.3884922], [-4.0202773, 5.3882957], [-4.020145, 5.3882933], [-4.020026, 5.3875115], [-4.0175856, 5.3865323], [-4.0169055, 5.3861877], [-4.0161016, 5.3854316], [-4.0157231, 5.3852862], [-4.0155903, 5.3850879], [-4.0157032, 5.3850185], [-4.0156169, 5.3848532], [-4.0155969, 5.3845326], [-4.0151322, 5.3837988], [-4.0148865, 5.3835311], [-4.0145512, 5.3832369], [-4.0144117, 5.383303], [-4.0141993, 5.383194], [-4.0138241, 5.3833691], [-4.013107, 5.3824271], [-4.0129676, 5.3821098], [-4.0121689, 5.3827003], [-4.0097871, 5.3837393], [-4.0093555, 5.3839806], [-4.0095609, 5.3841202], [-4.009361, 5.3858578], [-4.0114673, 5.3882487], [-4.0127749, 5.3896804], [-4.0140709, 5.3911398], [-4.0148987, 5.3920251], [-4.0149045, 5.392391], [-4.01508, 5.3923901], [-4.0153093, 5.3924647], [-4.0159376, 5.3931878], [-4.0162684, 5.3934482], [-4.0187977, 5.3955818], [-4.0191856, 5.3959718], [-4.0194533, 5.3962431], [-4.020463, 5.3962381], [-4.0204502, 5.3960667]], "type": "LineString"}, "id": 238216693, "properties": {"addr:city": "Abobo", "addr:country": "CI", "addr:state": "Abidjan", "alt_name": "Universit\u00e9 d\u2019Abobo-Adjam\u00e9", "amenity": "university", "barrier": "wall", "name": "Universit\u00e9 Nangui Abrogoua", "note": "L'universit\u00e9 Nangui Abrogoua est, avec l'universit\u00e9 F\u00e9lix Houphou\u00ebt-Boigny, l'une des deux universit\u00e9s publiques d'Abidjan, la capitale \u00e9conomique de la C\u00f4te d'Ivoire. Son actuel pr\u00e9sident est le professeur Tano Yao et le vice-pr\u00e9sident est Lacin\u00e9 Couliba", "source": "https://secure.wikimedia.org/wikipedia/fr/wiki/Universit%C3%A9_Nangui_Abrogoua", "website": "http://www.univ-na.edu.ci/", "wheelchair": "yes", "wikidata": "Q3551460", "wikipedia": "fr:Universit\u00e9 Nangui Abrogoua"}, "type": "Feature"}, {"geometry": {"coordinates": [[-4.115856, 5.3133356], [-4.1153981, 5.3140603], [-4.1147213, 5.3153213], [-4.1143804, 5.3182102], [-4.1144388, 5.3184913], [-4.1144933, 5.3186796], [-4.1153537, 5.3190871], [-4.1154743, 5.318901], [-4.115619, 5.3187719], [-4.1159085, 5.3187209], [-4.1166118, 5.3183117], [-4.1174077, 5.3179755], [-4.1177967, 5.3179815], [-4.118163, 5.3183758], [-4.1187186, 5.3193189], [-4.1190925, 5.319178], [-4.1196731, 5.3190235], [-4.1203269, 5.318863], [-4.1208399, 5.3184694], [-4.121252, 5.317983], [-4.121381, 5.317854], [-4.1218499, 5.3171282], [-4.1220195, 5.3163459], [-4.1216922, 5.3156518], [-4.121039, 5.3149006], [-4.1200136, 5.3142509], [-4.1187552, 5.3141627], [-4.1174781, 5.3139029], [-4.1166438, 5.313462], [-4.115856, 5.3133356]], "type": "LineString"}, "id": 243412169, "properties": {"addr:city": "Yopougon", "addr:country": "CI", "addr:state": "Abidjan", "amenity": "university", "name": "Acad\u00e9mie r\u00e9gionale des sciences et techniques de la mer (ARSTM)", "source": "raw guess", "url": "http://www.arstm.org", "website": "http://www.arstm.org"}, "type": "Feature"}, {"geometry": {"coordinates": [[-3.997492, 5.3608839], [-3.9973971, 5.3610905], [-3.9973445, 5.3613618], [-3.9973177, 5.3616235], [-3.9973016, 5.3618158], [-3.9973016, 5.3619867], [-3.9972318, 5.3621149], [-3.9971325, 5.3622252], [-3.9969518, 5.3623029], [-3.9965915, 5.362313], [-3.9965947, 5.3618546], [-3.9965947, 5.3618158], [-3.9965949, 5.3617547], [-3.996595, 5.3616807], [-3.9965914, 5.3612061], [-3.9966877, 5.361207], [-3.996691, 5.3608358], [-3.9965887, 5.3608349], [-3.9965889, 5.3607246], [-3.9965893, 5.3603826], [-3.9966237, 5.3603827], [-3.9971197, 5.3603833], [-3.9971614, 5.3603837], [-3.9972711, 5.3603841], [-3.9975135, 5.3603818], [-3.9976546, 5.3606151], [-3.997492, 5.3608839]], "type": "LineString"}, "id": 243448897, "properties": {"addr:city": "Cocody", "addr:country": "CI", "addr:housename": "l'\u00c9cole nationale d'administration (ENA)", "addr:state": "Abidjan", "addr:street": "Rue J32", "addr:suburb": "Deux Plateaux", "amenity": "university", "barrier": "fence", "is_in": "Deux Plateaux;Cocody;Abidjan;C\u00f4te d'Ivoire", "name": "\u00c9cole nationale d'administration (ENA)", "operator": "Minist\u00e8re de la fonction publique et de l'emploi"}, "type": "Feature"}, {"geometry": {"coordinates": [[-3.9951518, 5.339679], [-3.9951287, 5.3399775], [-3.9951405, 5.3401946], [-3.9955674, 5.3402506], [-3.9956309, 5.339717], [-3.9951518, 5.339679]], "type": "LineString"}, "id": 315643220, "properties": {"addr:city": "Cocody", "addr:country": "CI", "addr:state": "Abidjan", "amenity": "university", "building": "school", "name": "Universit\u00e9 Charles-Louis-de-Montesquieux"}, "type": "Feature"}], "type": "FeatureCollection"}