{"features": [{"geometry": {"coordinates": [-4.016696, 5.4211667], "type": "Point"}, "id": 1140749261, "properties": {"amenity": "townhall", "name": "Mairie Abobo"}, "type": "Feature"}, {"geometry": {"coordinates": [-3.8891286, 5.3567446], "type": "Point"}, "id": 1959286274, "properties": {"amenity": "townhall", "name": "Mairie de Bingerville"}, "type": "Feature"}, {"geometry": {"coordinates": [-3.9652499, 5.2590981], "type": "Point"}, "id": 2082753726, "properties": {"amenity": "townhall", "name": "H\u00f4tel Communal de Port-Bou\u00ebt"}, "type": "Feature"}, {"geometry": {"coordinates": [-3.969117, 5.2907225], "type": "Point"}, "id": 3396929158, "properties": {"amenity": "townhall", "name": "Mairie de Koumassi"}, "type": "Feature"}, {"geometry": {"coordinates": [-4.020374, 5.3214336], "type": "Point"}, "id": 3417574370, "properties": {"amenity": "townhall", "name": "H\u00f4tel du District"}, "type": "Feature"}, {"geometry": {"coordinates": [-4.0674479, 5.3438879], "type": "Point"}, "id": 4517407179, "properties": {"amenity": "townhall", "name": "Mairie de Yopougon"}, "type": "Feature"}, {"geometry": {"coordinates": [-4.0341157, 5.3474975], "type": "Point"}, "id": 4728603989, "properties": {"addr:city": "Att\u00e9coub\u00e9", "addr:country": "CI", "addr:state": "Abidjan", "amenity": "townhall", "name": "Mairie d\u2019Attecoub\u00e9", "name:fr": "Mairie d\u2019Attecoub\u00e9"}, "type": "Feature"}, {"geometry": {"coordinates": [[-4.0273799, 5.3430848], [-4.0274102, 5.3427251], [-4.0264892, 5.3426619], [-4.0264561, 5.3430161], [-4.0273799, 5.3430848]], "type": "LineString"}, "id": 236449346, "properties": {"amenity": "townhall", "building": "yes", "name": "Mairie d'Adjam\u00e9"}, "type": "Feature"}, {"geometry": {"coordinates": [[-4.0921808, 5.3269885], [-4.0921387, 5.3272232], [-4.0919956, 5.3272903], [-4.0917894, 5.3271813], [-4.0917052, 5.3270053], [-4.091802, 5.326867], [-4.0919526, 5.3268385], [-4.0921808, 5.3269885]], "type": "LineString"}, "id": 276428135, "properties": {"amenity": "townhall", "building": "yes", "name": "Mairie de Yopougon - Annexe de Niangon"}, "type": "Feature"}, {"geometry": {"coordinates": [[-4.0761937, 5.3315602], [-4.0767382, 5.3313946], [-4.0765894, 5.330958], [-4.0760932, 5.330962], [-4.0760717, 5.3310595], [-4.0761937, 5.3315602]], "type": "LineString"}, "id": 302529377, "properties": {"addr:city": "Yopougon", "addr:country": "CI", "addr:state": "Abidjan", "amenity": "townhall", "building": "yes", "name": "Mairie Technique Yopougon"}, "type": "Feature"}, {"geometry": {"coordinates": [[-4.053688, 5.3269648], [-4.053747, 5.3269167], [-4.0537336, 5.32689], [-4.053747, 5.3268713], [-4.0537631, 5.3268473], [-4.0537765, 5.3268206], [-4.0537873, 5.3267778], [-4.0536988, 5.3267458], [-4.053688, 5.3267778], [-4.0536693, 5.3268019], [-4.0536478, 5.3268206], [-4.053621, 5.3268366], [-4.0535888, 5.3268366], [-4.0535539, 5.3268286], [-4.0535244, 5.3268206], [-4.0534815, 5.3269033], [-4.053562, 5.3269274], [-4.0535673, 5.3269033], [-4.0535942, 5.3269167], [-4.0536183, 5.3269114], [-4.0536532, 5.3269007], [-4.053688, 5.3269648]], "type": "LineString"}, "id": 302688551, "properties": {"addr:city": "Yopougon", "addr:country": "CI", "addr:state": "Abidjan", "addr:street": "Rue M24", "amenity": "townhall", "building": "yes", "name": "Mairie Technique de Yopougon Toits-Rouges"}, "type": "Feature"}, {"geometry": {"coordinates": [[-4.013273, 5.3102234], [-4.0131635, 5.3099124], [-4.0130498, 5.3099521], [-4.0129071, 5.3100019], [-4.0128169, 5.3100334], [-4.0124267, 5.3101695], [-4.0124427, 5.3102148], [-4.0124802, 5.3103214], [-4.0124903, 5.310351], [-4.0125366, 5.3104807], [-4.0126547, 5.310439], [-4.0127957, 5.3103904], [-4.0128771, 5.3103616], [-4.0130165, 5.3103125], [-4.0131587, 5.3102633], [-4.0131908, 5.3102521], [-4.0132027, 5.3102479], [-4.013273, 5.3102234]], "type": "LineString"}, "id": 302862292, "properties": {"addr:city": "Treichville", "addr:country": "CI", "addr:state": "Abidjan", "amenity": "townhall", "name": "Mairie de Treichville"}, "type": "Feature"}, {"geometry": {"coordinates": [[-4.0263175, 5.3433309], [-4.0261964, 5.3433309], [-4.0261964, 5.3431215], [-4.0263175, 5.3431215], [-4.0263175, 5.3433309]], "type": "LineString"}, "id": 309064574, "properties": {"amenity": "townhall", "building": "yes", "name": "Socio-culturel Mairie d'Adjam\u00e9"}, "type": "Feature"}, {"geometry": {"coordinates": [[-4.0234097, 5.3231091], [-4.02341, 5.3230537], [-4.023451, 5.3229959], [-4.0236731, 5.3231427], [-4.0239334, 5.3233756], [-4.0240712, 5.3235195], [-4.0241661, 5.323628], [-4.02428, 5.3238267], [-4.0243429, 5.32402], [-4.0243875, 5.324333], [-4.0240373, 5.3243306], [-4.023851, 5.3241272], [-4.0238299, 5.324102], [-4.0238396, 5.3235482], [-4.0236714, 5.3233484], [-4.0236216, 5.3234185], [-4.0233925, 5.3234099], [-4.0234097, 5.3231091]], "type": "LineString"}, "id": 321988362, "properties": {"addr:city": "Plateau", "addr:country": "CI", "addr:housename": "Mairie du Plateau", "addr:state": "Abidjan", "addr:street": "Boulevard Cadre", "amenity": "townhall", "barrier": "wall", "name": "Mairie du Plateau"}, "type": "Feature"}, {"geometry": {"coordinates": [[-4.0041533, 5.3332845], [-4.0039224, 5.3332573], [-4.0034176, 5.333198], [-4.0030885, 5.3331574], [-4.0030952, 5.3331129], [-4.0031421, 5.332642], [-4.0032036, 5.3321989], [-4.0040712, 5.3322493], [-4.004158, 5.3322544], [-4.0042718, 5.332261], [-4.004197, 5.3329067], [-4.0041877, 5.3329875], [-4.0041533, 5.3332845]], "type": "LineString"}, "id": 401437787, "properties": {"addr:city": "Cocody", "addr:country": "CI", "addr:state": "Abidjan", "addr:street": "Boulevard des Martyrs", "addr:suburb": "Vieux Cocody", "amenity": "townhall", "barrier": "fence", "is_in": "Vieux Cocody;Cocody;Abidjan;C\u00f4te d'Ivoire", "name": "Mairie de Cocody"}, "type": "Feature"}, {"geometry": {"coordinates": [[-4.0039364, 5.333122], [-4.0039511, 5.3329985], [-4.0039603, 5.3329211], [-4.0039937, 5.3326402], [-4.003891, 5.3326281], [-4.0038869, 5.3326623], [-4.0036355, 5.3326327], [-4.0036135, 5.332818], [-4.0038301, 5.3328435], [-4.0038069, 5.3330395], [-4.003543, 5.3330085], [-4.0035262, 5.3330065], [-4.0035121, 5.3331246], [-4.003901, 5.3331704], [-4.0039072, 5.3331186], [-4.0039364, 5.333122]], "type": "LineString"}, "id": 401437802, "properties": {"addr:city": "Cocody", "addr:country": "CI", "addr:state": "Abidjan", "addr:street": "Boulevard des Martyrs", "addr:suburb": "Vieux Cocody", "amenity": "townhall", "building": "yes", "building:levels": "1", "is_in": "Vieux Cocody;Cocody;Abidjan;C\u00f4te d'Ivoire", "name": "Mairie de Cocody"}, "type": "Feature"}], "type": "FeatureCollection"}